{"version": 0.6, "generator": "Overpass API 0.7.62.5 1bd436f1", "osm3s": {"timestamp_osm_base": "2025-05-02T10:01:16Z", "copyright": "The data included in this document is from www.openstreetmap.org. The data is made available under ODbL."}, "elements": [{"type": "node", "id": 253999769, "lat": 36.7341873, "lon": 3.2828683, "tags": {"electrified": "contact_line", "image": "https://upload.wikimedia.org/wikipedia/fr/5/53/SNTF.png", "name": "Rouiba", "name:ar": "\u0631\u0648\u064a\u0628\u0629", "name:fr": "Rouiba", "railway": "station", "wikidata": "Q28041114", "wikipedia": "fr:Gare de Rou\u00efba"}}, {"type": "node", "id": 254008647, "lat": 36.7146164, "lon": 3.210803, "tags": {"electrified": "contact_line", "image": "https://upload.wikimedia.org/wikipedia/fr/5/53/SNTF.png", "name": "Dar El Beida", "name:ar": "\u062f\u0627\u0631 \u0627\u0644\u0628\u064a\u0636\u0627\u0621", "name:en": "Dar El Beida", "name:fr": "Dar El Beida", "operator": "SNTF", "public_transport": "station", "railway": "station"}}, {"type": "node", "id": 254011000, "lat": 36.7038346, "lon": 3.171869, "tags": {"electrified": "contact_line", "image": "https://upload.wikimedia.org/wikipedia/fr/5/53/SNTF.png", "name": "Oued Smar", "name:ar": "\u0648\u0627\u062f \u0633\u0645\u0627\u0631", "name:en": "Oued Smar", "name:fr": "Oued Smar", "operator": "SNTF", "operator:wikidata": "Q1275038", "owner": "SNTF", "owner:wikidata": "Q1275038", "public_transport": "station", "railway": "station", "wikidata": "Q110493808", "wikipedia": "fr:Gare de Oued Smar"}}, {"type": "node", "id": 283528340, "lat": 36.7353435, "lon": 3.1193518, "tags": {"electrified": "contact_line", "name": "Caroubier", "name:ar": "\u0627\u0644\u062e\u0631\u0648\u0628\u0629", "name:de": "Caroubier", "name:en": "Caroubier", "name:fr": "Caroubier", "railway": "station", "usage": "main"}}, {"type": "node", "id": 283529874, "lat": 36.7678826, "lon": 3.0571896, "tags": {"addr:city": "Alger Centre", "electrified": "contact_line", "gauge": "1435", "image": "https://upload.wikimedia.org/wikipedia/fr/5/53/SNTF.png", "name": "Agha", "name:ar": "\u0622\u063a\u0627", "name:ber": "\u2d30\u2d56\u2d30", "name:fr": "Agha", "operator": "SNTF", "public_transport": "station", "railway": "station", "usage": "main"}}, {"type": "node", "id": 316549413, "lat": 36.6661975, "lon": 3.0510537, "tags": {"addr:city": "\u0627\u0644\u0633\u062d\u0627\u0648\u0644\u0629", "addr:city:ar": "\u0627\u0644\u0633\u062d\u0627\u0648\u0644\u0629", "addr:place": "\u0628\u0627\u0628\u0627 \u0639\u0644\u064a", "addr:place:ar": "\u0628\u0627\u0628\u0627 \u0639\u0644\u064a", "name": "Baba Ali", "name:ar": "\u0628\u0627\u0628\u0627 \u0639\u0644\u064a", "name:de": "Baba Ali", "name:en": "Baba Ali", "name:fr": "Baba Ali", "operator": "\u0627\u0644\u0634\u0631\u0643\u0629 \u0627\u0644\u0648\u0637\u0646\u064a\u0629 \u0644\u0644\u0646\u0642\u0644 \u0628\u0627\u0644\u0633\u0643\u0643 \u0627\u0644\u062d\u062f\u064a\u062f\u064a\u0629", "operator:ar": "\u0627\u0644\u0634\u0631\u0643\u0629 \u0627\u0644\u0648\u0637\u0646\u064a\u0629 \u0644\u0644\u0646\u0642\u0644 \u0628\u0627\u0644\u0633\u0643\u0643 \u0627\u0644\u062d\u062f\u064a\u062f\u064a\u0629", "operator:wikidata": "Q1275038", "operator:wikipedia": "ar:\u0627\u0644\u0634\u0631\u0643\u0629 \u0627\u0644\u0648\u0637\u0646\u064a\u0629 \u0644\u0644\u0646\u0642\u0644 \u0628\u0627\u0644\u0633\u0643\u0643 \u0627\u0644\u062d\u062f\u064a\u062f\u064a\u0629", "public_transport": "station", "railway": "station", "usage": "main", "wheelchair": "limited", "wikidata": "Q110509249", "wikipedia": "fr:Gare de Baba Ali"}}, {"type": "node", "id": 316549483, "lat": 36.6894156, "lon": 3.0789795, "tags": {"image": "https://upload.wikimedia.org/wikipedia/fr/5/53/SNTF.png", "name": "A\u00efn Na\u00e2dja", "name:ar": "\u0639\u064a\u0646 \u0627\u0644\u0646\u0639\u062c\u0629", "name:fr": "Ain Naadja", "network": "Alger - El Afroun", "operator": "SNTF", "railway": "station", "usage": "main"}}, {"type": "node", "id": 316549497, "lat": 36.6967503, "lon": 3.0952804, "tags": {"name": "Gu\u00e9 de Constantine", "name:ar": "\u062c\u0633\u0631 \u0642\u0633\u0646\u0637\u064a\u0646\u0629", "operator": "SNTF", "operator:wikidata": "Q1275038", "owner": "SNTF", "owner:wikidata": "Q1275038", "railway": "station", "usage": "main", "wikidata": "Q110508977", "wikipedia": "fr:Gare du Gu\u00e9 de Constantine"}}, {"type": "node", "id": 316550333, "lat": 36.722095, "lon": 3.1324052, "tags": {"addr:city": "El Harrach", "addr:street": "Rue Hassen Bey Ali", "electrified": "contact_line", "image": "https://upload.wikimedia.org/wikipedia/fr/5/53/SNTF.png", "name": "El Harrach", "name:ar": "\u0627\u0644\u062d\u0631\u0627\u0634", "operator": "SNTF", "railway": "station", "usage": "main"}}, {"type": "node", "id": 317893446, "lat": 36.6310945, "lon": 3.0099595, "tags": {"name": "Birtouta", "name:ar": "\u0645\u062d\u0637\u0629 \u0627\u0644\u0642\u0637\u0627\u0631 \u0628\u0626\u0631 \u062a\u0648\u062a\u0629", "name:en": "Birtouta", "name:fr": "Birtouta", "operator": "SNTF", "operator:wikidata": "Q1275038", "public_transport": "station", "railway": "station", "usage": "main", "wikidata": "Q105766342", "wikipedia": "fr:Gare de Birtouta"}}, {"type": "node", "id": 326246921, "lat": 36.7454016, "lon": 3.0943655, "tags": {"alt_name": "Hocine Dey", "image": "https://upload.wikimedia.org/wikipedia/fr/5/53/SNTF.png", "name": "Hussein Dey", "name:ar": "\u062d\u0633\u064a\u0646 \u062f\u0627\u064a", "name:en": "Hussein Dey", "name:fr": "Hussein Dey", "name:kab": "\u1e24usin Day", "operator": "SNTF", "owner": "SNTF", "public_transport": "station", "railway": "station", "usage": "main", "wikidata": "Q110493750", "wikipedia": "fr:Gare de Hussein Dey"}}, {"type": "node", "id": 339289000, "lat": 36.7794526, "lon": 3.0620441, "tags": {"electrified": "contact_line", "image": "https://upload.wikimedia.org/wikipedia/fr/5/53/SNTF.png", "name": "Alger", "name:ar": "\u0627\u0644\u062c\u0632\u0627\u0626\u0631", "name:ber": "\u2d37\u2d63\u2d30\u2d62\u2d54", "name:de": "Algier", "name:en": "Algiers", "name:fr": "Alger", "operator": "SNTF", "public_transport": "station", "railway": "station", "usage": "main"}}, {"type": "node", "id": 532001382, "lat": 36.7719923, "lon": 3.0580682, "tags": {"image": "https://upload.wikimedia.org/wikipedia/fr/thumb/f/fc/Metroalger.png/100px-Metroalger.png", "name": "\u062a\u0627\u0641\u0648\u0631\u0629 - \u0627\u0644\u0628\u0631\u064a\u062f \u0627\u0644\u0645\u0631\u0643\u0632\u064a Tafourah - Grande Poste", "name:ar": "\u062a\u0627\u0641\u0648\u0631\u0629 - \u0627\u0644\u0628\u0631\u064a\u062f \u0627\u0644\u0645\u0631\u0643\u0632\u064a", "name:de": "Tafourah - Hauptpostamt", "name:en": "Tafourah - Main post office", "name:fr": "Tafourah - Grande Poste", "operator": "RATP El Djaza\u00efr", "public_transport": "station", "railway": "station", "station": "subway", "subway": "yes", "wikidata": "Q3513795", "wikipedia": "fr:Tafourah - Grande Poste (m\u00e9tro d'Alger)"}}, {"type": "node", "id": 532001411, "lat": 36.7601908, "lon": 3.0566104, "tags": {"amenity": "bus_station", "bus": "yes", "image": "https://upload.wikimedia.org/wikipedia/fr/thumb/f/fc/Metroalger.png/100px-Metroalger.png", "name": "1er Mai \u0623\u0648\u0644 \u0645\u0627\u064a", "name:ar": "\u0623\u0648\u0644 \u0645\u0627\u064a", "name:de": "Erster Mai", "name:en": "1st May", "name:fr": "1er Mai", "network": "Ligne 1", "old_name": "Champs Manoeuvre", "operator": "RATP El Djaza\u00efr", "public_transport": "station", "railway": "station", "ref": "MAY", "station": "subway", "subway": "yes", "wheelchair": "no", "wikidata": "Q2813532", "wikipedia": "fr:1er Mai (m\u00e9tro d'Alger)"}}, {"type": "node", "id": 532001427, "lat": 36.7568509, "lon": 3.0617531, "tags": {"image": "https://upload.wikimedia.org/wikipedia/fr/thumb/f/fc/Metroalger.png/100px-Metroalger.png", "name": "A\u00efssat Idir \u0639\u064a\u0633\u0627\u062a \u0625\u062f\u064a\u0631", "name:ar": "\u0639\u064a\u0633\u0627\u062a \u0625\u062f\u064a\u0631", "name:de": "A\u00efssat Idir", "name:en": "Aissat Idir", "name:fr": "A\u00efssat Idir", "network": "Ligne 1", "operator": "EMA", "public_transport": "station", "railway": "station", "ref": "AID", "station": "subway", "subway": "yes", "wikidata": "Q2876423", "wikipedia": "fr:A\u00efssat Idir (m\u00e9tro d'Alger)"}}, {"type": "node", "id": 532001439, "lat": 36.752896, "lon": 3.0665223, "tags": {"alt_name:ar": "\u062d\u0627\u0645\u0629", "image": "https://upload.wikimedia.org/wikipedia/fr/thumb/f/fc/Metroalger.png/100px-Metroalger.png", "name": "Hamma \u0627\u0644\u062d\u0627\u0645\u0629", "name:ar": "\u0627\u0644\u062d\u0627\u0645\u0629", "name:de": "Hamma", "name:en": "Hamma", "name:fr": "Hamma", "network": "Ligne 1", "operator": "EMA", "public_transport": "stop_position", "railway": "station", "ref": "HAM", "station": "subway", "subway": "yes", "wikidata": "Q3126479", "wikipedia": "fr:Hamma (m\u00e9tro d'Alger)"}}, {"type": "node", "id": 532001464, "lat": 36.7466634, "lon": 3.0727322, "tags": {"image": "https://upload.wikimedia.org/wikipedia/fr/thumb/f/fc/Metroalger.png/100px-Metroalger.png", "name": "Jardin d'essai", "name:ar": "\u062d\u062f\u064a\u0642\u0629 \u0627\u0644\u062a\u062c\u0627\u0631\u0628", "name:de": "Jardin d'essai (Botanischergarten)", "name:en": "Jardin d'essai (Botanical garden)", "name:fr": "Jardin d'essai", "network": "Ligne 1", "operator": "RATP El Djaza\u00efr", "public_transport": "stop_position", "railway": "station", "ref": "JES", "station": "subway", "subway": "yes", "wheelchair": "yes", "wikidata": "Q3162444", "wikipedia": "fr:Jardin d'essai (m\u00e9tro d'Alger)"}}, {"type": "node", "id": 532001481, "lat": 36.7421437, "lon": 3.0831356, "tags": {"alt_name": "Rouisseau", "image": "https://upload.wikimedia.org/wikipedia/fr/thumb/f/fc/Metroalger.png/100px-Metroalger.png", "name": "Les fusill\u00e9s", "name:ar": "\u0627\u0644\u0645\u0639\u062f\u0648\u0645\u064a\u0646", "name:de": "Les fusill\u00e9s (Die Sch\u00fcsse)", "name:en": "Les fusill\u00e9s (The shots)", "name:fr": "Les fusill\u00e9s", "network": "Ligne 1", "operator": "EMA", "public_transport": "station", "railway": "station", "ref": "UFA", "station": "subway", "subway": "yes", "wikidata": "Q3232853", "wikipedia": "fr:Les Fusill\u00e9s (m\u00e9tro d'Alger)"}}, {"type": "node", "id": 532001496, "lat": 36.737895, "lon": 3.0944401, "tags": {"image": "https://upload.wikimedia.org/wikipedia/fr/thumb/f/fc/Metroalger.png/100px-Metroalger.png", "name": "Cit\u00e9 Amirouche", "name:ar": "\u062d\u064a \u0639\u0645\u064a\u0631\u0648\u0634", "name:de": "Amirouche Stadt", "name:en": "Amirouche City", "name:fr": "Cit\u00e9 Amirouche", "network": "Ligne 1", "operator": "EMA", "public_transport": "station", "railway": "station", "ref": "CAM", "station": "subway", "subway": "yes", "wikidata": "Q2974625", "wikipedia": "fr:Cit\u00e9 Amirouche (m\u00e9tro d'Alger)"}}, {"type": "node", "id": 535042048, "lat": 36.7070194, "lon": 3.1862218, "tags": {"image": "https://upload.wikimedia.org/wikipedia/fr/5/53/SNTF.png", "name": "Bab Ezzouar", "name:ar": "\u0628\u0627\u0628 \u0627\u0644\u0632\u0648\u0627\u0631", "name:en": "Bab Ezzouar", "name:fr": "Bab Ezzouar", "operator": "SNTF", "railway": "station"}}, {"type": "node", "id": 703255654, "lat": 36.7354527, "lon": 3.3406859, "tags": {"electrified": "contact_line", "image": "https://upload.wikimedia.org/wikipedia/fr/5/53/SNTF.png", "name": "Regha\u00efa", "name:ar": "\u0627\u0644\u0631\u063a\u0627\u064a\u0629", "name:en": "Reghaia", "name:fr": "Regha\u00efa", "operator": "SNTF", "operator:wikidata": "Q1275038", "public_transport": "station", "railway": "station", "wikidata": "Q110508187", "wikipedia": "fr:Gare de R\u00e9gha\u00efa"}}, {"type": "node", "id": 703272446, "lat": 36.7564172, "lon": 3.0657389, "tags": {"name": "Les Ateliers", "name:ar": "\u0627\u0644\u0648\u0631\u0634\u0627\u062a", "name:fr": "Les ateliers", "operator": "SNTF", "operator:wikidata": "Q1275038", "owner": "SNTF", "owner:wikidata": "Q1275038", "public_transport": "station", "railway": "station", "usage": "main", "wikidata": "Q110493772", "wikipedia": "fr:Gare des Ateliers"}}, {"type": "node", "id": 966535035, "lat": 36.785489, "lon": 3.0623351, "tags": {"image": "https://upload.wikimedia.org/wikipedia/fr/thumb/f/fc/Metroalger.png/100px-Metroalger.png", "name": "Place des Martyrs", "name:ar": "\u0633\u0627\u062d\u0629 \u0627\u0644\u0634\u0647\u062f\u0627\u0621", "name:de": "Place des Martyrs (M\u00e4rtyrerplatz)", "name:en": "Place des Martyrs (Martyrs Square)", "name:fr": "Place des Martyrs", "network": "M\u00e9tro d'Alger", "network:wikidata": "Q728045", "operator": "RATP El Djaza\u00efr", "public_transport": "station", "railway": "station", "station": "subway", "subway": "yes", "wheelchair": "yes", "wikidata": "Q52230167", "wikipedia": "en:Place des Martyrs Metro Station"}}, {"type": "node", "id": 966535048, "lat": 36.7802085, "lon": 3.0586052, "tags": {"name": "\u0639\u0644\u064a \u0628\u0648\u0645\u0646\u062c\u0644 Ali Boumendjel", "name:ar": "\u0639\u0644\u064a \u0628\u0648\u0645\u0646\u062c\u0644", "name:de": "Ali Boumendjel", "name:en": "Ali Boumendjel", "name:etymology": "\u0639\u0644\u064a \u0628\u0648\u0645\u0646\u062c\u0644", "name:etymology:wikidata": "Q2836170", "name:etymology:wikipedia": "ar:\u0639\u0644\u064a \u0628\u0648\u0645\u0646\u062c\u0644", "name:fr": "Ali Boumendjel", "network": "\u0645\u062a\u0631\u0648 \u0627\u0644\u062c\u0632\u0627\u0626\u0631", "operator": "\u0645\u0624\u0633\u0633\u0629 \u0645\u062a\u0631\u0648 \u0627\u0644\u062c\u0632\u0627\u0626\u0631", "operator:ar": "\u0645\u0624\u0633\u0633\u0629 \u0645\u062a\u0631\u0648 \u0627\u0644\u062c\u0632\u0627\u0626\u0631", "operator:website": "http://www.metroalger-dz.com/ar/", "operator:wikidata": "Q22689445", "operator:wikipedia": "ar:\u0645\u0624\u0633\u0633\u0629 \u0645\u062a\u0631\u0648 \u0627\u0644\u062c\u0632\u0627\u0626\u0631", "operator:wikipedia:ar": "\u0645\u0624\u0633\u0633\u0629 \u0645\u062a\u0631\u0648 \u0627\u0644\u062c\u0632\u0627\u0626\u0631", "public_transport": "station", "railway": "station", "station": "subway", "subway": "yes", "wikidata": "Q55074869", "wikipedia": "en:Ali Boumendjel Metro Station"}}, {"type": "node", "id": 2208811165, "lat": 36.7095843, "lon": 3.0902229, "tags": {"name": "Gu\u00e9 de Constantine", "name:ar": "\u062c\u0633\u0631 \u0642\u0633\u0646\u0637\u064a\u0646\u0629", "name:de": "Gu\u00e9 de Constantine (Furt von Constatin)", "name:en": "Gu\u00e9 de Constantine (Ford of Constatin)", "name:fr": "Gu\u00e9 de Constantine", "public_transport": "station", "railway": "station", "station": "subway", "subway": "yes"}}, {"type": "node", "id": 2354891782, "lat": 36.6802202, "lon": 2.8921599, "tags": {"addr:city": "Rahmania", "name": "Sidi Abdellah", "name:ar": "\u0645\u062d\u0637\u0629 \u0627\u0644\u0642\u0637\u0627\u0631 \u0633\u064a\u062f\u064a \u0639\u0628\u062f \u0627\u0644\u0644\u0647", "name:en": "Sidi Abdallah", "name:fr": "Sidi Abdallah", "operator": "SNTF", "operator:wikipedia": "Q1275038", "owner": "SNTF", "owner:wikidata": "Q1275038", "public_transport": "station", "railway": "station", "wikidata": "Q110492092", "wikipedia": "fr:Gare de Sidi Abdellah"}}, {"type": "node", "id": 2354891908, "lat": 36.6920154, "lon": 2.8714817, "tags": {"name": "P\u00f4le universitaire Sidi Abdellah", "name:ar": "\u0627\u0644\u0642\u0637\u0628 \u0627\u0644\u062c\u0627\u0645\u0639\u064a \u0633\u064a\u062f\u064a \u0639\u0628\u062f\u0627\u0644\u0644\u0647", "name:fr": "P\u00f4le universitaire Sidi Abdellah", "railway": "station"}}, {"type": "node", "id": 2354891986, "lat": 36.6396289, "lon": 2.9354336, "tags": {"name": "Tessala El Merdja", "name:ar": "\u062a\u0633\u0627\u0644\u0629 \u0627\u0644\u0645\u0631\u062c\u0629", "name:en": "Tessala El Merdja", "operator": "SNTF", "proposed": "yes", "railway": "station"}}, {"type": "node", "id": 3348151668, "lat": 36.6963648, "lon": 3.0763969, "tags": {"construction": "subway", "name": "Mohamed Boudiaf", "operator": "RATP El Djaza\u00efr", "railway": "station", "station": "subway"}}, {"type": "node", "id": 3516049442, "lat": 36.735372, "lon": 3.1193779, "tags": {"image": "https://upload.wikimedia.org/wikipedia/fr/5/53/SNTF.png", "name": "Caroubier", "name:ar": "\u0627\u0644\u062e\u0631\u0648\u0628\u0629", "name:de": "Caroubier", "name:en": "Caroubier", "name:fr": "Caroubier", "railway": "station"}}, {"type": "node", "id": 3589500559, "lat": 36.71552, "lon": 3.1008295, "tags": {"name": "Station des Ateliers", "name:ar": "\u0648\u0642\u0641 \u0648\u0631\u0634 \u0627\u0644\u0639\u0645\u0644", "name:de": "Station des Ateliers (Werkstatsstation)", "name:en": "Station des Ateliers (Workshop station)", "public_transport": "station", "railway": "station", "station": "subway", "subway": "yes", "wikidata": "Q55074871", "wikipedia": "en:Les Ateliers Metro Station"}}, {"type": "node", "id": 3589518209, "lat": 36.7057374, "lon": 3.0822858, "tags": {"name": "Ain Na\u00e2dja", "name:ar": "\u0639\u064a\u0646 \u0627\u0644\u0646\u0639\u062c\u0629", "name:de": "Ain Na\u00e2dja", "name:en": "Ain Naadja", "name:fr": "Ain Na\u00e2dja", "public_transport": "station", "railway": "station", "station": "subway", "subway": "yes"}}, {"type": "node", "id": 3590827124, "lat": 36.7335722, "lon": 3.1009505, "tags": {"image": "https://upload.wikimedia.org/wikipedia/fr/thumb/f/fc/Metroalger.png/100px-Metroalger.png", "name": "Mer et Soleil", "name:ar": "\u0627\u0644\u0628\u062d\u0631 \u0648 \u0627\u0644\u0634\u0645\u0633", "name:de": "Mer et Soleil (See und Sonne)", "name:en": "Mer et Soleil (Sea and Sun)", "name:fr": "Mer et Soleil", "network": "Ligne 1", "operator": "RATP El Djaza\u00efr", "public_transport": "station", "railway": "station", "ref": "CMS", "station": "subway", "subway": "yes", "wikidata": "Q2974681", "wikipedia": "fr:Cit\u00e9 Mer et Soleil (m\u00e9tro d'Alger)"}}, {"type": "node", "id": 3603933963, "lat": 36.7662321, "lon": 3.0536627, "tags": {"image": "https://upload.wikimedia.org/wikipedia/fr/thumb/f/fc/Metroalger.png/100px-Metroalger.png", "name": "\u062e\u0644\u064a\u0641\u0629 \u0628\u0648\u062e\u0627\u0644\u0641\u0629 Khelifa Boukhalfa", "name:ar": "\u062e\u0644\u064a\u0641\u0629 \u0628\u0648\u062e\u0627\u0644\u0641\u0629", "name:de": "Khelifa Boukhalfa", "name:en": "Khelifa Boukhalfa", "name:fr": "Khelifa Boukhalfa", "operator": "EMA", "public_transport": "station", "railway": "station", "ref": "KBK", "station": "subway", "subway": "yes", "wikidata": "Q3196135", "wikipedia": "fr:Khelifa Boukhalfa (m\u00e9tro d'Alger)"}}, {"type": "node", "id": 3854832437, "lat": 36.7338157, "lon": 3.3177992, "tags": {"electrified": "contact_line", "image": "https://upload.wikimedia.org/wikipedia/fr/5/53/SNTF.png", "name": "Rouiba SNVI", "name:ar": "\u0631\u0648\u064a\u0628\u0629 \u0627\u0644\u0635\u0646\u0627\u0639\u064a\u0629", "name:fr": "Rouiba SNVI", "operator": "SNTF", "public_transport": "station", "railway": "station", "wheelchair": "no", "wikidata": "Q28716576", "wikipedia": "fr:Gare de Rou\u00efba SNVI"}}, {"type": "node", "id": 3878584193, "lat": 36.7333057, "lon": 3.3017407, "tags": {"image": "https://upload.wikimedia.org/wikipedia/fr/5/53/SNTF.png", "name": "ZI Rouiba", "name:ar": "\u0627\u0644\u0645\u0646\u0637\u0642\u0629 \u0627\u0644\u0635\u0646\u0627\u0639\u064a\u0629 \u0631\u0648\u064a\u0628\u0629", "name:en": "Rouiba Industrial", "name:fr": "ZI Rouiba", "operator": "SNTF", "operator:wikidata": "Q1275038", "public_transport": "station", "railway": "station", "wikidata": "Q110508067", "wikipedia": "fr:Gare de Rou\u00efba ZI"}}, {"type": "node", "id": 4478831128, "lat": 36.7022912, "lon": 2.8492427, "tags": {"name": "Z\u00e9ralda", "name:ar": "\u0632\u0631\u0627\u0644\u062f\u0629", "name:fr": "Z\u00e9ralda", "operator": "SNTF", "operator:fr": "SNTF", "public_transport": "station", "railway": "station"}}, {"type": "node", "id": 4880978184, "lat": 36.7221987, "lon": 3.132713, "tags": {"addr:city": "El Harrach", "addr:street": "Rue Hassen Bey Ali", "image": "https://upload.wikimedia.org/wikipedia/fr/5/53/SNTF.png", "internet_access": "no", "name": "Gare ferroviaire d'El Harrach", "network": "SNTF", "operator": "SNTF", "railway": "station"}}, {"type": "node", "id": 4905998852, "lat": 36.639482, "lon": 2.9354893, "tags": {"public_transport": "station", "railway": "station"}}, {"type": "node", "id": 5571463482, "lat": 36.7254312, "lon": 3.1022698, "tags": {"image": "https://upload.wikimedia.org/wikipedia/fr/thumb/f/fc/Metroalger.png/100px-Metroalger.png", "name": "Ha\u00ef El Badr", "name:ar": "\u062d\u064a \u0627\u0644\u0628\u062f\u0631", "name:de": "Ha\u00ef El Badr", "name:fr": "Ha\u00ef El Badr", "network": "Ligne 1", "operator": "RATP El Djaza\u00efr", "operator:fr": "RATP El Djaza\u00efr", "public_transport": "station", "railway": "station", "ref": "HEB", "station": "subway", "subway": "yes", "train": "yes", "wikidata": "Q3128904", "wikipedia": "fr:Ha\u00ef El Badr (m\u00e9tro d'Alger)"}}, {"type": "node", "id": 6270773066, "lat": 36.7002838, "lon": 3.2091629, "tags": {"bench": "yes", "bin": "yes", "covered": "yes", "level": "-1", "name": "A\u00e9roport Houari Boum\u00e9di\u00e8ne", "name:ar": "\u0645\u062d\u0637\u0629 \u0627\u0644\u0645\u0637\u0627\u0631 \u0647\u0648\u0627\u0631\u064a \u0628\u0648\u0645\u062f\u064a\u0646", "name:en": "A\u00e9roport Houari Boum\u00e9di\u00e8ne", "name:fr": "A\u00e9roport Houari Boum\u00e9di\u00e8ne", "network": "SNFT", "operator": "\u0627\u0644\u0634\u0631\u0643\u0629 \u0627\u0644\u0648\u0637\u0646\u064a\u0629 \u0644\u0644\u0646\u0642\u0644 \u0628\u0627\u0644\u0633\u0643\u0643 \u0627\u0644\u062d\u062f\u064a\u062f\u064a\u0629", "operator:ar": "\u0627\u0644\u0634\u0631\u0643\u0629 \u0627\u0644\u0648\u0637\u0646\u064a\u0629 \u0644\u0644\u0646\u0642\u0644 \u0628\u0627\u0644\u0633\u0643\u0643 \u0627\u0644\u062d\u062f\u064a\u062f\u064a\u0629", "operator:wikidata": "Q1275038", "operator:wikipedia": "ar:\u0627\u0644\u0634\u0631\u0643\u0629 \u0627\u0644\u0648\u0637\u0646\u064a\u0629 \u0644\u0644\u0646\u0642\u0644 \u0628\u0627\u0644\u0633\u0643\u0643 \u0627\u0644\u062d\u062f\u064a\u062f\u064a\u0629", "public_transport": "station", "railway": "station", "share_taxi": "yes", "shelter": "yes", "train": "yes", "wikidata": "Q105767334", "wikipedia": "fr:Gare de l'A\u00e9roport Houari Boum\u00e9di\u00e8ne"}}, {"type": "node", "id": 6673464969, "lat": 36.7182182, "lon": 3.1105878, "tags": {"image": "https://upload.wikimedia.org/wikipedia/fr/thumb/f/fc/Metroalger.png/100px-Metroalger.png", "name": "Bachdjarah - Tennis", "name:ar": "\u0628\u0627\u0634 \u062c\u0631\u0627\u062d - \u062a\u0646\u0633", "name:de": "Bachdjarah - Tennis", "name:en": "Bachdjarah - Tennis", "name:fr": "Bachdjarah - Tennis", "railway": "station", "station": "subway"}}, {"type": "node", "id": 6673464970, "lat": 36.7220024, "lon": 3.1371632, "tags": {"image": "https://upload.wikimedia.org/wikipedia/fr/thumb/f/fc/Metroalger.png/100px-Metroalger.png", "name": "El-Harrach Centre", "name:ar": "\u0627\u0644\u062d\u0631\u0627\u0634 \u0648\u0633\u0637", "name:de": "El-Harrach Zenter", "name:en": "El-Harrach Center", "name:fr": "El-Harrach Centre", "operator": "EMA", "railway": "station", "station": "subway", "wikidata": "Q20669761"}}, {"type": "node", "id": 6673464971, "lat": 36.7220937, "lon": 3.1317268, "tags": {"image": "https://upload.wikimedia.org/wikipedia/fr/thumb/f/fc/Metroalger.png/100px-Metroalger.png", "name": "El Harrach Gare", "name:ar": "\u0627\u0644\u062d\u0631\u0627\u0634", "name:de": "El Harrach Bahnhof", "name:en": "El Harrach Station", "name:fr": "El Harrach Gare", "railway": "station", "station": "subway", "wikidata": "Q20669762"}}, {"type": "node", "id": 6673464972, "lat": 36.7218062, "lon": 3.118274, "tags": {"image": "https://upload.wikimedia.org/wikipedia/fr/thumb/f/fc/Metroalger.png/100px-Metroalger.png", "name": "Bachdjerrah", "name:ar": "\u0628\u0627\u0634 \u062c\u0631\u0627\u062d", "name:de": "Bachdjerrah", "name:en": "Bachdjerrah", "name:fr": "Bachdjerrah", "network": "Ligne 1", "operator": "EMA", "public_transport": "station", "railway": "station", "station": "subway", "subway": "yes"}}, {"type": "node", "id": 11773842565, "lat": 36.7096085, "lon": 3.0902027, "tags": {"name": "Gu\u00e9 de Constantine", "name:ar": "\u062c\u0633\u0631 \u0642\u0633\u0646\u0637\u064a\u0646\u0629", "name:de": "Gu\u00e9 de Constantine (Furt von Constatin)", "name:en": "Gu\u00e9 de Constantine (Ford of Constatin)", "name:fr": "Gu\u00e9 de Constantine", "public_transport": "station", "railway": "station", "station": "subway", "subway": "yes"}}, {"type": "node", "id": 11773874073, "lat": 36.7057517, "lon": 3.0822732, "tags": {"name": "Ain Na\u00e2dja", "name:ar": "\u0639\u064a\u0646 \u0627\u0644\u0646\u0639\u062c\u0629", "name:de": "Ain Na\u00e2dja", "name:en": "Ain Naadja", "name:fr": "Ain Na\u00e2dja", "public_transport": "station", "railway": "station", "station": "subway", "subway": "yes"}}, {"type": "node", "id": 11773874074, "lat": 36.7155176, "lon": 3.1007867, "tags": {"name": "Station des Ateliers", "name:ar": "\u0648\u0642\u0641 \u0648\u0631\u0634 \u0627\u0644\u0639\u0645\u0644", "name:de": "Station des Ateliers (Werkstatsstation)", "name:en": "Station des Ateliers (Workshop station)", "public_transport": "station", "railway": "station", "station": "subway", "subway": "yes", "wikidata": "Q55074871", "wikipedia": "en:Les Ateliers Metro Station"}}, {"type": "node", "id": 12423202059, "lat": 36.7436106, "lon": 3.0124377, "tags": {"abandoned:railway": "station", "public_transport": "station", "railway": "station", "train": "yes"}}, {"type": "node", "id": 12800666651, "lat": 36.790745, "lon": 3.0574534, "tags": {"network": "M\u00e9tro d'Alger", "network:wikidata": "Q728045", "operator": "RATP El Djaza\u00efr", "public_transport": "station", "railway": "station", "station": "subway", "subway": "yes", "under_construction": "yes"}}, {"type": "node", "id": 12800666667, "lat": 36.7904386, "lon": 3.0509015, "tags": {"network": "M\u00e9tro d'Alger", "network:wikidata": "Q728045", "operator": "RATP El Djaza\u00efr", "public_transport": "station", "railway": "station", "station": "subway", "subway": "yes", "under_construction": "yes"}}, {"type": "node", "id": 12800666668, "lat": 36.78689, "lon": 3.0465295, "tags": {"network": "M\u00e9tro d'Alger", "network:wikidata": "Q728045", "operator": "RATP El Djaza\u00efr", "public_transport": "station", "railway": "station", "station": "subway", "subway": "yes", "under_construction": "yes"}}]}