{"version": 0.6, "generator": "Overpass API 0.7.62.5 1bd436f1", "osm3s": {"timestamp_osm_base": "2025-05-02T10:01:16Z", "copyright": "The data included in this document is from www.openstreetmap.org. The data is made available under ODbL."}, "elements": [{"type": "node", "id": 480042582, "lat": 36.7915507, "lon": 3.0595999, "tags": {"addr:city": "ALGER", "addr:housenumber": "11", "addr:place": "BAB EL OUED", "addr:postcode": "16021", "addr:street": "RUE ALI KADRI", "amenity": "post_office", "brand": "Alg\u00e9rie Poste", "brand:ar": "\u0628\u0631\u064a\u062f \u0627\u0644\u062c\u0632\u0627\u0626\u0631", "brand:email": "clientalgerieposte@poste.dz", "brand:fr": "Alg\u00e9rie Poste", "brand:website": "https://www.poste.dz/", "brand:wikidata": "Q2836029", "brand:wikipedia": "fr:Alg\u00e9rie Poste", "currency:DZA": "yes", "fax": "+21323923170", "language:ar": "main", "name": "EL-KETTANI", "name:ar": "\u0627\u0644\u0643\u062a\u0627\u0646\u064a", "opening_hours": "08:30-12:30,13:30-16:30", "operator": "Alg\u00e9rie Poste", "operator:ar": "\u0628\u0631\u064a\u062f \u0627\u0644\u062c\u0632\u0627\u0626\u0631", "operator:fr": "Alg\u00e9rie Poste", "operator:website": "https://www.poste.dz/", "operator:wikidata": "Q2836029", "operator:wikipedia": "fr:Alg\u00e9rie Poste", "phone": "+21323923200", "ref": "R1"}}, {"type": "node", "id": 582818919, "lat": 36.8032243, "lon": 2.9131598, "tags": {"addr:city": "A\u00efn Benian", "addr:housenumber": "99", "addr:postcode": "16081", "addr:street": "Rue Colonnel Si M'hamed", "amenity": "post_office", "brand": "Alg\u00e9rie Poste", "brand:ar": "\u0628\u0631\u064a\u062f \u0627\u0644\u062c\u0632\u0627\u0626\u0631", "brand:email": "clientalgerieposte@poste.dz", "brand:fr": "Alg\u00e9rie Poste", "brand:website": "https://www.poste.dz/", "brand:wikidata": "Q2836029", "brand:wikipedia": "fr:Alg\u00e9rie Poste", "currency:DZA": "yes", "fax": "+21323923170", "language:ar": "main", "name": "Bureau de poste de A\u00efn Benian", "name:ar": "\u0639\u064a\u0646 \u0627\u0644\u0628\u0646\u064a\u0627\u0646", "opening_hours": "08:30-12:30,13:30-16:30", "operator": "Alg\u00e9rie Poste", "operator:ar": "\u0628\u0631\u064a\u062f \u0627\u0644\u062c\u0632\u0627\u0626\u0631", "operator:fr": "Alg\u00e9rie Poste", "operator:website": "https://www.poste.dz/", "operator:wikidata": "Q2836029", "operator:wikipedia": "fr:Alg\u00e9rie Poste", "phone": "+21323923200"}}, {"type": "node", "id": 650814098, "lat": 36.7729017, "lon": 3.0593464}, {"type": "node", "id": 650814116, "lat": 36.7732581, "lon": 3.0592832}, {"type": "node", "id": 650814121, "lat": 36.7733932, "lon": 3.0593711}, {"type": "node", "id": 650814126, "lat": 36.7734115, "lon": 3.0594328}, {"type": "node", "id": 650814139, "lat": 36.7732273, "lon": 3.0598302}, {"type": "node", "id": 650814147, "lat": 36.7729004, "lon": 3.0598925}, {"type": "node", "id": 650814151, "lat": 36.772869, "lon": 3.0597665}, {"type": "node", "id": 650814154, "lat": 36.7727557, "lon": 3.059678}, {"type": "node", "id": 650816456, "lat": 36.7732136, "lon": 3.0596761}, {"type": "node", "id": 650816461, "lat": 36.7732614, "lon": 3.0594924}, {"type": "node", "id": 650816471, "lat": 36.7732248, "lon": 3.0594656}, {"type": "node", "id": 650816477, "lat": 36.7731898, "lon": 3.0595214}, {"type": "node", "id": 650816483, "lat": 36.7731553, "lon": 3.0595901}, {"type": "node", "id": 650816494, "lat": 36.7729974, "lon": 3.0595593}, {"type": "node", "id": 650816496, "lat": 36.7729541, "lon": 3.059528}, {"type": "node", "id": 650816501, "lat": 36.772996, "lon": 3.0597197}, {"type": "node", "id": 707110242, "lat": 36.7220118, "lon": 3.2099647, "tags": {"addr:city": "\u0627\u0644\u062f\u0627\u0631 \u0627\u0644\u0628\u064a\u0636\u0627\u0621", "addr:city:ar": "\u0627\u0644\u062f\u0627\u0631 \u0627\u0644\u0628\u064a\u0636\u0627\u0621", "amenity": "post_office", "brand": "Alg\u00e9rie Poste", "brand:ar": "\u0628\u0631\u064a\u062f \u0627\u0644\u062c\u0632\u0627\u0626\u0631", "brand:email": "clientalgerieposte@poste.dz", "brand:fr": "Alg\u00e9rie Poste", "brand:website": "https://www.poste.dz/", "brand:wikidata": "Q2836029", "brand:wikipedia": "fr:Alg\u00e9rie Poste", "currency:DZA": "yes", "fax": "+21323923170", "language:ar": "main", "name": "Burteau de poste d'El Qaria", "name:ar": "\u0627\u0644\u0628\u0631\u064a\u062f \u0627\u0644\u0642\u0631\u064a\u0629", "opening_hours": "08:30-12:30,13:30-16:30", "operator": "Alg\u00e9rie Poste", "operator:ar": "\u0628\u0631\u064a\u062f \u0627\u0644\u062c\u0632\u0627\u0626\u0631", "operator:fr": "Alg\u00e9rie Poste", "operator:website": "https://www.poste.dz/", "operator:wikidata": "Q2836029", "operator:wikipedia": "fr:Alg\u00e9rie Poste", "phone": "+21323923200"}}, {"type": "node", "id": 945315396, "lat": 36.7084741, "lon": 2.9126707, "tags": {"amenity": "post_office", "brand": "Alg\u00e9rie Poste", "brand:ar": "\u0628\u0631\u064a\u062f \u0627\u0644\u062c\u0632\u0627\u0626\u0631", "brand:email": "clientalgerieposte@poste.dz", "brand:fr": "Alg\u00e9rie Poste", "brand:website": "https://www.poste.dz/", "brand:wikidata": "Q2836029", "brand:wikipedia": "fr:Alg\u00e9rie Poste", "currency:DZA": "yes", "fax": "+21323923170", "language:ar": "main", "name": "Souidania Poste \u0628\u0631\u064a\u062f \u0627\u0644\u0633\u0648\u064a\u062f\u0627\u0646\u064a\u0629", "name:ar": "\u0628\u0631\u064a\u062f \u0627\u0644\u0633\u0648\u064a\u062f\u0627\u0646\u064a\u0629", "name:en": "Souidania Post", "name:es": "Postal de Souidania", "name:it": "Postale di Souidania", "opening_hours": "08:30-12:30,13:30-16:30", "operator": "Alg\u00e9rie Poste", "operator:ar": "\u0628\u0631\u064a\u062f \u0627\u0644\u062c\u0632\u0627\u0626\u0631", "operator:fr": "Alg\u00e9rie Poste", "operator:website": "https://www.poste.dz/", "operator:wikidata": "Q2836029", "operator:wikipedia": "fr:Alg\u00e9rie Poste", "phone": "+21323923200"}}, {"type": "node", "id": 975497788, "lat": 36.6772617, "lon": 2.9829429, "tags": {"amenity": "post_office", "brand": "Alg\u00e9rie Poste", "brand:ar": "\u0628\u0631\u064a\u062f \u0627\u0644\u062c\u0632\u0627\u0626\u0631", "brand:email": "clientalgerieposte@poste.dz", "brand:fr": "Alg\u00e9rie Poste", "brand:website": "https://www.poste.dz/", "brand:wikidata": "Q2836029", "brand:wikipedia": "fr:Alg\u00e9rie Poste", "currency:DZA": "yes", "fax": "+21323923170", "language:ar": "main", "name": "Alg\u00e9rie Poste", "opening_hours": "08:30-12:30,13:30-16:30", "operator": "Alg\u00e9rie Poste", "operator:ar": "\u0628\u0631\u064a\u062f \u0627\u0644\u062c\u0632\u0627\u0626\u0631", "operator:fr": "Alg\u00e9rie Poste", "operator:website": "https://www.poste.dz/", "operator:wikidata": "Q2836029", "operator:wikipedia": "fr:Alg\u00e9rie Poste"}}, {"type": "node", "id": 975518997, "lat": 36.669185, "lon": 2.9433904, "tags": {"amenity": "post_office", "brand": "Alg\u00e9rie Poste", "brand:ar": "\u0628\u0631\u064a\u062f \u0627\u0644\u062c\u0632\u0627\u0626\u0631", "brand:email": "clientalgerieposte@poste.dz", "brand:fr": "Alg\u00e9rie Poste", "brand:website": "https://www.poste.dz/", "brand:wikidata": "Q2836029", "brand:wikipedia": "fr:Alg\u00e9rie Poste", "currency:DZA": "yes", "fax": "+21323923170", "language:ar": "main", "name": "Alg\u00e9rie Poste Douera", "opening_hours": "08:30-12:30,13:30-16:30", "operator": "Alg\u00e9rie Poste", "operator:ar": "\u0628\u0631\u064a\u062f \u0627\u0644\u062c\u0632\u0627\u0626\u0631", "operator:fr": "Alg\u00e9rie Poste", "operator:website": "https://www.poste.dz/", "operator:wikidata": "Q2836029", "operator:wikipedia": "fr:Alg\u00e9rie Poste", "phone": "+21323923200", "ref": "16049"}}, {"type": "node", "id": 1033365334, "lat": 36.7323108, "lon": 3.0878102, "tags": {"amenity": "post_office", "brand": "Alg\u00e9rie Poste", "brand:ar": "\u0628\u0631\u064a\u062f \u0627\u0644\u062c\u0632\u0627\u0626\u0631", "brand:email": "clientalgerieposte@poste.dz", "brand:fr": "Alg\u00e9rie Poste", "brand:website": "https://www.poste.dz/", "brand:wikidata": "Q2836029", "brand:wikipedia": "fr:Alg\u00e9rie Poste", "currency:DZA": "yes", "fax": "+21323923170", "language:ar": "main", "name": "Bureau de poste de Kouba", "opening_hours": "08:30-12:30,13:30-16:30", "operator": "Alg\u00e9rie Poste", "operator:ar": "\u0628\u0631\u064a\u062f \u0627\u0644\u062c\u0632\u0627\u0626\u0631", "operator:fr": "Alg\u00e9rie Poste", "operator:website": "https://www.poste.dz/", "operator:wikidata": "Q2836029", "operator:wikipedia": "fr:Alg\u00e9rie Poste"}}, {"type": "node", "id": 1056305652, "lat": 36.7186304, "lon": 3.0905852, "tags": {"amenity": "post_office", "brand": "Alg\u00e9rie Poste", "brand:ar": "\u0628\u0631\u064a\u062f \u0627\u0644\u062c\u0632\u0627\u0626\u0631", "brand:email": "clientalgerieposte@poste.dz", "brand:fr": "Alg\u00e9rie Poste", "brand:website": "https://www.poste.dz/", "brand:wikidata": "Q2836029", "brand:wikipedia": "fr:Alg\u00e9rie Poste", "currency:DZA": "yes", "fax": "+21323923170", "language:ar": "main", "name": "Poste Gr\u00e9gory", "opening_hours": "08:30-12:30,13:30-16:30", "operator": "Alg\u00e9rie Poste", "operator:ar": "\u0628\u0631\u064a\u062f \u0627\u0644\u062c\u0632\u0627\u0626\u0631", "operator:fr": "Alg\u00e9rie Poste", "operator:website": "https://www.poste.dz/", "operator:wikidata": "Q2836029", "operator:wikipedia": "fr:Alg\u00e9rie Poste", "phone": "+21323923200"}}, {"type": "node", "id": 1080807694, "lat": 36.7205835, "lon": 3.0964903}, {"type": "node", "id": 1088995388, "lat": 36.6433092, "lon": 2.9998631, "tags": {"addr:postcode": "16045", "amenity": "post_office", "brand": "Alg\u00e9rie Poste", "brand:ar": "\u0628\u0631\u064a\u062f \u0627\u0644\u062c\u0632\u0627\u0626\u0631", "brand:email": "clientalgerieposte@poste.dz", "brand:fr": "Alg\u00e9rie Poste", "brand:website": "https://www.poste.dz/", "brand:wikidata": "Q2836029", "brand:wikipedia": "fr:Alg\u00e9rie Poste", "currency:DZA": "yes", "fax": "+21323923170", "language:ar": "main", "name": "Bureau de poste de Birtouta", "opening_hours": "08:30-12:30,13:30-16:30", "operator": "Alg\u00e9rie Poste", "operator:ar": "\u0628\u0631\u064a\u062f \u0627\u0644\u062c\u0632\u0627\u0626\u0631", "operator:fr": "Alg\u00e9rie Poste", "operator:website": "https://www.poste.dz/", "operator:wikidata": "Q2836029", "operator:wikipedia": "fr:Alg\u00e9rie Poste", "phone": "+21323923200", "ref": "16045"}}, {"type": "node", "id": 1118774540, "lat": 36.6862931, "lon": 2.9243372, "tags": {"amenity": "post_office", "brand": "Alg\u00e9rie Poste", "brand:ar": "\u0628\u0631\u064a\u062f \u0627\u0644\u062c\u0632\u0627\u0626\u0631", "brand:email": "clientalgerieposte@poste.dz", "brand:fr": "Alg\u00e9rie Poste", "brand:website": "https://www.poste.dz/", "brand:wikidata": "Q2836029", "brand:wikipedia": "fr:Alg\u00e9rie Poste", "currency:DZA": "yes", "fax": "+21323923170", "language:ar": "main", "name": "Poste Naamoune el amri", "opening_hours": "08:30-12:30,13:30-16:30", "operator": "Alg\u00e9rie Poste", "operator:ar": "\u0628\u0631\u064a\u062f \u0627\u0644\u062c\u0632\u0627\u0626\u0631", "operator:fr": "Alg\u00e9rie Poste", "operator:website": "https://www.poste.dz/", "operator:wikidata": "Q2836029", "operator:wikipedia": "fr:Alg\u00e9rie Poste", "phone": "+21323923200", "ref": "16134"}}, {"type": "node", "id": 1118888257, "lat": 36.7330762, "lon": 3.0579907, "tags": {"addr:housenumber": "13 \u0628", "amenity": "post_office", "brand": "Alg\u00e9rie Poste", "brand:ar": "\u0628\u0631\u064a\u062f \u0627\u0644\u062c\u0632\u0627\u0626\u0631", "brand:email": "clientalgerieposte@poste.dz", "brand:fr": "Alg\u00e9rie Poste", "brand:website": "https://www.poste.dz/", "brand:wikidata": "Q2836029", "brand:wikipedia": "fr:Alg\u00e9rie Poste", "currency:DZA": "yes", "fax": "+21323923170", "name": "\u0645\u0643\u062a\u0628 \u0627\u0644\u0628\u0631\u064a\u062f \u062d\u064a \u0627\u0644\u064a\u0646\u0627\u0628\u064a\u0639", "name:ar": "\u0645\u0643\u062a\u0628 \u0627\u0644\u0628\u0631\u064a\u062f \u062d\u064a \u0627\u0644\u064a\u0646\u0627\u0628\u064a\u0639", "name:fr": "Bureau de poste Les Sources", "opening_hours": "08:30-12:30,13:30-16:30", "operator": "Alg\u00e9rie Poste", "operator:ar": "\u0628\u0631\u064a\u062f \u0627\u0644\u062c\u0632\u0627\u0626\u0631", "operator:fr": "Alg\u00e9rie Poste", "operator:website": "https://www.poste.dz/", "operator:wikidata": "Q2836029", "operator:wikipedia": "fr:Alg\u00e9rie Poste"}}, {"type": "node", "id": 1118888263, "lat": 36.7278321, "lon": 3.0668782, "tags": {"addr:city": "\u0627\u0644\u0642\u0628\u0629", "alt_name": "\u0642\u0627\u0631\u064a\u062f\u064a 1", "alt_name:ar": "\u0642\u0627\u0631\u064a\u062f\u064a 1", "amenity": "post_office", "brand": "Alg\u00e9rie Poste", "brand:ar": "\u0628\u0631\u064a\u062f \u0627\u0644\u062c\u0632\u0627\u0626\u0631", "brand:email": "clientalgerieposte@poste.dz", "brand:fr": "Alg\u00e9rie Poste", "brand:website": "https://www.poste.dz", "brand:wikidata": "Q2836029", "brand:wikipedia": "fr:Alg\u00e9rie Poste", "currency:DZA": "yes", "fax": "+21323923170", "language:ar": "main", "name": "\u0642\u0631\u064a\u062f\u064a 1", "name:ar": "\u0642\u0631\u064a\u062f\u064a 1", "name:fr": "Garidi 1", "opening_hours": "08:30-12:30,13:30-16:30", "operator": "Alg\u00e9rie Poste", "operator:ar": "\u0628\u0631\u064a\u062f \u0627\u0644\u062c\u0632\u0627\u0626\u0631", "operator:email": "clientalgerieposte@poste.dz", "operator:fr": "Alg\u00e9rie Poste", "operator:website": "https://www.poste.dz/", "operator:wikidata": "Q2836029", "operator:wikipedia": "fr:Alg\u00e9rie Poste", "phone": "+21323923200", "website": "https://www.poste.dz"}}, {"type": "node", "id": 1198983054, "lat": 36.7913425, "lon": 3.2501075, "tags": {"addr:city": "\u0628\u0631\u062c \u0627\u0644\u0628\u062d\u0631\u064a", "addr:city:ar": "\u0628\u0631\u062c \u0627\u0644\u0628\u062d\u0631\u064a", "addr:housenumber": "1", "addr:postcode": "16046", "amenity": "post_office", "brand": "Alg\u00e9rie Poste", "brand:ar": "\u0628\u0631\u064a\u062f \u0627\u0644\u062c\u0632\u0627\u0626\u0631", "brand:email": "clientalgerieposte@poste.dz", "brand:fr": "Alg\u00e9rie Poste", "brand:website": "https://www.poste.dz/", "brand:wikidata": "Q2836029", "brand:wikipedia": "fr:Alg\u00e9rie Poste", "currency:DZA": "yes", "fax": "+21323923170", "name": "\u0645\u0643\u062a\u0628 \u0627\u0644\u0628\u0631\u064a\u062f \u0628\u0631\u062c \u0627\u0644\u0628\u062d\u0631\u064a", "name:ar": "\u0645\u0643\u062a\u0628 \u0627\u0644\u0628\u0631\u064a\u062f \u0628\u0631\u062c \u0627\u0644\u0628\u062d\u0631\u064a", "name:fr": "Bureau de poste", "opening_hours": "08:30-12:30,13:30-16:30", "operator": "Alg\u00e9rie Poste", "operator:ar": "\u0628\u0631\u064a\u062f \u0627\u0644\u062c\u0632\u0627\u0626\u0631", "operator:fr": "Alg\u00e9rie Poste", "operator:website": "https://www.poste.dz/", "operator:wikidata": "Q2836029", "operator:wikipedia": "fr:Alg\u00e9rie Poste", "phone": "+21323923200"}}, {"type": "node", "id": 1242689688, "lat": 36.69447, "lon": 3.0804054}, {"type": "node", "id": 1242689689, "lat": 36.6946101, "lon": 3.0803102}, {"type": "node", "id": 1242689690, "lat": 36.694686, "lon": 3.0804837}, {"type": "node", "id": 1242689691, "lat": 36.694546, "lon": 3.080579}, {"type": "node", "id": 1337269305, "lat": 36.7483971, "lon": 3.038184, "tags": {"addr:city": "ALGER", "addr:housenumber": "05", "addr:place": "HYDRA", "addr:postcode": "16016", "addr:street": "RUE MOHAMED HADJ AHMED HYDRA", "amenity": "post_office", "brand": "Alg\u00e9rie Poste", "brand:ar": "\u0628\u0631\u064a\u062f \u0627\u0644\u062c\u0632\u0627\u0626\u0631", "brand:email": "clientalgerieposte@poste.dz", "brand:fr": "Alg\u00e9rie Poste", "brand:website": "https://www.poste.dz/", "brand:wikidata": "Q2836029", "brand:wikipedia": "fr:Alg\u00e9rie Poste", "currency:DZA": "yes", "fax": "+21323923170", "language:ar": "main", "name": "Hydra \u062d\u064a\u062f\u0631\u0629", "name:ar": "\u062d\u064a\u062f\u0631\u0629", "name:fr": "Hydra", "opening_hours": "08:30-12:30,13:30-16:30", "operator": "Alg\u00e9rie Poste", "operator:ar": "\u0628\u0631\u064a\u062f \u0627\u0644\u062c\u0632\u0627\u0626\u0631", "operator:fr": "Alg\u00e9rie Poste", "operator:website": "https://www.poste.dz/", "operator:wikidata": "Q2836029", "operator:wikipedia": "fr:Alg\u00e9rie Poste", "phone": "+21323923200", "ref": "RHC"}}, {"type": "node", "id": 1347739165, "lat": 36.7737514, "lon": 3.0426501, "tags": {"addr:city": "\u0648\u0627\u062f\u064a \u0642\u0631\u064a\u0634", "addr:city:ar": "\u0648\u0627\u062f\u064a \u0642\u0631\u064a\u0634", "addr:place": "\u0627\u0644\u0633\u0643\u0627\u0644\u0629", "addr:place:ar": "\u0627\u0644\u0633\u0643\u0627\u0644\u0629", "addr:street": "\u0646\u0647\u062c \u0645\u0644\u064a\u0643\u0629 \u0642\u0627\u064a\u062f", "addr:street:ar": "\u0646\u0647\u062c \u0645\u0644\u064a\u0643\u0629 \u0642\u0627\u064a\u062f", "amenity": "post_office", "brand": "Alg\u00e9rie Poste", "brand:ar": "\u0628\u0631\u064a\u062f \u0627\u0644\u062c\u0632\u0627\u0626\u0631", "brand:email": "clientalgerieposte@poste.dz", "brand:fr": "Alg\u00e9rie Poste", "brand:website": "https://www.poste.dz/", "brand:wikidata": "Q2836029", "brand:wikipedia": "fr:Alg\u00e9rie Poste", "currency:DZA": "yes", "fax": "+21323923170", "name": "\u0645\u0643\u062a\u0628 \u0627\u0644\u0628\u0631\u064a\u062f \u0627\u0644\u0633\u0643\u0627\u0644\u0629", "name:ar": "\u0645\u0643\u062a\u0628 \u0627\u0644\u0628\u0631\u064a\u062f \u0627\u0644\u0633\u0643\u0627\u0644\u0629", "name:fr": "Bureau de poste El Scalla", "opening_hours": "08:30-12:30,13:30-16:30", "operator": "Alg\u00e9rie Poste", "operator:ar": "\u0628\u0631\u064a\u062f \u0627\u0644\u062c\u0632\u0627\u0626\u0631", "operator:fr": "Alg\u00e9rie Poste", "operator:website": "https://www.poste.dz/", "operator:wikidata": "Q2836029", "operator:wikipedia": "fr:Alg\u00e9rie Poste"}}, {"type": "node", "id": 1347968040, "lat": 36.7361421, "lon": 2.951318, "tags": {"amenity": "post_office", "brand": "Alg\u00e9rie Poste", "brand:ar": "\u0628\u0631\u064a\u062f \u0627\u0644\u062c\u0632\u0627\u0626\u0631", "brand:email": "clientalgerieposte@poste.dz", "brand:fr": "Alg\u00e9rie Poste", "brand:website": "https://www.poste.dz/", "brand:wikidata": "Q2836029", "brand:wikipedia": "fr:Alg\u00e9rie Poste", "currency:DZA": "yes", "fax": "+21323923170", "language:ar": "main", "name": "Bureau de poste Ouled Fayet", "opening_hours": "08:30-12:30,13:30-16:30", "operator": "Alg\u00e9rie Poste", "operator:ar": "\u0628\u0631\u064a\u062f \u0627\u0644\u062c\u0632\u0627\u0626\u0631", "operator:fr": "Alg\u00e9rie Poste", "operator:website": "https://www.poste.dz/", "operator:wikidata": "Q2836029", "operator:wikipedia": "fr:Alg\u00e9rie Poste"}}, {"type": "node", "id": 1373377567, "lat": 36.7406704, "lon": 3.0951916}, {"type": "node", "id": 1373377572, "lat": 36.7404425, "lon": 3.0957626}, {"type": "node", "id": 1373377575, "lat": 36.7408967, "lon": 3.095318}, {"type": "node", "id": 1373377578, "lat": 36.7406911, "lon": 3.0959053}, {"type": "node", "id": 1376005286, "lat": 36.7024544, "lon": 3.0257581, "tags": {"addr:city": "\u0627\u0644\u0633\u062d\u0627\u0648\u0644\u0629", "addr:city:ar": "\u0627\u0644\u0633\u062d\u0627\u0648\u0644\u0629", "amenity": "post_office", "brand": "Alg\u00e9rie Poste", "brand:ar": "\u0628\u0631\u064a\u062f \u0627\u0644\u062c\u0632\u0627\u0626\u0631", "brand:email": "clientalgerieposte@poste.dz", "brand:fr": "Alg\u00e9rie Poste", "brand:website": "https://www.poste.dz/", "brand:wikidata": "Q2836029", "brand:wikipedia": "fr:Alg\u00e9rie Poste", "currency:DZA": "yes", "fax": "+21323923170", "name": "\u0645\u0643\u062a\u0628 \u0627\u0644\u0628\u0631\u064a\u062f \u0627\u0644\u0633\u062d\u0627\u0648\u0644\u0629", "name:ar": "\u0645\u0643\u062a\u0628 \u0627\u0644\u0628\u0631\u064a\u062f \u0627\u0644\u0633\u062d\u0627\u0648\u0644\u0629", "name:fr": "Bureau de poste Saoula", "opening_hours": "08:30-12:30,13:30-16:30", "operator": "Alg\u00e9rie Poste", "operator:ar": "\u0628\u0631\u064a\u062f \u0627\u0644\u062c\u0632\u0627\u0626\u0631", "operator:fr": "Alg\u00e9rie Poste", "operator:website": "https://www.poste.dz/", "operator:wikidata": "Q2836029", "operator:wikipedia": "fr:Alg\u00e9rie Poste"}}, {"type": "node", "id": 1474264860, "lat": 36.6688557, "lon": 3.0522667, "tags": {"amenity": "post_office", "brand": "Alg\u00e9rie Poste", "brand:ar": "\u0628\u0631\u064a\u062f \u0627\u0644\u062c\u0632\u0627\u0626\u0631", "brand:email": "clientalgerieposte@poste.dz", "brand:fr": "Alg\u00e9rie Poste", "brand:website": "https://www.poste.dz/", "brand:wikidata": "Q2836029", "brand:wikipedia": "fr:Alg\u00e9rie Poste", "currency:DZA": "yes", "fax": "+21323923170", "language:ar": "main", "name": "Bureau de poste Baba Ali", "name:ar": "\u0645\u0631\u0643\u0632 \u0628\u0631\u064a\u062f \u0628\u0627\u0628\u0627 \u0639\u0644\u064a", "opening_hours": "08:30-12:30,13:30-16:30", "operator": "Alg\u00e9rie Poste", "operator:ar": "\u0628\u0631\u064a\u062f \u0627\u0644\u062c\u0632\u0627\u0626\u0631", "operator:fr": "Alg\u00e9rie Poste", "operator:website": "https://www.poste.dz/", "operator:wikidata": "Q2836029", "operator:wikipedia": "fr:Alg\u00e9rie Poste", "phone": "+21323923200"}}, {"type": "node", "id": 1482462623, "lat": 36.6447222, "lon": 3.0451101, "tags": {"amenity": "post_office", "brand": "Alg\u00e9rie Poste", "brand:ar": "\u0628\u0631\u064a\u062f \u0627\u0644\u062c\u0632\u0627\u0626\u0631", "brand:email": "clientalgerieposte@poste.dz", "brand:fr": "Alg\u00e9rie Poste", "brand:website": "https://www.poste.dz/", "brand:wikidata": "Q2836029", "brand:wikipedia": "fr:Alg\u00e9rie Poste", "currency:DZA": "yes", "fax": "+21323923170", "language:ar": "main", "name": "Bureau de poste de Baba ali", "opening_hours": "08:30-12:30,13:30-16:30", "operator": "Alg\u00e9rie Poste", "operator:ar": "\u0628\u0631\u064a\u062f \u0627\u0644\u062c\u0632\u0627\u0626\u0631", "operator:fr": "Alg\u00e9rie Poste", "operator:website": "https://www.poste.dz/", "operator:wikidata": "Q2836029", "operator:wikipedia": "fr:Alg\u00e9rie Poste"}}, {"type": "node", "id": 1606492495, "lat": 36.7507929, "lon": 2.9815992}, {"type": "node", "id": 1656649499, "lat": 36.7947282, "lon": 3.0502787, "tags": {"addr:city": "ALGER", "addr:housenumber": "1", "addr:place": "BAB EL OUED CHU", "addr:postcode": "16131", "addr:street": "H\u00d4TEL MAILLOT BAN.EL.OUED", "amenity": "post_office", "brand": "Alg\u00e9rie Poste", "brand:ar": "\u0628\u0631\u064a\u062f \u0627\u0644\u062c\u0632\u0627\u0626\u0631", "brand:email": "clientalgerieposte@poste.dz", "brand:fr": "Alg\u00e9rie Poste", "brand:website": "https://www.poste.dz/", "brand:wikidata": "Q2836029", "brand:wikipedia": "fr:Alg\u00e9rie Poste", "currency:DZA": "yes", "fax": "+21323923170", "language:ar": "main", "name": "Maillot", "opening_hours": "08:30-12:30,13:30-16:30", "operator": "Alg\u00e9rie Poste", "operator:ar": "\u0628\u0631\u064a\u062f \u0627\u0644\u062c\u0632\u0627\u0626\u0631", "operator:fr": "Alg\u00e9rie Poste", "operator:website": "https://www.poste.dz/", "operator:wikidata": "Q2836029", "operator:wikipedia": "fr:Alg\u00e9rie Poste", "phone": "+21323923200", "ref": "R4"}}, {"type": "node", "id": 1879353684, "lat": 36.7527124, "lon": 2.8874541, "tags": {"addr:city": "\u0633\u0637\u0627\u0648\u0627\u0644\u064a", "addr:city:ar": "\u0633\u0637\u0627\u0648\u0627\u0644\u064a", "amenity": "post_office", "brand": "Alg\u00e9rie Poste", "brand:ar": "\u0628\u0631\u064a\u062f \u0627\u0644\u062c\u0632\u0627\u0626\u0631", "brand:email": "clientalgerieposte@poste.dz", "brand:fr": "Alg\u00e9rie Poste", "brand:website": "https://www.poste.dz/", "brand:wikidata": "Q2836029", "brand:wikipedia": "fr:Alg\u00e9rie Poste", "currency:DZA": "yes", "fax": "+21323923170", "name": "Centre postal", "name:ar": "\u0645\u0631\u0643\u0632 \u0627\u0644\u0628\u0631\u064a\u062f", "name:fr": "Centre postal", "opening_hours": "08:30-12:30,13:30-16:30", "operator": "Alg\u00e9rie Poste", "operator:ar": "\u0628\u0631\u064a\u062f \u0627\u0644\u062c\u0632\u0627\u0626\u0631", "operator:fr": "Alg\u00e9rie Poste", "operator:website": "https://www.poste.dz/", "operator:wikidata": "Q2836029", "operator:wikipedia": "fr:Alg\u00e9rie Poste", "phone": "+21323923200"}}, {"type": "node", "id": 2063260506, "lat": 36.720037, "lon": 3.175844, "tags": {"addr:city": "Bab Ezzouar", "amenity": "post_office", "brand": "Alg\u00e9rie Poste", "brand:ar": "\u0628\u0631\u064a\u062f \u0627\u0644\u062c\u0632\u0627\u0626\u0631", "brand:email": "clientalgerieposte@poste.dz", "brand:fr": "Alg\u00e9rie Poste", "brand:website": "https://www.poste.dz/", "brand:wikidata": "Q2836029", "brand:wikipedia": "fr:Alg\u00e9rie Poste", "currency:DZA": "yes", "fax": "+21323923170", "language:ar": "main", "name": "Bureau de poste El Djorf Poste Rabia", "name:ar": "\u0645\u0643\u062a\u0628 \u0627\u0644\u0628\u0631\u064a\u062f \u0648\u0627\u0644\u0645\u0648\u0627\u0635\u0644\u0627\u062a", "opening_hours": "08:30-12:30,13:30-16:30", "operator": "Alg\u00e9rie Poste", "operator:ar": "\u0628\u0631\u064a\u062f \u0627\u0644\u062c\u0632\u0627\u0626\u0631", "operator:fr": "Alg\u00e9rie Poste", "operator:website": "https://www.poste.dz/", "operator:wikidata": "Q2836029", "operator:wikipedia": "fr:Alg\u00e9rie Poste"}}, {"type": "node", "id": 2253042839, "lat": 36.7848255, "lon": 3.0442241, "tags": {"amenity": "post_office", "brand": "Alg\u00e9rie Poste", "brand:ar": "\u0628\u0631\u064a\u062f \u0627\u0644\u062c\u0632\u0627\u0626\u0631", "brand:email": "clientalgerieposte@poste.dz", "brand:fr": "Alg\u00e9rie Poste", "brand:website": "https://www.poste.dz/", "brand:wikidata": "Q2836029", "brand:wikipedia": "fr:Alg\u00e9rie Poste", "currency:DZA": "yes", "fax": "+21323923170", "language:ar": "main", "name": "Bureau de poste Oued Koreiche", "opening_hours": "08:30-12:30,13:30-16:30", "operator": "Alg\u00e9rie Poste", "operator:ar": "\u0628\u0631\u064a\u062f \u0627\u0644\u062c\u0632\u0627\u0626\u0631", "operator:fr": "Alg\u00e9rie Poste", "operator:website": "https://www.poste.dz/", "operator:wikidata": "Q2836029", "operator:wikipedia": "fr:Alg\u00e9rie Poste", "wheelchair": "limited"}}, {"type": "node", "id": 2270016774, "lat": 36.7211364, "lon": 3.0845113, "tags": {"amenity": "post_office", "brand": "Alg\u00e9rie Poste", "brand:ar": "\u0628\u0631\u064a\u062f \u0627\u0644\u062c\u0632\u0627\u0626\u0631", "brand:email": "clientalgerieposte@poste.dz", "brand:fr": "Alg\u00e9rie Poste", "brand:website": "https://www.poste.dz/", "brand:wikidata": "Q2836029", "brand:wikipedia": "fr:Alg\u00e9rie Poste", "currency:DZA": "yes", "fax": "+21323923170", "language:ar": "main", "name": "Cit\u00e9 Jolie vue", "opening_hours": "08:30-12:30,13:30-16:30", "operator": "Alg\u00e9rie Poste", "operator:ar": "\u0628\u0631\u064a\u062f \u0627\u0644\u062c\u0632\u0627\u0626\u0631", "operator:fr": "Alg\u00e9rie Poste", "operator:website": "https://www.poste.dz/", "operator:wikidata": "Q2836029", "operator:wikipedia": "fr:Alg\u00e9rie Poste", "phone": "+21323923200"}}, {"type": "node", "id": 2271576807, "lat": 36.8182786, "lon": 3.0112026, "tags": {"addr:city": "\u0627\u0644\u0631\u0626\u064a\u0633 \u062d\u0645\u064a\u062f\u0648", "addr:city:ar": "\u0627\u0644\u0631\u0626\u064a\u0633 \u062d\u0645\u064a\u062f\u0648", "addr:housenumber": "7", "addr:postcode": "16029", "addr:street": "\u0634\u0627\u0631\u0639 \u0628\u0631\u0628\u0631\u0648\u0633", "addr:street:ar": "\u0634\u0627\u0631\u0639 \u0628\u0631\u0628\u0631\u0648\u0633", "amenity": "post_office", "brand": "Alg\u00e9rie Poste", "brand:ar": "\u0628\u0631\u064a\u062f \u0627\u0644\u062c\u0632\u0627\u0626\u0631", "brand:email": "clientalgerieposte@poste.dz", "brand:fr": "Alg\u00e9rie Poste", "brand:website": "https://www.poste.dz/", "brand:wikidata": "Q2836029", "brand:wikipedia": "fr:Alg\u00e9rie Poste", "currency:DZA": "yes", "fax": "+21323923170", "name": "\u0645\u0643\u062a\u0628 \u0627\u0644\u0628\u0631\u064a\u062f \u0627\u0644\u0631\u0626\u064a\u0633 \u062d\u0645\u064a\u062f\u0648", "name:ar": "\u0645\u0643\u062a\u0628 \u0627\u0644\u0628\u0631\u064a\u062f \u0627\u0644\u0631\u0626\u064a\u0633 \u062d\u0645\u064a\u062f\u0648", "name:fr": "Bureau de poste de Ra\u00efs Hamidou", "opening_hours": "08:30-12:30,13:30-16:30", "operator": "Alg\u00e9rie Poste", "operator:ar": "\u0628\u0631\u064a\u062f \u0627\u0644\u062c\u0632\u0627\u0626\u0631", "operator:fr": "Alg\u00e9rie Poste", "operator:website": "https://www.poste.dz/", "operator:wikidata": "Q2836029", "operator:wikipedia": "fr:Alg\u00e9rie Poste"}}, {"type": "node", "id": 2356681010, "lat": 36.7285382, "lon": 3.1422252, "tags": {"addr:city": "\u0627\u0644\u0645\u062d\u0645\u062f\u064a\u0629", "addr:place": "\u062d\u064a \u0627\u0644\u0627\u0628\u062a\u0633\u0627\u0645\u0629", "addr:street": "\u0634\u0627\u0631\u0639 \u0628\u0643\u0631\u064a \u0628\u0648\u0642\u0631\u0629", "amenity": "post_office", "brand": "Alg\u00e9rie Poste", "brand:ar": "\u0628\u0631\u064a\u062f \u0627\u0644\u062c\u0632\u0627\u0626\u0631", "brand:email": "clientalgerieposte@poste.dz", "brand:fr": "Alg\u00e9rie Poste", "brand:website": "https://www.poste.dz/", "brand:wikidata": "Q2836029", "brand:wikipedia": "fr:Alg\u00e9rie Poste", "currency:DZA": "yes", "fax": "+21323923170", "name": "\u0628\u0631\u064a\u062f \u0627\u0644\u062c\u0632\u0627\u0626\u0631 \u0627\u0644\u0645\u062d\u0645\u062f\u064a\u0629", "name:ar": "\u0628\u0631\u064a\u062f \u0627\u0644\u062c\u0632\u0627\u0626\u0631 \u0627\u0644\u0645\u062d\u0645\u062f\u064a\u0629", "name:fr": "Bureau de poste Mohamadia", "opening_hours": "08:30-12:30,13:30-16:30", "operator": "Alg\u00e9rie Poste", "operator:ar": "\u0628\u0631\u064a\u062f \u0627\u0644\u062c\u0632\u0627\u0626\u0631", "operator:fr": "Alg\u00e9rie Poste", "operator:website": "https://www.poste.dz/", "operator:wikidata": "Q2836029", "operator:wikipedia": "fr:Alg\u00e9rie Poste", "wheelchair": "yes"}}, {"type": "node", "id": 2405493973, "lat": 36.7182977, "lon": 3.1941457, "tags": {"addr:city": "Bab Ezzouar", "addr:street": "Cit\u00e9 1200 Logements", "amenity": "post_office", "brand": "Alg\u00e9rie Poste", "brand:ar": "\u0628\u0631\u064a\u062f \u0627\u0644\u062c\u0632\u0627\u0626\u0631", "brand:email": "clientalgerieposte@poste.dz", "brand:fr": "Alg\u00e9rie Poste", "brand:website": "https://www.poste.dz/", "brand:wikidata": "Q2836029", "brand:wikipedia": "fr:Alg\u00e9rie Poste", "currency:DZA": "yes", "fax": "+21323923170", "language:ar": "main", "name": "Poste 5 juillet", "opening_hours": "08:30-12:30,13:30-16:30", "operator": "Alg\u00e9rie Poste", "operator:ar": "\u0628\u0631\u064a\u062f \u0627\u0644\u062c\u0632\u0627\u0626\u0631", "operator:fr": "Alg\u00e9rie Poste", "operator:website": "https://www.poste.dz/", "operator:wikidata": "Q2836029", "operator:wikipedia": "fr:Alg\u00e9rie Poste", "ref": "16024"}}, {"type": "node", "id": 2481734239, "lat": 36.7353544, "lon": 3.0423691, "tags": {"amenity": "post_office", "brand": "Alg\u00e9rie Poste", "brand:ar": "\u0628\u0631\u064a\u062f \u0627\u0644\u062c\u0632\u0627\u0626\u0631", "brand:email": "clientalgerieposte@poste.dz", "brand:fr": "Alg\u00e9rie Poste", "brand:website": "https://www.poste.dz/", "brand:wikidata": "Q2836029", "brand:wikipedia": "fr:Alg\u00e9rie Poste", "currency:DZA": "yes", "fax": "+21323923170", "name": "\u0627\u0644\u0648\u0626\u0627\u0645", "name:ar": "\u0627\u0644\u0648\u0626\u0627\u0645", "name:fr": "La Concorde", "opening_hours": "08:30-12:30,13:30-16:30", "operator": "Alg\u00e9rie Poste", "operator:ar": "\u0628\u0631\u064a\u062f \u0627\u0644\u062c\u0632\u0627\u0626\u0631", "operator:fr": "Alg\u00e9rie Poste", "operator:website": "https://www.poste.dz/", "operator:wikidata": "Q2836029", "operator:wikipedia": "fr:Alg\u00e9rie Poste", "phone": "+21323923200"}}, {"type": "node", "id": 2530644042, "lat": 36.7567091, "lon": 2.8571809, "tags": {"amenity": "post_office", "brand": "Alg\u00e9rie Poste", "brand:ar": "\u0628\u0631\u064a\u062f \u0627\u0644\u062c\u0632\u0627\u0626\u0631", "brand:email": "clientalgerieposte@poste.dz", "brand:fr": "Alg\u00e9rie Poste", "brand:website": "https://www.poste.dz/", "brand:wikidata": "Q2836029", "brand:wikipedia": "fr:Alg\u00e9rie Poste", "currency:DZA": "yes", "fax": "+21323923170", "language:ar": "main", "name": "Bureau de poste de Sidi Fredj", "opening_hours": "08:30-12:30,13:30-16:30", "operator": "Alg\u00e9rie Poste", "operator:ar": "\u0628\u0631\u064a\u062f \u0627\u0644\u062c\u0632\u0627\u0626\u0631", "operator:fr": "Alg\u00e9rie Poste", "operator:website": "https://www.poste.dz/", "operator:wikidata": "Q2836029", "operator:wikipedia": "fr:Alg\u00e9rie Poste", "phone": "+21323923200"}}, {"type": "node", "id": 2530644082, "lat": 36.7426227, "lon": 2.8745826, "tags": {"amenity": "post_office", "brand": "Alg\u00e9rie Poste", "brand:ar": "\u0628\u0631\u064a\u062f \u0627\u0644\u062c\u0632\u0627\u0626\u0631", "brand:email": "clientalgerieposte@poste.dz", "brand:fr": "Alg\u00e9rie Poste", "brand:website": "https://www.poste.dz/", "brand:wikidata": "Q2836029", "brand:wikipedia": "fr:Alg\u00e9rie Poste", "currency:DZA": "yes", "fax": "+21323923170", "language:ar": "main", "name": "El Bridja", "opening_hours": "08:30-12:30,13:30-16:30", "operator": "Alg\u00e9rie Poste", "operator:ar": "\u0628\u0631\u064a\u062f \u0627\u0644\u062c\u0632\u0627\u0626\u0631", "operator:fr": "Alg\u00e9rie Poste", "operator:website": "https://www.poste.dz/", "operator:wikidata": "Q2836029", "operator:wikipedia": "fr:Alg\u00e9rie Poste", "phone": "+21323923200"}}, {"type": "node", "id": 2530644164, "lat": 36.7086878, "lon": 2.8452061, "tags": {"amenity": "post_office", "brand": "Alg\u00e9rie Poste", "brand:ar": "\u0628\u0631\u064a\u062f \u0627\u0644\u062c\u0632\u0627\u0626\u0631", "brand:email": "clientalgerieposte@poste.dz", "brand:fr": "Alg\u00e9rie Poste", "brand:website": "https://www.poste.dz/", "brand:wikidata": "Q2836029", "brand:wikipedia": "fr:Alg\u00e9rie Poste", "currency:DZA": "yes", "name": "Bureau de poste de Z\u00e9ralda", "opening_hours": "08:30-12:30,13:30-16:30", "operator": "Alg\u00e9rie Poste", "operator:ar": "\u0628\u0631\u064a\u062f \u0627\u0644\u062c\u0632\u0627\u0626\u0631", "operator:fr": "Alg\u00e9rie Poste", "operator:website": "https://www.poste.dz/", "operator:wikidata": "Q2836029", "operator:wikipedia": "fr:Alg\u00e9rie Poste"}}, {"type": "node", "id": 2530644239, "lat": 36.7264608, "lon": 2.8907363, "tags": {"amenity": "post_office", "brand": "Alg\u00e9rie Poste", "brand:ar": "\u0628\u0631\u064a\u062f \u0627\u0644\u062c\u0632\u0627\u0626\u0631", "brand:email": "clientalgerieposte@poste.dz", "brand:fr": "Alg\u00e9rie Poste", "brand:website": "https://www.poste.dz/", "brand:wikidata": "Q2836029", "brand:wikipedia": "fr:Alg\u00e9rie Poste", "currency:DZA": "yes", "fax": "+21323923170", "language:ar": "main", "name": "Belota", "opening_hours": "08:30-12:30,13:30-16:30", "operator": "Alg\u00e9rie Poste", "operator:ar": "\u0628\u0631\u064a\u062f \u0627\u0644\u062c\u0632\u0627\u0626\u0631", "operator:fr": "Alg\u00e9rie Poste", "operator:website": "https://www.poste.dz/", "operator:wikidata": "Q2836029", "operator:wikipedia": "fr:Alg\u00e9rie Poste", "phone": "+21323923200"}}, {"type": "node", "id": 2535738266, "lat": 36.6056921, "lon": 3.0900721}, {"type": "node", "id": 2574948764, "lat": 36.7156185, "lon": 3.1097736}, {"type": "node", "id": 2574948775, "lat": 36.7159253, "lon": 3.109725}, {"type": "node", "id": 2574948836, "lat": 36.7158157, "lon": 3.109615}, {"type": "node", "id": 2574948849, "lat": 36.715898, "lon": 3.1097199}, {"type": "node", "id": 2574948904, "lat": 36.7157576, "lon": 3.1095748}, {"type": "node", "id": 2574948917, "lat": 36.7157969, "lon": 3.1096073}, {"type": "node", "id": 2574948998, "lat": 36.715835, "lon": 3.1096419}, {"type": "node", "id": 2574949031, "lat": 36.7158679, "lon": 3.1096609}, {"type": "node", "id": 2574949087, "lat": 36.7158243, "lon": 3.1099825}, {"type": "node", "id": 2574949114, "lat": 36.7159346, "lon": 3.1097548}, {"type": "node", "id": 2574949118, "lat": 36.7158873, "lon": 3.1096877}, {"type": "node", "id": 2574949119, "lat": 36.7159634, "lon": 3.1097941}, {"type": "node", "id": 2595847131, "lat": 36.7380227, "lon": 3.3422466}, {"type": "node", "id": 2595847132, "lat": 36.7380233, "lon": 3.3424322}, {"type": "node", "id": 2595847133, "lat": 36.7378445, "lon": 3.3424331}, {"type": "node", "id": 2595847134, "lat": 36.7378439, "lon": 3.3422475}, {"type": "node", "id": 2616514808, "lat": 36.7007291, "lon": 3.300987}, {"type": "node", "id": 2657800311, "lat": 36.7405218, "lon": 3.0955188}, {"type": "node", "id": 2657800385, "lat": 36.740548, "lon": 3.0955331}, {"type": "node", "id": 2664949266, "lat": 36.7860215, "lon": 3.056966, "tags": {"addr:city": "ALGER", "addr:housenumber": "01", "addr:place": "CASBAH", "addr:postcode": "16022", "addr:street": "RUE HAHAD ABDEREZAK", "amenity": "post_office", "brand": "Alg\u00e9rie Poste", "brand:ar": "\u0628\u0631\u064a\u062f \u0627\u0644\u062c\u0632\u0627\u0626\u0631", "brand:email": "clientalgerieposte@poste.dz", "brand:fr": "Alg\u00e9rie Poste", "brand:website": "https://www.poste.dz/", "brand:wikidata": "Q2836029", "brand:wikipedia": "fr:Alg\u00e9rie Poste", "currency:DZA": "yes", "fax": "+21323923170", "language:ar": "main", "name": "Bureau de poste Haute Casbah", "opening_hours": "08:30-12:30,13:30-16:30", "operator": "Alg\u00e9rie Poste", "operator:ar": "\u0628\u0631\u064a\u062f \u0627\u0644\u062c\u0632\u0627\u0626\u0631", "operator:fr": "Alg\u00e9rie Poste", "operator:website": "https://www.poste.dz/", "operator:wikidata": "Q2836029", "operator:wikipedia": "fr:Alg\u00e9rie Poste", "ref": "R1"}}, {"type": "node", "id": 2671232714, "lat": 36.7911339, "lon": 3.0150256}, {"type": "node", "id": 2671232715, "lat": 36.791096, "lon": 3.0151781}, {"type": "node", "id": 2671232716, "lat": 36.7911841, "lon": 3.0152123}, {"type": "node", "id": 2671232717, "lat": 36.7911984, "lon": 3.0151548}, {"type": "node", "id": 2671232719, "lat": 36.7912804, "lon": 3.0150824}, {"type": "node", "id": 2671295709, "lat": 36.7698031, "lon": 3.0063314}, {"type": "node", "id": 2671295722, "lat": 36.760326, "lon": 3.0144344}, {"type": "node", "id": 2672821818, "lat": 36.792248, "lon": 3.0514071, "tags": {"amenity": "post_office", "brand": "Alg\u00e9rie Poste", "brand:ar": "\u0628\u0631\u064a\u062f \u0627\u0644\u062c\u0632\u0627\u0626\u0631", "brand:email": "clientalgerieposte@poste.dz", "brand:fr": "Alg\u00e9rie Poste", "brand:website": "https://www.poste.dz/", "brand:wikidata": "Q2836029", "brand:wikipedia": "fr:Alg\u00e9rie Poste", "currency:DZA": "yes", "fax": "+21323923170", "language:ar": "main", "name": "Bab El Ouad", "opening_hours": "08:30-12:30,13:30-16:30", "operator": "Alg\u00e9rie Poste", "operator:ar": "\u0628\u0631\u064a\u062f \u0627\u0644\u062c\u0632\u0627\u0626\u0631", "operator:fr": "Alg\u00e9rie Poste", "operator:website": "https://www.poste.dz/", "operator:wikidata": "Q2836029", "operator:wikipedia": "fr:Alg\u00e9rie Poste", "phone": "+21323923200", "ref": "RHC"}}, {"type": "node", "id": 2674528332, "lat": 36.7532489, "lon": 3.0238396, "tags": {"amenity": "post_office", "brand": "Alg\u00e9rie Poste", "brand:ar": "\u0628\u0631\u064a\u062f \u0627\u0644\u062c\u0632\u0627\u0626\u0631", "brand:email": "clientalgerieposte@poste.dz", "brand:fr": "Alg\u00e9rie Poste", "brand:website": "https://www.poste.dz/", "brand:wikidata": "Q2836029", "brand:wikipedia": "fr:Alg\u00e9rie Poste", "check_date:opening_hours": "2022-02-21", "currency:DZA": "yes", "fax": "+21323923170", "language:ar": "main", "name": "Bureau dre poste Cit\u00e9 Malki", "opening_hours": "08:30-12:30,13:30-16:30", "operator": "Alg\u00e9rie Poste", "operator:ar": "\u0628\u0631\u064a\u062f \u0627\u0644\u062c\u0632\u0627\u0626\u0631", "operator:fr": "Alg\u00e9rie Poste", "operator:website": "https://www.poste.dz/", "operator:wikidata": "Q2836029", "operator:wikipedia": "fr:Alg\u00e9rie Poste", "phone": "+21323923200"}}, {"type": "node", "id": 2676982650, "lat": 36.7912567, "lon": 3.0151775}, {"type": "node", "id": 2680917917, "lat": 36.7332851, "lon": 2.9921688, "tags": {"amenity": "post_office", "brand": "Alg\u00e9rie Poste", "brand:ar": "\u0628\u0631\u064a\u062f \u0627\u0644\u062c\u0632\u0627\u0626\u0631", "brand:email": "clientalgerieposte@poste.dz", "brand:fr": "Alg\u00e9rie Poste", "brand:website": "https://www.poste.dz/", "brand:wikidata": "Q2836029", "brand:wikipedia": "fr:Alg\u00e9rie Poste", "currency:DZA": "yes", "fax": "+21323923170", "language:ar": "main", "name": "Bureau de Poste El Achour", "name:ar": "\u0645\u0643\u062a\u0628 \u0627\u0644\u0628\u0631\u064a\u062f \u0648\u0627\u0644\u0645\u0648\u0627\u0635\u0644\u0627\u062a", "name:fr": "Bureau de Poste", "opening_hours": "08:30-12:30,13:30-16:30", "operator": "Alg\u00e9rie Poste", "operator:ar": "\u0628\u0631\u064a\u062f \u0627\u0644\u062c\u0632\u0627\u0626\u0631", "operator:fr": "Alg\u00e9rie Poste", "operator:website": "https://www.poste.dz/", "operator:wikidata": "Q2836029", "operator:wikipedia": "fr:Alg\u00e9rie Poste", "phone": "+21323923200", "ref": "16104"}}, {"type": "node", "id": 2684810000, "lat": 36.7112582, "lon": 3.1770037, "tags": {"amenity": "post_office", "brand": "Alg\u00e9rie Poste", "brand:ar": "\u0628\u0631\u064a\u062f \u0627\u0644\u062c\u0632\u0627\u0626\u0631", "brand:email": "clientalgerieposte@poste.dz", "brand:fr": "Alg\u00e9rie Poste", "brand:website": "https://www.poste.dz/", "brand:wikidata": "Q2836029", "brand:wikipedia": "fr:Alg\u00e9rie Poste", "currency:DZA": "yes", "fax": "+21323923170", "language:ar": "main", "name": "Bureau d'Alg\u00e9rie Poste de l'USTHB", "opening_hours": "08:30-12:30,13:30-16:30", "operator": "Alg\u00e9rie Poste", "operator:ar": "\u0628\u0631\u064a\u062f \u0627\u0644\u062c\u0632\u0627\u0626\u0631", "operator:fr": "Alg\u00e9rie Poste", "operator:website": "https://www.poste.dz/", "operator:wikidata": "Q2836029", "operator:wikipedia": "fr:Alg\u00e9rie Poste"}}, {"type": "node", "id": 2686551899, "lat": 36.7685807, "lon": 3.0302074}, {"type": "node", "id": 2686551901, "lat": 36.7687125, "lon": 3.0302737}, {"type": "node", "id": 2686551904, "lat": 36.7687637, "lon": 3.0301152}, {"type": "node", "id": 2686551907, "lat": 36.7686319, "lon": 3.0300489}, {"type": "node", "id": 2691336565, "lat": 36.741789, "lon": 2.9961462, "tags": {"amenity": "post_office", "brand": "Alg\u00e9rie Poste", "brand:ar": "\u0628\u0631\u064a\u062f \u0627\u0644\u062c\u0632\u0627\u0626\u0631", "brand:email": "clientalgerieposte@poste.dz", "brand:fr": "Alg\u00e9rie Poste", "brand:website": "https://www.poste.dz/", "brand:wikidata": "Q2836029", "brand:wikipedia": "fr:Alg\u00e9rie Poste", "currency:DZA": "yes", "fax": "+21323923170", "language:ar": "main", "name": "Bureau de poste de Oued Roman", "name:ar": "\u0645\u0643\u062a\u0628 \u0627\u0644\u0628\u0631\u064a\u062f \u0648\u0627\u062f\u064a \u0627\u0644\u0631\u0645\u0627\u0646", "opening_hours": "08:30-12:30,13:30-16:30", "operator": "Alg\u00e9rie Poste", "operator:ar": "\u0628\u0631\u064a\u062f \u0627\u0644\u062c\u0632\u0627\u0626\u0631", "operator:fr": "Alg\u00e9rie Poste", "operator:website": "https://www.poste.dz/", "operator:wikidata": "Q2836029", "operator:wikipedia": "fr:Alg\u00e9rie Poste", "phone": "+21323923200", "ref": "16106"}}, {"type": "node", "id": 2692646270, "lat": 36.7602931, "lon": 3.0143769}, {"type": "node", "id": 2692646274, "lat": 36.7605121, "lon": 3.0147595}, {"type": "node", "id": 2692646277, "lat": 36.7606049, "lon": 3.0146768}, {"type": "node", "id": 2692646280, "lat": 36.7603869, "lon": 3.0142933}, {"type": "node", "id": 2705952279, "lat": 36.7024407, "lon": 2.9098686}, {"type": "node", "id": 2705952280, "lat": 36.7023287, "lon": 2.9099782}, {"type": "node", "id": 2705952281, "lat": 36.7021737, "lon": 2.9097317}, {"type": "node", "id": 2705952282, "lat": 36.7022856, "lon": 2.9096221}, {"type": "node", "id": 2705952329, "lat": 36.7023719, "lon": 2.909937}, {"type": "node", "id": 2710700982, "lat": 36.7742479, "lon": 3.0517121}, {"type": "node", "id": 2710700996, "lat": 36.7741593, "lon": 3.05188}, {"type": "node", "id": 2710701006, "lat": 36.7743538, "lon": 3.0517992}, {"type": "node", "id": 2712242921, "lat": 36.7362822, "lon": 3.0288563, "tags": {"amenity": "post_office", "brand": "Alg\u00e9rie Poste", "brand:ar": "\u0628\u0631\u064a\u062f \u0627\u0644\u062c\u0632\u0627\u0626\u0631", "brand:email": "clientalgerieposte@poste.dz", "brand:fr": "Alg\u00e9rie Poste", "brand:website": "https://www.poste.dz/", "brand:wikidata": "Q2836029", "brand:wikipedia": "fr:Alg\u00e9rie Poste", "currency:DZA": "yes", "fax": "+21323923170", "name": "\u062d\u064a \u0627\u0644\u0645\u0646\u062a\u0632\u0647", "name:ar": "\u062d\u064a \u0627\u0644\u0645\u0646\u062a\u0632\u0647", "name:fr": "Cit\u00e9 le Parc", "opening_hours": "08:30-12:30,13:30-16:30", "operator": "Alg\u00e9rie Poste", "operator:ar": "\u0628\u0631\u064a\u062f \u0627\u0644\u062c\u0632\u0627\u0626\u0631", "operator:fr": "Alg\u00e9rie Poste", "operator:website": "https://www.poste.dz/", "operator:wikidata": "Q2836029", "operator:wikipedia": "fr:Alg\u00e9rie Poste", "phone": "+21323923200"}}, {"type": "node", "id": 2717157187, "lat": 36.7697451, "lon": 3.0064853}, {"type": "node", "id": 2717157189, "lat": 36.7699759, "lon": 3.0066228}, {"type": "node", "id": 2717157191, "lat": 36.7701076, "lon": 3.0062786}, {"type": "node", "id": 2717157193, "lat": 36.7700929, "lon": 3.0062135}, {"type": "node", "id": 2717157195, "lat": 36.7698944, "lon": 3.0060955}, {"type": "node", "id": 2717157200, "lat": 36.7700425, "lon": 3.0061825}, {"type": "node", "id": 2717157203, "lat": 36.7697904, "lon": 3.0063581}, {"type": "node", "id": 2717157212, "lat": 36.7697495, "lon": 3.0064697}, {"type": "node", "id": 2726770335, "lat": 36.7635141, "lon": 3.047068, "tags": {"addr:city": "\u0627\u0644\u062c\u0632\u0627\u0626\u0631 \u0627\u0644\u0648\u0633\u0637\u0649", "addr:housenumber": "119", "addr:postcode": "16002", "addr:street": "\u0634\u0627\u0631\u0639 \u062f\u064a\u062f\u0648\u0634 \u0645\u0631\u0627\u062f", "amenity": "post_office", "brand": "Alg\u00e9rie Poste", "brand:ar": "\u0628\u0631\u064a\u062f \u0627\u0644\u062c\u0632\u0627\u0626\u0631", "brand:email": "clientalgerieposte@poste.dz", "brand:fr": "Alg\u00e9rie Poste", "brand:website": "https://www.poste.dz", "brand:wikidata": "Q2836029", "brand:wikipedia": "fr:Alg\u00e9rie Poste", "currency:DZA": "yes", "fax": "+21323923170", "language:ar": "main", "name": "\u0627\u0644\u0645\u0643\u062a\u0628 \u0627\u0644\u0628\u0631\u064a\u062f \u0633\u064a\u062f\u064a \u0627\u0645\u062d\u0645\u062f", "name:ar": "\u0627\u0644\u0645\u0643\u062a\u0628 \u0627\u0644\u0628\u0631\u064a\u062f \u0633\u064a\u062f\u064a \u0627\u0645\u062d\u0645\u062f", "name:fr": "Bureau de poste", "opening_hours": "08:30-12:30,13:30-16:30", "operator": "Alg\u00e9rie Poste", "operator:ar": "\u0628\u0631\u064a\u062f \u0627\u0644\u062c\u0632\u0627\u0626\u0631", "operator:email": "clientalgerieposte@poste.dz", "operator:fr": "Alg\u00e9rie Poste", "operator:website": "https://www.poste.dz/", "operator:wikidata": "Q2836029", "operator:wikipedia": "fr:Alg\u00e9rie Poste", "phone": "+21323923200", "website": "https://www.poste.dz"}}, {"type": "node", "id": 2740633588, "lat": 36.7859209, "lon": 3.0635878, "tags": {"addr:city": "ALGER", "addr:housenumber": "1", "addr:place": "ALGER", "addr:postcode": "16001", "addr:street": "AVENUE DU 1ER NOVEMBRE", "amenity": "post_office", "brand": "Alg\u00e9rie Poste", "brand:ar": "\u0628\u0631\u064a\u062f \u0627\u0644\u062c\u0632\u0627\u0626\u0631", "brand:email": "clientalgerieposte@poste.dz", "brand:fr": "Alg\u00e9rie Poste", "brand:website": "https://www.poste.dz/", "brand:wikidata": "Q2836029", "brand:wikipedia": "fr:Alg\u00e9rie Poste", "currency:DZA": "yes", "fax": "+21323923170", "language:ar": "main", "name": "Ch\u00e8ques Postaux", "opening_hours": "08:30-12:30,13:30-16:30", "operator": "Alg\u00e9rie Poste", "operator:ar": "\u0628\u0631\u064a\u062f \u0627\u0644\u062c\u0632\u0627\u0626\u0631", "operator:fr": "Alg\u00e9rie Poste", "operator:website": "https://www.poste.dz/", "operator:wikidata": "Q2836029", "operator:wikipedia": "fr:Alg\u00e9rie Poste", "phone": "+21323923200", "ref": "RCE"}}, {"type": "node", "id": 2752195920, "lat": 36.7461578, "lon": 3.0506559, "tags": {"amenity": "post_office", "brand": "Alg\u00e9rie Poste", "brand:ar": "\u0628\u0631\u064a\u062f \u0627\u0644\u062c\u0632\u0627\u0626\u0631", "brand:email": "clientalgerieposte@poste.dz", "brand:fr": "Alg\u00e9rie Poste", "brand:website": "https://www.poste.dz/", "brand:wikidata": "Q2836029", "brand:wikipedia": "fr:Alg\u00e9rie Poste", "currency:DZA": "yes", "fax": "+21323923170", "language:ar": "main", "name": "\u0628\u0631\u064a\u062f \u0627\u0644\u062c\u0632\u0627\u0626\u0631", "name:ar": "\u0628\u0631\u064a\u062f \u0627\u0644\u062c\u0632\u0627\u0626\u0631", "name:fr": "Bureau de poste", "opening_hours": "08:30-12:30,13:30-16:30", "operator": "Alg\u00e9rie Poste", "operator:ar": "\u0628\u0631\u064a\u062f \u0627\u0644\u062c\u0632\u0627\u0626\u0631", "operator:fr": "Alg\u00e9rie Poste", "operator:website": "https://www.poste.dz/", "operator:wikidata": "Q2836029", "operator:wikipedia": "fr:Alg\u00e9rie Poste", "phone": "+21323923200"}}, {"type": "node", "id": 2754485098, "lat": 36.7692213, "lon": 3.0267566, "tags": {"addr:city": "ALGER", "addr:housenumber": "118", "addr:place": "EL BIAR", "addr:postcode": "16138", "addr:street": "BD ALI KHODJA", "amenity": "post_office", "brand": "Alg\u00e9rie Poste", "brand:ar": "\u0628\u0631\u064a\u062f \u0627\u0644\u062c\u0632\u0627\u0626\u0631", "brand:email": "clientalgerieposte@poste.dz", "brand:fr": "Alg\u00e9rie Poste", "brand:website": "https://www.poste.dz/", "brand:wikidata": "Q2836029", "brand:wikipedia": "fr:Alg\u00e9rie Poste", "currency:DZA": "yes", "fax": "+21323923170", "language:ar": "main", "name": "El Biar", "opening_hours": "08:30-12:30,13:30-16:30", "operator": "Alg\u00e9rie Poste", "operator:ar": "\u0628\u0631\u064a\u062f \u0627\u0644\u062c\u0632\u0627\u0626\u0631", "operator:fr": "Alg\u00e9rie Poste", "operator:website": "https://www.poste.dz/", "operator:wikidata": "Q2836029", "operator:wikipedia": "fr:Alg\u00e9rie Poste", "phone": "+21323923200", "ref": "R2"}}, {"type": "node", "id": 2768491746, "lat": 36.7439808, "lon": 3.0782343, "tags": {"addr:city": "Alger", "addr:housenumber": "216", "addr:place": "EL ANNASSER", "addr:postcode": "16009", "addr:street": "Rue Belouizdad Mohamed", "amenity": "post_office", "brand": "Alg\u00e9rie Poste", "brand:ar": "\u0628\u0631\u064a\u062f \u0627\u0644\u062c\u0632\u0627\u0626\u0631", "brand:email": "clientalgerieposte@poste.dz", "brand:fr": "Alg\u00e9rie Poste", "brand:website": "https://www.poste.dz/", "brand:wikidata": "Q2836029", "brand:wikipedia": "fr:Alg\u00e9rie Poste", "currency:DZA": "yes", "fax": "+21323923170", "language:ar": "main", "name": "Bureau de poste 20 Ao\u00fbt Belcourt", "name:ar": "20 \u0627\u0648\u062a \u0628\u0644\u0648\u0632\u062f\u0627\u062f", "opening_hours": "08:30-12:30,13:30-16:30", "operator": "Alg\u00e9rie Poste", "operator:ar": "\u0628\u0631\u064a\u062f \u0627\u0644\u062c\u0632\u0627\u0626\u0631", "operator:fr": "Alg\u00e9rie Poste", "operator:website": "https://www.poste.dz/", "operator:wikidata": "Q2836029", "operator:wikipedia": "fr:Alg\u00e9rie Poste", "ref": "RHC"}}, {"type": "node", "id": 2776940630, "lat": 36.7546227, "lon": 3.0646725, "tags": {"addr:city": "ALGER", "addr:housenumber": "34", "addr:place": "SIDI M'HAMED", "addr:postcode": "16012", "addr:street": "RUE ROUCHAI BOUALEM", "amenity": "post_office", "brand": "Alg\u00e9rie Poste", "brand:ar": "\u0628\u0631\u064a\u062f \u0627\u0644\u062c\u0632\u0627\u0626\u0631", "brand:email": "clientalgerieposte@poste.dz", "brand:fr": "Alg\u00e9rie Poste", "brand:website": "https://www.poste.dz/", "brand:wikidata": "Q2836029", "brand:wikipedia": "fr:Alg\u00e9rie Poste", "currency:DZA": "yes", "fax": "+21323923170", "language:ar": "main", "name": "Bureau de poste Sidi M'Hamed", "name:ar": "\u0627\u0644\u0628\u0631\u064a\u062f \u0648 \u0627\u0644\u0645\u0648\u0627\u0635\u0644\u0627\u062a \u0645\u062d\u0645\u062f \u0628\u0644\u0648\u0632\u062f\u0627\u062f", "opening_hours": "08:30-12:30,13:30-16:30", "operator": "Alg\u00e9rie Poste", "operator:ar": "\u0628\u0631\u064a\u062f \u0627\u0644\u062c\u0632\u0627\u0626\u0631", "operator:fr": "Alg\u00e9rie Poste", "operator:website": "https://www.poste.dz/", "operator:wikidata": "Q2836029", "operator:wikipedia": "fr:Alg\u00e9rie Poste", "ref": "RHC"}}, {"type": "node", "id": 2777216941, "lat": 36.7493725, "lon": 3.0652251, "tags": {"amenity": "post_office", "brand": "Alg\u00e9rie Poste", "brand:ar": "\u0628\u0631\u064a\u062f \u0627\u0644\u062c\u0632\u0627\u0626\u0631", "brand:email": "clientalgerieposte@poste.dz", "brand:fr": "Alg\u00e9rie Poste", "brand:website": "https://www.poste.dz/", "brand:wikidata": "Q2836029", "brand:wikipedia": "fr:Alg\u00e9rie Poste", "currency:DZA": "yes", "fax": "+21323923170", "language:ar": "main", "name": "Bureau de poste de Belouizdad", "opening_hours": "08:30-12:30,13:30-16:30", "operator": "Alg\u00e9rie Poste", "operator:ar": "\u0628\u0631\u064a\u062f \u0627\u0644\u062c\u0632\u0627\u0626\u0631", "operator:fr": "Alg\u00e9rie Poste", "operator:website": "https://www.poste.dz/", "operator:wikidata": "Q2836029", "operator:wikipedia": "fr:Alg\u00e9rie Poste"}}, {"type": "node", "id": 2784713832, "lat": 36.7655507, "lon": 3.0560518, "tags": {"addr:city": "ALGER", "addr:housenumber": "37", "addr:place": "ALGER", "addr:postcode": "16037", "addr:street": "RASSIBA BEN BOUALI", "amenity": "post_office", "brand": "Alg\u00e9rie Poste", "brand:ar": "\u0628\u0631\u064a\u062f \u0627\u0644\u062c\u0632\u0627\u0626\u0631", "brand:email": "clientalgerieposte@poste.dz", "brand:fr": "Alg\u00e9rie Poste", "brand:website": "https://www.poste.dz/", "brand:wikidata": "Q2836029", "brand:wikipedia": "fr:Alg\u00e9rie Poste", "currency:DZA": "yes", "fax": "+21323923170", "language:ar": "main", "name": "HASSIBA BEN BOUALI RP", "opening_hours": "08:30-12:30,13:30-16:30", "operator": "Alg\u00e9rie Poste", "operator:ar": "\u0628\u0631\u064a\u062f \u0627\u0644\u062c\u0632\u0627\u0626\u0631", "operator:fr": "Alg\u00e9rie Poste", "operator:website": "https://www.poste.dz/", "operator:wikidata": "Q2836029", "operator:wikipedia": "fr:Alg\u00e9rie Poste", "phone": "+21323923200", "ref": "RCE"}}, {"type": "node", "id": 2950321434, "lat": 36.7120433, "lon": 3.1577994}, {"type": "node", "id": 2950400110, "lat": 36.7057843, "lon": 3.1692627}, {"type": "node", "id": 2950400111, "lat": 36.7059837, "lon": 3.1690717}, {"type": "node", "id": 2950400112, "lat": 36.7058337, "lon": 3.1690234}, {"type": "node", "id": 2950400113, "lat": 36.7059343, "lon": 3.169311}, {"type": "node", "id": 2956012834, "lat": 36.7742472, "lon": 3.0519523}, {"type": "node", "id": 2964284360, "lat": 36.7729126, "lon": 3.0593402}, {"type": "node", "id": 2964318150, "lat": 36.7733266, "lon": 3.0597947}, {"type": "node", "id": 2964318151, "lat": 36.773259, "lon": 3.0598771}, {"type": "node", "id": 2998168892, "lat": 36.7773325, "lon": 3.0098008}, {"type": "node", "id": 2998170554, "lat": 36.7771615, "lon": 3.0098372}, {"type": "node", "id": 2998170582, "lat": 36.7773145, "lon": 3.0096686}, {"type": "node", "id": 2998170590, "lat": 36.7771435, "lon": 3.009705}, {"type": "node", "id": 3004215053, "lat": 36.7408392, "lon": 3.0954823}, {"type": "node", "id": 3017325202, "lat": 36.7662601, "lon": 2.9582287}, {"type": "node", "id": 3017325203, "lat": 36.7662586, "lon": 2.9579244}, {"type": "node", "id": 3017325204, "lat": 36.7661243, "lon": 2.9579253}, {"type": "node", "id": 3017325205, "lat": 36.7661258, "lon": 2.9582297}, {"type": "node", "id": 3020958860, "lat": 36.7151963, "lon": 2.8433761}, {"type": "node", "id": 3031574391, "lat": 36.6951771, "lon": 2.9710887, "tags": {"addr:city": "\u0628\u0627\u0628\u0627 \u062d\u0633\u0646", "addr:city:ar": "\u0628\u0627\u0628\u0627 \u062d\u0633\u0646", "amenity": "post_office", "brand": "Alg\u00e9rie Poste", "brand:ar": "\u0628\u0631\u064a\u062f \u0627\u0644\u062c\u0632\u0627\u0626\u0631", "brand:email": "clientalgerieposte@poste.dz", "brand:fr": "Alg\u00e9rie Poste", "brand:website": "https://www.poste.dz/", "brand:wikidata": "Q2836029", "brand:wikipedia": "fr:Alg\u00e9rie Poste", "currency:DZA": "yes", "fax": "+21323923170", "name": "\u0645\u0643\u062a\u0628 \u0627\u0644\u0628\u0631\u064a\u062f \u0628\u0627\u0628\u0627 \u062d\u0633\u0646", "name:ar": "\u0645\u0643\u062a\u0628 \u0627\u0644\u0628\u0631\u064a\u062f \u0628\u0627\u0628\u0627 \u062d\u0633\u0646", "name:fr": "Bureau de poste Baba Hassen", "opening_hours": "08:30-12:30,13:30-16:30", "operator": "Alg\u00e9rie Poste", "operator:ar": "\u0628\u0631\u064a\u062f \u0627\u0644\u062c\u0632\u0627\u0626\u0631", "operator:fr": "Alg\u00e9rie Poste", "operator:website": "https://www.poste.dz/", "operator:wikidata": "Q2836029", "operator:wikipedia": "fr:Alg\u00e9rie Poste", "ref": "16081"}}, {"type": "node", "id": 3065003206, "lat": 36.7215606, "lon": 3.1992596, "tags": {"addr:city": "Bab Ezzouar", "addr:street": "Rue Cit\u00e9 La R\u00e9conciliation Nationale", "amenity": "post_office", "brand": "Alg\u00e9rie Poste", "brand:ar": "\u0628\u0631\u064a\u062f \u0627\u0644\u062c\u0632\u0627\u0626\u0631", "brand:email": "clientalgerieposte@poste.dz", "brand:fr": "Alg\u00e9rie Poste", "brand:website": "https://www.poste.dz/", "brand:wikidata": "Q2836029", "brand:wikipedia": "fr:Alg\u00e9rie Poste", "currency:DZA": "yes", "name": "\u0645\u062f\u064a\u0631\u064a\u0629 \u0648\u062d\u062f\u0629 \u0628\u0631\u064a\u062f \u0627\u0644\u062c\u0632\u0627\u0626\u0631 \u0634\u0631\u0642", "name:ar": "\u0645\u062f\u064a\u0631\u064a\u0629 \u0648\u062d\u062f\u0629 \u0628\u0631\u064a\u062f \u0627\u0644\u062c\u0632\u0627\u0626\u0631 \u0634\u0631\u0642", "name:fr": "Direction de l'Unit\u00e9 Postale Alg\u00e9rie Est", "opening_hours": "08:30-12:30,13:30-16:30", "operator": "Alg\u00e9rie Poste", "operator:ar": "\u0628\u0631\u064a\u062f \u0627\u0644\u062c\u0632\u0627\u0626\u0631", "operator:fr": "Alg\u00e9rie Poste", "operator:website": "https://www.poste.dz/", "operator:wikidata": "Q2836029", "operator:wikipedia": "fr:Alg\u00e9rie Poste", "phone": "+21323923200"}}, {"type": "node", "id": 3076748824, "lat": 36.7224965, "lon": 3.1198216}, {"type": "node", "id": 3085887356, "lat": 36.7605292, "lon": 3.0145445}, {"type": "node", "id": 3085887380, "lat": 36.7604119, "lon": 3.0143371}, {"type": "node", "id": 3105259694, "lat": 36.7475247, "lon": 3.1892619, "tags": {"amenity": "post_office", "brand": "Alg\u00e9rie Poste", "brand:ar": "\u0628\u0631\u064a\u062f \u0627\u0644\u062c\u0632\u0627\u0626\u0631", "brand:email": "clientalgerieposte@poste.dz", "brand:fr": "Alg\u00e9rie Poste", "brand:website": "https://www.poste.dz/", "brand:wikidata": "Q2836029", "brand:wikipedia": "fr:Alg\u00e9rie Poste", "currency:DZA": "yes", "fax": "+21323923170", "language:ar": "main", "opening_hours": "08:30-12:30,13:30-16:30", "operator": "Alg\u00e9rie Poste", "operator:ar": "\u0628\u0631\u064a\u062f \u0627\u0644\u062c\u0632\u0627\u0626\u0631", "operator:fr": "Alg\u00e9rie Poste", "operator:website": "https://www.poste.dz/", "operator:wikidata": "Q2836029", "operator:wikipedia": "fr:Alg\u00e9rie Poste", "phone": "+21323923200"}}, {"type": "node", "id": 3115092914, "lat": 36.721494, "lon": 3.199382, "tags": {"addr:city": "Bab Ezzouar", "addr:housenumber": "102", "addr:postcode": "16042", "addr:street": "CITE 05 JUILLET", "addr:unit": "R2", "amenity": "post_office", "brand": "Alg\u00e9rie Poste", "brand:ar": "\u0628\u0631\u064a\u062f \u0627\u0644\u062c\u0632\u0627\u0626\u0631", "brand:email": "clientalgerieposte@poste.dz", "brand:fr": "Alg\u00e9rie Poste", "brand:website": "https://www.poste.dz/", "brand:wikidata": "Q2836029", "brand:wikipedia": "fr:Alg\u00e9rie Poste", "currency:DZA": "yes", "name": "Poste 5 juillet bab zouar", "opening_hours": "08:30-12:30,13:30-16:30", "operator": "Alg\u00e9rie Poste", "operator:ar": "\u0628\u0631\u064a\u062f \u0627\u0644\u062c\u0632\u0627\u0626\u0631", "operator:fr": "Alg\u00e9rie Poste", "operator:website": "https://www.poste.dz/", "operator:wikidata": "Q2836029", "operator:wikipedia": "fr:Alg\u00e9rie Poste", "phone": "+21323923200"}}, {"type": "node", "id": 3120516367, "lat": 36.6312344, "lon": 2.9458802, "tags": {"amenity": "post_office", "brand": "Alg\u00e9rie Poste", "brand:ar": "\u0628\u0631\u064a\u062f \u0627\u0644\u062c\u0632\u0627\u0626\u0631", "brand:email": "clientalgerieposte@poste.dz", "brand:fr": "Alg\u00e9rie Poste", "brand:website": "https://www.poste.dz/", "brand:wikidata": "Q2836029", "brand:wikipedia": "fr:Alg\u00e9rie Poste", "currency:DZA": "yes", "fax": "+21323923170", "language:ar": "main", "name": "Bureau de poste de Tessala El Merdja", "opening_hours": "08:30-12:30,13:30-16:30", "operator": "Alg\u00e9rie Poste", "operator:ar": "\u0628\u0631\u064a\u062f \u0627\u0644\u062c\u0632\u0627\u0626\u0631", "operator:fr": "Alg\u00e9rie Poste", "operator:website": "https://www.poste.dz/", "operator:wikidata": "Q2836029", "operator:wikipedia": "fr:Alg\u00e9rie Poste"}}, {"type": "node", "id": 3150325404, "lat": 36.7680614, "lon": 3.0525271, "tags": {"addr:city": "Alger Centre", "amenity": "post_office", "brand": "Alg\u00e9rie Poste", "brand:ar": "\u0628\u0631\u064a\u062f \u0627\u0644\u062c\u0632\u0627\u0626\u0631", "brand:email": "clientalgerieposte@poste.dz", "brand:fr": "Alg\u00e9rie Poste", "brand:website": "https://www.poste.dz/", "brand:wikidata": "Q2836029", "brand:wikipedia": "fr:Alg\u00e9rie Poste", "currency:DZA": "yes", "fax": "+21323923170", "language:ar": "main", "name": "EMS Courrier Express", "name:ar": "\u0628\u0631\u064a\u062f \u0627\u0644\u0633\u0631\u064a\u0639", "opening_hours": "08:30-12:30,13:30-16:30", "operator": "Alg\u00e9rie Poste", "operator:ar": "\u0628\u0631\u064a\u062f \u0627\u0644\u062c\u0632\u0627\u0626\u0631", "operator:fr": "Alg\u00e9rie Poste", "operator:website": "https://www.poste.dz/", "operator:wikidata": "Q2836029", "operator:wikipedia": "fr:Alg\u00e9rie Poste"}}, {"type": "node", "id": 3159370446, "lat": 36.7120278, "lon": 2.9978435}, {"type": "node", "id": 3159370447, "lat": 36.7120304, "lon": 2.9977604}, {"type": "node", "id": 3159370448, "lat": 36.7120366, "lon": 2.9978762}, {"type": "node", "id": 3159370449, "lat": 36.7120566, "lon": 2.997912}, {"type": "node", "id": 3159370450, "lat": 36.7120881, "lon": 2.9979366}, {"type": "node", "id": 3159370451, "lat": 36.7122471, "lon": 2.9979383}, {"type": "node", "id": 3159370452, "lat": 36.7122436, "lon": 2.9977644}, {"type": "node", "id": 3212364186, "lat": 36.7655007, "lon": 3.0560837, "tags": {"amenity": "post_office", "brand": "Alg\u00e9rie Poste", "brand:ar": "\u0628\u0631\u064a\u062f \u0627\u0644\u062c\u0632\u0627\u0626\u0631", "brand:email": "clientalgerieposte@poste.dz", "brand:fr": "Alg\u00e9rie Poste", "brand:website": "https://www.poste.dz/", "brand:wikidata": "Q2836029", "brand:wikipedia": "fr:Alg\u00e9rie Poste", "currency:DZA": "yes", "fax": "+21323923170", "language:ar": "main", "name": "Bureau de poste Agha", "opening_hours": "08:30-12:30,13:30-16:30", "operator": "Alg\u00e9rie Poste", "operator:ar": "\u0628\u0631\u064a\u062f \u0627\u0644\u062c\u0632\u0627\u0626\u0631", "operator:fr": "Alg\u00e9rie Poste", "operator:website": "https://www.poste.dz/", "operator:wikidata": "Q2836029", "operator:wikipedia": "fr:Alg\u00e9rie Poste"}}, {"type": "node", "id": 3240725389, "lat": 36.7496861, "lon": 3.0553794, "tags": {"amenity": "post_office", "brand": "Alg\u00e9rie Poste", "brand:ar": "\u0628\u0631\u064a\u062f \u0627\u0644\u062c\u0632\u0627\u0626\u0631", "brand:email": "clientalgerieposte@poste.dz", "brand:fr": "Alg\u00e9rie Poste", "brand:website": "https://www.poste.dz/", "brand:wikidata": "Q2836029", "brand:wikipedia": "fr:Alg\u00e9rie Poste", "currency:DZA": "yes", "fax": "+21323923170", "language:ar": "main", "name": "Bureau de poste d'El Mouradia", "opening_hours": "08:30-12:30,13:30-16:30", "operator": "Alg\u00e9rie Poste", "operator:ar": "\u0628\u0631\u064a\u062f \u0627\u0644\u062c\u0632\u0627\u0626\u0631", "operator:fr": "Alg\u00e9rie Poste", "operator:website": "https://www.poste.dz/", "operator:wikidata": "Q2836029", "operator:wikipedia": "fr:Alg\u00e9rie Poste"}}, {"type": "node", "id": 3252524725, "lat": 36.7384863, "lon": 3.2820689}, {"type": "node", "id": 3252524726, "lat": 36.7382241, "lon": 3.2821294}, {"type": "node", "id": 3252524727, "lat": 36.7381877, "lon": 3.2818839}, {"type": "node", "id": 3252524728, "lat": 36.7384499, "lon": 3.2818234}, {"type": "node", "id": 3252659541, "lat": 36.74989, "lon": 3.3641344, "tags": {"amenity": "post_office", "brand": "Alg\u00e9rie Poste", "brand:ar": "\u0628\u0631\u064a\u062f \u0627\u0644\u062c\u0632\u0627\u0626\u0631", "brand:email": "clientalgerieposte@poste.dz", "brand:fr": "Alg\u00e9rie Poste", "brand:website": "https://www.poste.dz/", "brand:wikidata": "Q2836029", "brand:wikipedia": "fr:Alg\u00e9rie Poste", "currency:DZA": "yes", "fax": "+21323923170", "language:ar": "main", "name": "Bureau de poste de Ali Ghazali", "opening_hours": "08:30-12:30,13:30-16:30", "operator": "Alg\u00e9rie Poste", "operator:ar": "\u0628\u0631\u064a\u062f \u0627\u0644\u062c\u0632\u0627\u0626\u0631", "operator:fr": "Alg\u00e9rie Poste", "operator:website": "https://www.poste.dz/", "operator:wikidata": "Q2836029", "operator:wikipedia": "fr:Alg\u00e9rie Poste"}}, {"type": "node", "id": 3253561220, "lat": 36.7120732, "lon": 3.2136626}, {"type": "node", "id": 3253561256, "lat": 36.7122209, "lon": 3.2138284}, {"type": "node", "id": 3253562365, "lat": 36.7118976, "lon": 3.2139061}, {"type": "node", "id": 3253562370, "lat": 36.7120454, "lon": 3.2140718}, {"type": "node", "id": 3376071901, "lat": 36.6482811, "lon": 3.0840036, "tags": {"amenity": "post_office", "brand": "Alg\u00e9rie Poste", "brand:ar": "\u0628\u0631\u064a\u062f \u0627\u0644\u062c\u0632\u0627\u0626\u0631", "brand:email": "clientalgerieposte@poste.dz", "brand:fr": "Alg\u00e9rie Poste", "brand:website": "https://www.poste.dz/", "brand:wikidata": "Q2836029", "brand:wikipedia": "fr:Alg\u00e9rie Poste", "currency:DZA": "yes", "fax": "+21323923170", "language:ar": "main", "name": "Bureau de poste", "opening_hours": "08:30-12:30,13:30-16:30", "operator": "Alg\u00e9rie Poste", "operator:ar": "\u0628\u0631\u064a\u062f \u0627\u0644\u062c\u0632\u0627\u0626\u0631", "operator:fr": "Alg\u00e9rie Poste", "operator:website": "https://www.poste.dz/", "operator:wikidata": "Q2836029", "operator:wikipedia": "fr:Alg\u00e9rie Poste"}}, {"type": "node", "id": 3392708129, "lat": 36.6810851, "lon": 3.2579132, "tags": {"amenity": "post_office", "brand": "Alg\u00e9rie Poste", "brand:ar": "\u0628\u0631\u064a\u062f \u0627\u0644\u062c\u0632\u0627\u0626\u0631", "brand:email": "clientalgerieposte@poste.dz", "brand:fr": "Alg\u00e9rie Poste", "brand:website": "https://www.poste.dz/", "brand:wikidata": "Q2836029", "brand:wikipedia": "fr:Alg\u00e9rie Poste", "currency:DZA": "yes", "fax": "+21323923170", "language:ar": "main", "name": "Bureau de poste de Hamadi", "opening_hours": "08:30-12:30,13:30-16:30", "operator": "Alg\u00e9rie Poste", "operator:ar": "\u0628\u0631\u064a\u062f \u0627\u0644\u062c\u0632\u0627\u0626\u0631", "operator:fr": "Alg\u00e9rie Poste", "operator:website": "https://www.poste.dz/", "operator:wikidata": "Q2836029", "operator:wikipedia": "fr:Alg\u00e9rie Poste", "phone": "+21323923200"}}, {"type": "node", "id": 3402158913, "lat": 36.7432036, "lon": 2.9487805, "tags": {"amenity": "post_office", "brand": "Alg\u00e9rie Poste", "brand:ar": "\u0628\u0631\u064a\u062f \u0627\u0644\u062c\u0632\u0627\u0626\u0631", "brand:email": "clientalgerieposte@poste.dz", "brand:fr": "Alg\u00e9rie Poste", "brand:website": "https://www.poste.dz/", "brand:wikidata": "Q2836029", "brand:wikipedia": "fr:Alg\u00e9rie Poste", "currency:DZA": "yes", "fax": "+21323923170", "language:ar": "main", "name": "Ouled Fayet", "opening_hours": "08:30-12:30,13:30-16:30", "operator": "Alg\u00e9rie Poste", "operator:ar": "\u0628\u0631\u064a\u062f \u0627\u0644\u062c\u0632\u0627\u0626\u0631", "operator:fr": "Alg\u00e9rie Poste", "operator:website": "https://www.poste.dz/", "operator:wikidata": "Q2836029", "operator:wikipedia": "fr:Alg\u00e9rie Poste", "phone": "+21323923200"}}, {"type": "node", "id": 3452502394, "lat": 36.6943399, "lon": 2.8269607}, {"type": "node", "id": 3515602338, "lat": 36.7334568, "lon": 3.1002454, "tags": {"addr:city": "\u062d\u0633\u064a\u0646 \u062f\u0627\u064a", "addr:city:ar": "\u062d\u0633\u064a\u0646 \u062f\u0627\u064a", "amenity": "post_office", "brand": "Alg\u00e9rie Poste", "brand:ar": "\u0628\u0631\u064a\u062f \u0627\u0644\u062c\u0632\u0627\u0626\u0631", "brand:email": "clientalgerieposte@poste.dz", "brand:fr": "Alg\u00e9rie Poste", "brand:website": "https://www.poste.dz/", "brand:wikidata": "Q2836029", "brand:wikipedia": "fr:Alg\u00e9rie Poste", "currency:DZA": "yes", "fax": "+21323923170", "opening_hours": "08:30-12:30,13:30-16:30", "operator": "Alg\u00e9rie Poste", "operator:ar": "\u0628\u0631\u064a\u062f \u0627\u0644\u062c\u0632\u0627\u0626\u0631", "operator:fr": "Alg\u00e9rie Poste", "operator:website": "https://www.poste.dz/", "operator:wikidata": "Q2836029", "operator:wikipedia": "fr:Alg\u00e9rie Poste"}}, {"type": "node", "id": 3523754656, "lat": 36.7928001, "lon": 3.290775}, {"type": "node", "id": 3523754657, "lat": 36.7927949, "lon": 3.2909476}, {"type": "node", "id": 3523754658, "lat": 36.7924872, "lon": 3.2909265}, {"type": "node", "id": 3523754659, "lat": 36.7924911, "lon": 3.2907506}, {"type": "node", "id": 3528659388, "lat": 36.7420356, "lon": 3.0671781}, {"type": "node", "id": 3528659389, "lat": 36.7419977, "lon": 3.0673892}, {"type": "node", "id": 3528659390, "lat": 36.7421484, "lon": 3.0674314}, {"type": "node", "id": 3528659391, "lat": 36.7421864, "lon": 3.0672203}, {"type": "node", "id": 3550124383, "lat": 36.6974387, "lon": 3.0803118, "tags": {"addr:city": "\u062c\u0633\u0631 \u0642\u0633\u0646\u0637\u064a\u0646\u0629", "addr:city:ar": "\u062c\u0633\u0631 \u0642\u0633\u0646\u0637\u064a\u0646\u0629", "amenity": "post_office", "brand": "Alg\u00e9rie Poste", "brand:ar": "\u0628\u0631\u064a\u062f \u0627\u0644\u062c\u0632\u0627\u0626\u0631", "brand:email": "clientalgerieposte@poste.dz", "brand:fr": "Alg\u00e9rie Poste", "brand:website": "https://www.poste.dz/", "brand:wikidata": "Q2836029", "brand:wikipedia": "fr:Alg\u00e9rie Poste", "currency:DZA": "yes", "fax": "+21323923170", "opening_hours": "08:30-12:30,13:30-16:30", "operator": "Alg\u00e9rie Poste", "operator:ar": "\u0628\u0631\u064a\u062f \u0627\u0644\u062c\u0632\u0627\u0626\u0631", "operator:fr": "Alg\u00e9rie Poste", "operator:website": "https://www.poste.dz/", "operator:wikidata": "Q2836029", "operator:wikipedia": "fr:Alg\u00e9rie Poste", "phone": "+21323923200"}}, {"type": "node", "id": 3563500395, "lat": 36.8127875, "lon": 2.9901842, "tags": {"amenity": "post_office", "brand": "Alg\u00e9rie Poste", "brand:ar": "\u0628\u0631\u064a\u062f \u0627\u0644\u062c\u0632\u0627\u0626\u0631", "brand:email": "clientalgerieposte@poste.dz", "brand:fr": "Alg\u00e9rie Poste", "brand:website": "https://www.poste.dz/", "brand:wikidata": "Q2836029", "brand:wikipedia": "fr:Alg\u00e9rie Poste", "currency:DZA": "yes", "fax": "+21323923170", "language:ar": "main", "name": "Bureau de poste", "opening_hours": "08:30-12:30,13:30-16:30", "operator": "Alg\u00e9rie Poste", "operator:ar": "\u0628\u0631\u064a\u062f \u0627\u0644\u062c\u0632\u0627\u0626\u0631", "operator:fr": "Alg\u00e9rie Poste", "operator:website": "https://www.poste.dz/", "operator:wikidata": "Q2836029", "operator:wikipedia": "fr:Alg\u00e9rie Poste"}}, {"type": "node", "id": 3578667119, "lat": 36.7325893, "lon": 3.1870571}, {"type": "node", "id": 3578667123, "lat": 36.7326164, "lon": 3.1872639}, {"type": "node", "id": 3578667124, "lat": 36.7329704, "lon": 3.1871445}, {"type": "node", "id": 3578667171, "lat": 36.7328426, "lon": 3.1872177}, {"type": "node", "id": 3578667181, "lat": 36.7329487, "lon": 3.1869786}, {"type": "node", "id": 3634599022, "lat": 36.7191795, "lon": 3.1377108}, {"type": "node", "id": 3634599023, "lat": 36.7189838, "lon": 3.1376765}, {"type": "node", "id": 3634599024, "lat": 36.7190036, "lon": 3.1374859}, {"type": "node", "id": 3634599025, "lat": 36.7192036, "lon": 3.1375216}, {"type": "node", "id": 3651402815, "lat": 36.7794303, "lon": 3.0610032, "tags": {"addr:street": "Boulevard Zighoud Youcef", "amenity": "post_office", "brand": "Alg\u00e9rie Poste", "brand:ar": "\u0628\u0631\u064a\u062f \u0627\u0644\u062c\u0632\u0627\u0626\u0631", "brand:email": "clientalgerieposte@poste.dz", "brand:fr": "Alg\u00e9rie Poste", "brand:website": "https://www.poste.dz/", "brand:wikidata": "Q2836029", "brand:wikipedia": "fr:Alg\u00e9rie Poste", "currency:DZA": "yes", "fax": "+21323923170", "language:ar": "main", "name": "\u0645\u0643\u062a\u0628 \u0627\u0644\u0628\u0631\u064a\u062f \u0645\u064a\u0646\u0627\u0621 \u0633\u0639\u064a\u062f", "name:ar": "\u0645\u0643\u062a\u0628 \u0627\u0644\u0628\u0631\u064a\u062f \u0645\u064a\u0646\u0627\u0621 \u0633\u0639\u064a\u062f", "name:fr": "Bureau de poste", "opening_hours": "08:30-12:30,13:30-16:30", "operator": "Alg\u00e9rie Poste", "operator:ar": "\u0628\u0631\u064a\u062f \u0627\u0644\u062c\u0632\u0627\u0626\u0631", "operator:fr": "Alg\u00e9rie Poste", "operator:website": "https://www.poste.dz/", "operator:wikidata": "Q2836029", "operator:wikipedia": "fr:Alg\u00e9rie Poste", "phone": "+21323923200"}}, {"type": "node", "id": 3670292992, "lat": 36.7811974, "lon": 3.0447205}, {"type": "node", "id": 3670292993, "lat": 36.7812797, "lon": 3.044972}, {"type": "node", "id": 3670292994, "lat": 36.7811322, "lon": 3.0450377}, {"type": "node", "id": 3670292995, "lat": 36.7810504, "lon": 3.0447869}, {"type": "node", "id": 3691547185, "lat": 36.7920985, "lon": 3.2371731, "tags": {"amenity": "post_office", "brand": "Alg\u00e9rie Poste", "brand:ar": "\u0628\u0631\u064a\u062f \u0627\u0644\u062c\u0632\u0627\u0626\u0631", "brand:email": "clientalgerieposte@poste.dz", "brand:fr": "Alg\u00e9rie Poste", "brand:website": "https://www.poste.dz/", "brand:wikidata": "Q2836029", "brand:wikipedia": "fr:Alg\u00e9rie Poste", "currency:DZA": "yes", "fax": "+21323923170", "name": "\u0645\u0643\u062a\u0628 \u0627\u0644\u0628\u0631\u064a\u062f \u0648\u0627\u0644\u0645\u0648\u0627\u0635\u0644\u0627\u062a \u0627\u0644\u0634\u0627\u0637\u0626 \u0627\u0644\u062c\u0632\u0627\u0626\u0631", "name:ar": "\u0645\u0643\u062a\u0628 \u0627\u0644\u0628\u0631\u064a\u062f \u0648\u0627\u0644\u0645\u0648\u0627\u0635\u0644\u0627\u062a \u0627\u0644\u0634\u0627\u0637\u0626 \u0627\u0644\u062c\u0632\u0627\u0626\u0631", "name:fr": "Bureau de poste Alger Plage", "opening_hours": "08:30-12:30,13:30-16:30", "operator": "Alg\u00e9rie Poste", "operator:ar": "\u0628\u0631\u064a\u062f \u0627\u0644\u062c\u0632\u0627\u0626\u0631", "operator:fr": "Alg\u00e9rie Poste", "operator:website": "https://www.poste.dz/", "operator:wikidata": "Q2836029", "operator:wikipedia": "fr:Alg\u00e9rie Poste", "phone": "+21323923200"}}, {"type": "node", "id": 3700873921, "lat": 36.7127693, "lon": 2.9988269}, {"type": "node", "id": 3700873924, "lat": 36.7127943, "lon": 2.9989912}, {"type": "node", "id": 3700874128, "lat": 36.7128502, "lon": 2.9988138}, {"type": "node", "id": 3700874132, "lat": 36.7128733, "lon": 2.9989747}, {"type": "node", "id": 3754691217, "lat": 36.7386347, "lon": 3.0503235}, {"type": "node", "id": 3754691218, "lat": 36.7387769, "lon": 3.0503454}, {"type": "node", "id": 3754691219, "lat": 36.7387612, "lon": 3.0505044}, {"type": "node", "id": 3754691220, "lat": 36.7386189, "lon": 3.0504824}, {"type": "node", "id": 3759865096, "lat": 36.7794101, "lon": 3.0609372, "tags": {"addr:city": "ALGER", "addr:housenumber": "01", "addr:place": "ALGER", "addr:postcode": "16011", "addr:street": "RUE MAITRE POPIE", "amenity": "post_office", "brand": "Alg\u00e9rie Poste", "brand:ar": "\u0628\u0631\u064a\u062f \u0627\u0644\u062c\u0632\u0627\u0626\u0631", "brand:email": "clientalgerieposte@poste.dz", "brand:fr": "Alg\u00e9rie Poste", "brand:website": "https://www.poste.dz/", "brand:wikidata": "Q2836029", "brand:wikipedia": "fr:Alg\u00e9rie Poste", "currency:DZA": "yes", "fax": "+21323923170", "language:ar": "main", "name": "MAITRE POPIE", "opening_hours": "08:30-12:30,13:30-16:30", "operator": "Alg\u00e9rie Poste", "operator:ar": "\u0628\u0631\u064a\u062f \u0627\u0644\u062c\u0632\u0627\u0626\u0631", "operator:fr": "Alg\u00e9rie Poste", "operator:website": "https://www.poste.dz/", "operator:wikidata": "Q2836029", "operator:wikipedia": "fr:Alg\u00e9rie Poste", "phone": "+21323923200", "ref": "RHC"}}, {"type": "node", "id": 3814276526, "lat": 36.7355044, "lon": 3.0766035}, {"type": "node", "id": 3814276527, "lat": 36.7355393, "lon": 3.0766196}, {"type": "node", "id": 3814276528, "lat": 36.7355538, "lon": 3.0765707}, {"type": "node", "id": 3814276529, "lat": 36.7356564, "lon": 3.076618}, {"type": "node", "id": 3814276530, "lat": 36.735705, "lon": 3.0764536}, {"type": "node", "id": 3814276531, "lat": 36.7356287, "lon": 3.0764184}, {"type": "node", "id": 3814276532, "lat": 36.7355973, "lon": 3.0765243}, {"type": "node", "id": 3814276533, "lat": 36.7355362, "lon": 3.0764961}, {"type": "node", "id": 3837411063, "lat": 36.7241007, "lon": 3.1471369, "tags": {"addr:street": "Rue Cherif Moussa", "amenity": "post_office", "brand": "Alg\u00e9rie Poste", "brand:ar": "\u0628\u0631\u064a\u062f \u0627\u0644\u062c\u0632\u0627\u0626\u0631", "brand:email": "clientalgerieposte@poste.dz", "brand:fr": "Alg\u00e9rie Poste", "brand:website": "https://www.poste.dz/", "brand:wikidata": "Q2836029", "brand:wikipedia": "fr:Alg\u00e9rie Poste", "currency:DZA": "yes", "fax": "+21323923170", "language:ar": "main", "name": "Bureau de poste Hacen Badi", "name:ar": "\u062d\u0633\u0646 \u0628\u0627\u062f\u064a", "opening_hours": "08:30-12:30,13:30-16:30", "operator": "Alg\u00e9rie Poste", "operator:ar": "\u0628\u0631\u064a\u062f \u0627\u0644\u062c\u0632\u0627\u0626\u0631", "operator:fr": "Alg\u00e9rie Poste", "operator:website": "https://www.poste.dz/", "operator:wikidata": "Q2836029", "operator:wikipedia": "fr:Alg\u00e9rie Poste"}}, {"type": "node", "id": 3976165835, "lat": 36.717454, "lon": 3.1293326, "tags": {"addr:postcode": "16162", "amenity": "post_office", "brand": "Alg\u00e9rie Poste", "brand:ar": "\u0628\u0631\u064a\u062f \u0627\u0644\u062c\u0632\u0627\u0626\u0631", "brand:email": "clientalgerieposte@poste.dz", "brand:fr": "Alg\u00e9rie Poste", "brand:website": "https://www.poste.dz/", "brand:wikidata": "Q2836029", "brand:wikipedia": "fr:Alg\u00e9rie Poste", "currency:DZA": "yes", "fax": "+21323923170", "language:ar": "main", "name": "Poste de Bourouba", "opening_hours": "08:30-12:30,13:30-16:30", "operator": "Alg\u00e9rie Poste", "operator:ar": "\u0628\u0631\u064a\u062f \u0627\u0644\u062c\u0632\u0627\u0626\u0631", "operator:fr": "Alg\u00e9rie Poste", "operator:website": "https://www.poste.dz/", "operator:wikidata": "Q2836029", "operator:wikipedia": "fr:Alg\u00e9rie Poste", "phone": "+21323923200"}}, {"type": "node", "id": 3985752589, "lat": 36.6945752, "lon": 3.0309873}, {"type": "node", "id": 3985752592, "lat": 36.6946265, "lon": 3.0311561}, {"type": "node", "id": 3985752594, "lat": 36.6949368, "lon": 3.0307691}, {"type": "node", "id": 3985752596, "lat": 36.6949998, "lon": 3.0323896}, {"type": "node", "id": 3985752609, "lat": 36.6954337, "lon": 3.0302425}, {"type": "node", "id": 3985752621, "lat": 36.6955596, "lon": 3.0301407}, {"type": "node", "id": 3985752646, "lat": 36.6958512, "lon": 3.0320434}, {"type": "node", "id": 3985752653, "lat": 36.6959469, "lon": 3.0297072}, {"type": "node", "id": 3985752660, "lat": 36.6960332, "lon": 3.0298556}, {"type": "node", "id": 3985752673, "lat": 36.6961778, "lon": 3.0297072}, {"type": "node", "id": 3985752678, "lat": 36.6962128, "lon": 3.0317728}, {"type": "node", "id": 3985752691, "lat": 36.6965534, "lon": 3.0317903}, {"type": "node", "id": 3985752693, "lat": 36.6966001, "lon": 3.0297828}, {"type": "node", "id": 3985752696, "lat": 36.6966677, "lon": 3.0302309}, {"type": "node", "id": 3985752698, "lat": 36.6968497, "lon": 3.0307196}, {"type": "node", "id": 3985752699, "lat": 36.6968637, "lon": 3.0304607}, {"type": "node", "id": 3985752700, "lat": 36.696887, "lon": 3.031927}, {"type": "node", "id": 3985752701, "lat": 36.6970083, "lon": 3.0319707}, {"type": "node", "id": 3985752702, "lat": 36.6970596, "lon": 3.0314208}, {"type": "node", "id": 3985752703, "lat": 36.6970876, "lon": 3.0318427}, {"type": "node", "id": 4003038228, "lat": 36.7148894, "lon": 3.048098}, {"type": "node", "id": 4003196070, "lat": 36.7391412, "lon": 3.0503231}, {"type": "node", "id": 4003196071, "lat": 36.7390633, "lon": 3.0502873}, {"type": "node", "id": 4003196072, "lat": 36.7389963, "lon": 3.0506027}, {"type": "node", "id": 4003196073, "lat": 36.7391221, "lon": 3.0506624}, {"type": "node", "id": 4147407043, "lat": 36.7433552, "lon": 2.9492205, "tags": {"amenity": "post_office", "brand": "Alg\u00e9rie Poste", "brand:ar": "\u0628\u0631\u064a\u062f \u0627\u0644\u062c\u0632\u0627\u0626\u0631", "brand:email": "clientalgerieposte@poste.dz", "brand:fr": "Alg\u00e9rie Poste", "brand:website": "https://www.poste.dz/", "brand:wikidata": "Q2836029", "brand:wikipedia": "fr:Alg\u00e9rie Poste", "currency:DZA": "yes", "fax": "+21323923170", "language:ar": "main", "name": "Alg\u00e9rie Poste", "opening_hours": "08:30-12:30,13:30-16:30", "operator": "Alg\u00e9rie Poste", "operator:ar": "\u0628\u0631\u064a\u062f \u0627\u0644\u062c\u0632\u0627\u0626\u0631", "operator:fr": "Alg\u00e9rie Poste", "operator:website": "https://www.poste.dz/", "operator:wikidata": "Q2836029", "operator:wikipedia": "fr:Alg\u00e9rie Poste", "phone": "+21323923200"}}, {"type": "node", "id": 4147407047, "lat": 36.7687292, "lon": 2.8848159, "tags": {"amenity": "post_office", "brand": "Alg\u00e9rie Poste", "brand:ar": "\u0628\u0631\u064a\u062f \u0627\u0644\u062c\u0632\u0627\u0626\u0631", "brand:email": "clientalgerieposte@poste.dz", "brand:fr": "Alg\u00e9rie Poste", "brand:website": "https://www.poste.dz/", "brand:wikidata": "Q2836029", "brand:wikipedia": "fr:Alg\u00e9rie Poste", "currency:DZA": "yes", "fax": "+21323923170", "language:ar": "main", "name": "Bureau de poste de Club des Pins", "opening_hours": "08:30-12:30,13:30-16:30", "operator": "Alg\u00e9rie Poste", "operator:ar": "\u0628\u0631\u064a\u062f \u0627\u0644\u062c\u0632\u0627\u0626\u0631", "operator:fr": "Alg\u00e9rie Poste", "operator:website": "https://www.poste.dz/", "operator:wikidata": "Q2836029", "operator:wikipedia": "fr:Alg\u00e9rie Poste"}}, {"type": "node", "id": 4170455589, "lat": 36.7677985, "lon": 3.0544201, "tags": {"amenity": "post_office", "brand": "Alg\u00e9rie Poste", "brand:ar": "\u0628\u0631\u064a\u062f \u0627\u0644\u062c\u0632\u0627\u0626\u0631", "brand:email": "clientalgerieposte@poste.dz", "brand:fr": "Alg\u00e9rie Poste", "brand:website": "https://www.poste.dz/", "brand:wikidata": "Q2836029", "brand:wikipedia": "fr:Alg\u00e9rie Poste", "currency:DZA": "yes", "fax": "+21323923170", "language:ar": "main", "name": "Bureau de poste Bhelifa Boukhalfa", "name:ar": "\u0645\u0643\u062a\u0628 \u0627\u0644\u0628\u0631\u064a\u062f \u062e\u0644\u064a\u0641\u0629 \u0628\u0648\u062e\u0627\u0644\u0641\u0629", "opening_hours": "08:30-12:30,13:30-16:30", "operator": "Alg\u00e9rie Poste", "operator:ar": "\u0628\u0631\u064a\u062f \u0627\u0644\u062c\u0632\u0627\u0626\u0631", "operator:fr": "Alg\u00e9rie Poste", "operator:website": "https://www.poste.dz/", "operator:wikidata": "Q2836029", "operator:wikipedia": "fr:Alg\u00e9rie Poste"}}, {"type": "node", "id": 4247340606, "lat": 36.7440742, "lon": 2.9138061, "tags": {"amenity": "post_office", "brand": "Alg\u00e9rie Poste", "brand:ar": "\u0628\u0631\u064a\u062f \u0627\u0644\u062c\u0632\u0627\u0626\u0631", "brand:email": "clientalgerieposte@poste.dz", "brand:fr": "Alg\u00e9rie Poste", "brand:website": "https://www.poste.dz/", "brand:wikidata": "Q2836029", "brand:wikipedia": "fr:Alg\u00e9rie Poste", "currency:DZA": "yes", "fax": "+21323923170", "language:ar": "main", "name": "Bureau de poste de Bouchaoui Centre", "opening_hours": "08:30-12:30,13:30-16:30", "operator": "Alg\u00e9rie Poste", "operator:ar": "\u0628\u0631\u064a\u062f \u0627\u0644\u062c\u0632\u0627\u0626\u0631", "operator:fr": "Alg\u00e9rie Poste", "operator:website": "https://www.poste.dz/", "operator:wikidata": "Q2836029", "operator:wikipedia": "fr:Alg\u00e9rie Poste"}}, {"type": "node", "id": 4270071414, "lat": 36.7715021, "lon": 2.9382559}, {"type": "node", "id": 4270071424, "lat": 36.7715504, "lon": 2.9383896}, {"type": "node", "id": 4270071439, "lat": 36.7715949, "lon": 2.9382037}, {"type": "node", "id": 4270071450, "lat": 36.7716432, "lon": 2.9383373}, {"type": "node", "id": 4309819471, "lat": 36.6801522, "lon": 2.8757927, "tags": {"amenity": "post_office", "brand": "Alg\u00e9rie Poste", "brand:ar": "\u0628\u0631\u064a\u062f \u0627\u0644\u062c\u0632\u0627\u0626\u0631", "brand:email": "clientalgerieposte@poste.dz", "brand:fr": "Alg\u00e9rie Poste", "brand:website": "https://www.poste.dz/", "brand:wikidata": "Q2836029", "brand:wikipedia": "fr:Alg\u00e9rie Poste", "currency:DZA": "yes", "fax": "+21323923170", "language:ar": "main", "name": "Bureau de poste", "opening_hours": "08:30-12:30,13:30-16:30", "operator": "Alg\u00e9rie Poste", "operator:ar": "\u0628\u0631\u064a\u062f \u0627\u0644\u062c\u0632\u0627\u0626\u0631", "operator:fr": "Alg\u00e9rie Poste", "operator:website": "https://www.poste.dz/", "operator:wikidata": "Q2836029", "operator:wikipedia": "fr:Alg\u00e9rie Poste"}}, {"type": "node", "id": 4317722195, "lat": 36.611504, "lon": 3.1264211}, {"type": "node", "id": 4333186580, "lat": 36.6669507, "lon": 3.0975748, "tags": {"addr:city": "\u0628\u0631\u0627\u0642\u064a", "addr:city:ar": "\u0628\u0631\u0627\u0642\u064a", "amenity": "post_office", "brand": "Alg\u00e9rie Poste", "brand:ar": "\u0628\u0631\u064a\u062f \u0627\u0644\u062c\u0632\u0627\u0626\u0631", "brand:email": "clientalgerieposte@poste.dz", "brand:fr": "Alg\u00e9rie Poste", "brand:website": "https://www.poste.dz/", "brand:wikidata": "Q2836029", "brand:wikipedia": "fr:Alg\u00e9rie Poste", "currency:DZA": "yes", "fax": "+21323923170", "opening_hours": "08:30-12:30,13:30-16:30", "operator": "Alg\u00e9rie Poste", "operator:ar": "\u0628\u0631\u064a\u062f \u0627\u0644\u062c\u0632\u0627\u0626\u0631", "operator:fr": "Alg\u00e9rie Poste", "operator:website": "https://www.poste.dz/", "operator:wikidata": "Q2836029", "operator:wikipedia": "fr:Alg\u00e9rie Poste", "phone": "+21323923200"}}, {"type": "node", "id": 4333194369, "lat": 36.7272134, "lon": 3.1267324}, {"type": "node", "id": 4333194370, "lat": 36.7272052, "lon": 3.1268299}, {"type": "node", "id": 4333194371, "lat": 36.727246, "lon": 3.126836}, {"type": "node", "id": 4333194372, "lat": 36.7272362, "lon": 3.1269824}, {"type": "node", "id": 4333194373, "lat": 36.7271727, "lon": 3.1269763}, {"type": "node", "id": 4333194374, "lat": 36.7271694, "lon": 3.127023}, {"type": "node", "id": 4333194375, "lat": 36.7271254, "lon": 3.1270149}, {"type": "node", "id": 4333194376, "lat": 36.7271335, "lon": 3.1269092}, {"type": "node", "id": 4333194377, "lat": 36.7270619, "lon": 3.1269011}, {"type": "node", "id": 4333194378, "lat": 36.7270782, "lon": 3.1267181}, {"type": "node", "id": 4345133395, "lat": 36.7938627, "lon": 3.0084804, "tags": {"addr:city": "\u0628\u0648\u0632\u0631\u064a\u0639\u0629", "addr:housenumber": "021901943", "addr:street": "\u0634\u0627\u0631\u0639 \u0645\u062d\u0645\u062f \u0627\u0644\u0639\u0645\u0627\u0631\u064a", "amenity": "post_office", "brand": "Alg\u00e9rie Poste", "brand:ar": "\u0628\u0631\u064a\u062f \u0627\u0644\u062c\u0632\u0627\u0626\u0631", "brand:email": "clientalgerieposte@poste.dz", "brand:fr": "Alg\u00e9rie Poste", "brand:website": "https://www.poste.dz/", "brand:wikidata": "Q2836029", "brand:wikipedia": "fr:Alg\u00e9rie Poste", "currency:DZA": "yes", "fax": "+21323923170", "internet_access": "wlan", "language:ar": "main", "name": "\u0627\u0644\u0645\u0631\u0627\u062c\u0639 \u0627\u0644\u062e\u0627\u0631\u062c\u064a \u0628\u0648\u0646\u0627\u0641\u0639", "name:ar": "\u0627\u0644\u0645\u0631\u0627\u062c\u0639 \u0627\u0644\u062e\u0627\u0631\u062c\u064a \u0628\u0648\u0646\u0627\u0641\u0639", "name:fr": "Commissaire aux comptes Bounafaa", "opening_hours": "08:30-12:30,13:30-16:30", "operator": "Alg\u00e9rie Poste", "operator:ar": "\u0628\u0631\u064a\u062f \u0627\u0644\u062c\u0632\u0627\u0626\u0631", "operator:fr": "Alg\u00e9rie Poste", "operator:website": "https://www.poste.dz/", "operator:wikidata": "Q2836029", "operator:wikipedia": "fr:Alg\u00e9rie Poste", "phone": "+21323923200"}}, {"type": "node", "id": 4356567189, "lat": 36.8105878, "lon": 3.2544036, "tags": {"addr:city": "\u0627\u0644\u0645\u0631\u0633\u0649", "addr:city:ar": "\u0627\u0644\u0645\u0631\u0633\u0649", "addr:street": "\u0634\u0627\u0631\u0639 1 \u0646\u0648\u0641\u0645\u0628\u0631", "addr:street:ar": "\u0634\u0627\u0631\u0639 1 \u0646\u0648\u0641\u0645\u0628\u0631", "amenity": "post_office", "brand": "Alg\u00e9rie Poste", "brand:ar": "\u0628\u0631\u064a\u062f \u0627\u0644\u062c\u0632\u0627\u0626\u0631", "brand:email": "clientalgerieposte@poste.dz", "brand:fr": "Alg\u00e9rie Poste", "brand:website": "https://www.poste.dz/", "brand:wikidata": "Q2836029", "brand:wikipedia": "fr:Alg\u00e9rie Poste", "currency:DZA": "yes", "fax": "+21323923170", "name": "\u0645\u0643\u062a\u0628 \u0628\u0631\u064a\u062f \u0627\u0644\u062c\u0632\u0627\u0626\u0631", "name:ar": "\u0645\u0643\u062a\u0628 \u0628\u0631\u064a\u062f \u0627\u0644\u062c\u0632\u0627\u0626\u0631", "name:fr": "Bureau de poste", "opening_hours": "08:30-12:30,13:30-16:30", "operator": "Alg\u00e9rie Poste", "operator:ar": "\u0628\u0631\u064a\u062f \u0627\u0644\u062c\u0632\u0627\u0626\u0631", "operator:fr": "Alg\u00e9rie Poste", "operator:website": "https://www.poste.dz/", "operator:wikidata": "Q2836029", "operator:wikipedia": "fr:Alg\u00e9rie Poste"}}, {"type": "node", "id": 4386499589, "lat": 36.7735684, "lon": 3.2618632, "tags": {"amenity": "post_office", "brand": "Alg\u00e9rie Poste", "brand:ar": "\u0628\u0631\u064a\u062f \u0627\u0644\u062c\u0632\u0627\u0626\u0631", "brand:email": "clientalgerieposte@poste.dz", "brand:fr": "Alg\u00e9rie Poste", "brand:website": "https://www.poste.dz/", "brand:wikidata": "Q2836029", "brand:wikipedia": "fr:Alg\u00e9rie Poste", "currency:DZA": "yes", "fax": "+21323923170", "language:ar": "main", "name": "Poste derghana2", "opening_hours": "08:30-12:30,13:30-16:30", "operator": "Alg\u00e9rie Poste", "operator:ar": "\u0628\u0631\u064a\u062f \u0627\u0644\u062c\u0632\u0627\u0626\u0631", "operator:fr": "Alg\u00e9rie Poste", "operator:website": "https://www.poste.dz/", "operator:wikidata": "Q2836029", "operator:wikipedia": "fr:Alg\u00e9rie Poste", "phone": "+21323923200"}}, {"type": "node", "id": 4389444106, "lat": 36.7847415, "lon": 2.9641636, "tags": {"amenity": "post_office", "brand": "Alg\u00e9rie Poste", "brand:ar": "\u0628\u0631\u064a\u062f \u0627\u0644\u062c\u0632\u0627\u0626\u0631", "brand:email": "clientalgerieposte@poste.dz", "brand:fr": "Alg\u00e9rie Poste", "brand:website": "https://www.poste.dz/", "brand:wikidata": "Q2836029", "brand:wikipedia": "fr:Alg\u00e9rie Poste", "currency:DZA": "yes", "fax": "+21323923170", "language:ar": "main", "name": "Bureau de poste", "name:ar": "\u0645\u0643\u062a\u0628 \u0627\u0644\u0628\u0631\u064a\u062f", "opening_hours": "08:30-12:30,13:30-16:30", "operator": "Alg\u00e9rie Poste", "operator:ar": "\u0628\u0631\u064a\u062f \u0627\u0644\u062c\u0632\u0627\u0626\u0631", "operator:fr": "Alg\u00e9rie Poste", "operator:website": "https://www.poste.dz/", "operator:wikidata": "Q2836029", "operator:wikipedia": "fr:Alg\u00e9rie Poste"}}, {"type": "node", "id": 4389444124, "lat": 36.7849136, "lon": 2.9656047, "tags": {"amenity": "post_office", "brand": "Alg\u00e9rie Poste", "brand:ar": "\u0628\u0631\u064a\u062f \u0627\u0644\u062c\u0632\u0627\u0626\u0631", "brand:email": "clientalgerieposte@poste.dz", "brand:fr": "Alg\u00e9rie Poste", "brand:website": "https://www.poste.dz/", "brand:wikidata": "Q2836029", "brand:wikipedia": "fr:Alg\u00e9rie Poste", "currency:DZA": "yes", "fax": "+21323923170", "language:ar": "main", "name": "Bureau de poste", "name:ar": "\u0645\u0643\u062a\u0628 \u0627\u0644\u0628\u0631\u064a\u062f", "opening_hours": "08:30-12:30,13:30-16:30", "operator": "Alg\u00e9rie Poste", "operator:ar": "\u0628\u0631\u064a\u062f \u0627\u0644\u062c\u0632\u0627\u0626\u0631", "operator:fr": "Alg\u00e9rie Poste", "operator:website": "https://www.poste.dz/", "operator:wikidata": "Q2836029", "operator:wikipedia": "fr:Alg\u00e9rie Poste", "phone": "+21323923200"}}, {"type": "node", "id": 4396138528, "lat": 36.6696452, "lon": 2.9833344}, {"type": "node", "id": 4396138529, "lat": 36.6696679, "lon": 2.983092}, {"type": "node", "id": 4396138530, "lat": 36.6695256, "lon": 2.9830712}, {"type": "node", "id": 4396138531, "lat": 36.6695028, "lon": 2.9833136}, {"type": "node", "id": 4396153058, "lat": 36.6691166, "lon": 2.9791053}, {"type": "node", "id": 4396153059, "lat": 36.6690708, "lon": 2.9792444}, {"type": "node", "id": 4396153062, "lat": 36.6689571, "lon": 2.9791862}, {"type": "node", "id": 4396153063, "lat": 36.6690029, "lon": 2.9790471}, {"type": "node", "id": 4423349217, "lat": 36.7650104, "lon": 3.051196, "tags": {"addr:city": "ALGER", "addr:housenumber": "14", "addr:place": "ALGER", "addr:postcode": "16010", "addr:street": "RUE FERHAT BOUSSAAD", "amenity": "post_office", "brand": "Alg\u00e9rie Poste", "brand:ar": "\u0628\u0631\u064a\u062f \u0627\u0644\u062c\u0632\u0627\u0626\u0631", "brand:email": "clientalgerieposte@poste.dz", "brand:fr": "Alg\u00e9rie Poste", "brand:website": "https://www.poste.dz/", "brand:wikidata": "Q2836029", "brand:wikipedia": "fr:Alg\u00e9rie Poste", "currency:DZA": "yes", "fax": "+21323923170", "language:ar": "main", "name": "BUreau de poste Ferhat Boussaad", "opening_hours": "08:30-12:30,13:30-16:30", "operator": "Alg\u00e9rie Poste", "operator:ar": "\u0628\u0631\u064a\u062f \u0627\u0644\u062c\u0632\u0627\u0626\u0631", "operator:fr": "Alg\u00e9rie Poste", "operator:website": "https://www.poste.dz/", "operator:wikidata": "Q2836029", "operator:wikipedia": "fr:Alg\u00e9rie Poste", "ref": "RHC"}}, {"type": "node", "id": 4428587825, "lat": 36.7608257, "lon": 3.0584801, "tags": {"addr:city": "Alger", "addr:housenumber": "01", "addr:place": "ALGER", "addr:postcode": "16007", "addr:street": "Rue Mimouni Lahc\u00e8ne", "amenity": "post_office", "brand": "Alg\u00e9rie Poste", "brand:ar": "\u0628\u0631\u064a\u062f \u0627\u0644\u062c\u0632\u0627\u0626\u0631", "brand:email": "clientalgerieposte@poste.dz", "brand:fr": "Alg\u00e9rie Poste", "brand:website": "https://www.poste.dz/", "brand:wikidata": "Q2836029", "brand:wikipedia": "fr:Alg\u00e9rie Poste", "currency:DZA": "yes", "fax": "+21323923170", "language:ar": "main", "name": "Bureau de poste du 1er mai", "opening_hours": "08:30-12:30,13:30-16:30", "operator": "Alg\u00e9rie Poste", "operator:ar": "\u0628\u0631\u064a\u062f \u0627\u0644\u062c\u0632\u0627\u0626\u0631", "operator:fr": "Alg\u00e9rie Poste", "operator:website": "https://www.poste.dz/", "operator:wikidata": "Q2836029", "operator:wikipedia": "fr:Alg\u00e9rie Poste", "ref": "RHE"}}, {"type": "node", "id": 4456596690, "lat": 36.7046038, "lon": 3.1238375, "tags": {"amenity": "post_office", "brand": "Alg\u00e9rie Poste", "brand:ar": "\u0628\u0631\u064a\u062f \u0627\u0644\u062c\u0632\u0627\u0626\u0631", "brand:email": "clientalgerieposte@poste.dz", "brand:fr": "Alg\u00e9rie Poste", "brand:website": "https://www.poste.dz/", "brand:wikidata": "Q2836029", "brand:wikipedia": "fr:Alg\u00e9rie Poste", "currency:DZA": "yes", "fax": "+21323923170", "language:ar": "main", "name": "Bureau de poste", "name:ar": "\u0628\u0631\u064a\u062f \u0627\u0644\u062c\u0632\u0627\u0626\u0631", "opening_hours": "08:30-12:30,13:30-16:30", "operator": "Alg\u00e9rie Poste", "operator:ar": "\u0628\u0631\u064a\u062f \u0627\u0644\u062c\u0632\u0627\u0626\u0631", "operator:fr": "Alg\u00e9rie Poste", "operator:website": "https://www.poste.dz/", "operator:wikidata": "Q2836029", "operator:wikipedia": "fr:Alg\u00e9rie Poste"}}, {"type": "node", "id": 4475736089, "lat": 36.8097204, "lon": 3.2315553, "tags": {"addr:city": "\u062a\u0645\u0646\u0641\u0648\u0633\u062a", "addr:city:ar": "\u062a\u0645\u0646\u0641\u0648\u0633\u062a", "amenity": "post_office", "brand": "Alg\u00e9rie Poste", "brand:ar": "\u0628\u0631\u064a\u062f \u0627\u0644\u062c\u0632\u0627\u0626\u0631", "brand:email": "clientalgerieposte@poste.dz", "brand:fr": "Alg\u00e9rie Poste", "brand:website": "https://www.poste.dz/", "brand:wikidata": "Q2836029", "brand:wikipedia": "fr:Alg\u00e9rie Poste", "currency:DZA": "yes", "fax": "+21323923170", "name": "\u0645\u0631\u0643\u0632 \u0628\u0631\u064a\u062f \u0628\u0631\u062c \u0627\u0644\u0628\u062d\u0631\u064a", "name:ar": "\u0645\u0631\u0643\u0632 \u0628\u0631\u064a\u062f \u0628\u0631\u062c \u0627\u0644\u0628\u062d\u0631\u064a", "name:fr": "Algerie Poste", "opening_hours": "08:30-12:30,13:30-16:30", "operator": "Alg\u00e9rie Poste", "operator:ar": "\u0628\u0631\u064a\u062f \u0627\u0644\u062c\u0632\u0627\u0626\u0631", "operator:fr": "Alg\u00e9rie Poste", "operator:website": "https://www.poste.dz/", "operator:wikidata": "Q2836029", "operator:wikipedia": "fr:Alg\u00e9rie Poste", "phone": "+21323923200"}}, {"type": "node", "id": 4492222919, "lat": 36.7294466, "lon": 3.0054918, "tags": {"amenity": "post_office", "brand": "Alg\u00e9rie Poste", "brand:ar": "\u0628\u0631\u064a\u062f \u0627\u0644\u062c\u0632\u0627\u0626\u0631", "brand:email": "clientalgerieposte@poste.dz", "brand:fr": "Alg\u00e9rie Poste", "brand:website": "https://www.poste.dz/", "brand:wikidata": "Q2836029", "brand:wikipedia": "fr:Alg\u00e9rie Poste", "currency:DZA": "yes", "fax": "+21323923170", "language:ar": "main", "name": "\u0645\u0631\u0643\u0632 \u0627\u0644\u0628\u0631\u064a\u062f \u0627\u0644\u0633\u0628\u0627\u0644\u0629 - \u0639\u062f\u0644", "name:ar": "\u0645\u0631\u0643\u0632 \u0627\u0644\u0628\u0631\u064a\u062f \u0627\u0644\u0633\u0628\u0627\u0644\u0629 - \u0639\u062f\u0644", "name:fr": "Bureau de poste", "opening_hours": "08:30-12:30,13:30-16:30", "operator": "Alg\u00e9rie Poste", "operator:ar": "\u0628\u0631\u064a\u062f \u0627\u0644\u062c\u0632\u0627\u0626\u0631", "operator:fr": "Alg\u00e9rie Poste", "operator:website": "https://www.poste.dz/", "operator:wikidata": "Q2836029", "operator:wikipedia": "fr:Alg\u00e9rie Poste", "phone": "+21323923200", "ref": "16181"}}, {"type": "node", "id": 4534109192, "lat": 36.7034858, "lon": 3.0816329, "tags": {"addr:postcode": "16064", "amenity": "post_office", "brand": "Alg\u00e9rie Poste", "brand:ar": "\u0628\u0631\u064a\u062f \u0627\u0644\u062c\u0632\u0627\u0626\u0631", "brand:email": "clientalgerieposte@poste.dz", "brand:fr": "Alg\u00e9rie Poste", "brand:website": "https://www.poste.dz/", "brand:wikidata": "Q2836029", "brand:wikipedia": "fr:Alg\u00e9rie Poste", "currency:DZA": "yes", "fax": "+21323923170", "language:ar": "main", "name": "Bureau de poste", "name:ar": "\u0628\u0631\u064a\u062f \u0627\u0644\u062c\u0632\u0627\u0626\u0631", "opening_hours": "08:30-12:30,13:30-16:30", "operator": "Alg\u00e9rie Poste", "operator:ar": "\u0628\u0631\u064a\u062f \u0627\u0644\u062c\u0632\u0627\u0626\u0631", "operator:fr": "Alg\u00e9rie Poste", "operator:website": "https://www.poste.dz/", "operator:wikidata": "Q2836029", "operator:wikipedia": "fr:Alg\u00e9rie Poste", "phone": "+21323923200"}}, {"type": "node", "id": 4578346991, "lat": 36.7707213, "lon": 3.2594011, "tags": {"amenity": "post_office", "brand": "Alg\u00e9rie Poste", "brand:ar": "\u0628\u0631\u064a\u062f \u0627\u0644\u062c\u0632\u0627\u0626\u0631", "brand:email": "clientalgerieposte@poste.dz", "brand:fr": "Alg\u00e9rie Poste", "brand:website": "https://www.poste.dz/", "brand:wikidata": "Q2836029", "brand:wikipedia": "fr:Alg\u00e9rie Poste", "currency:DZA": "yes", "fax": "+21323923170", "language:ar": "main", "opening_hours": "08:30-12:30,13:30-16:30", "operator": "Alg\u00e9rie Poste", "operator:ar": "\u0628\u0631\u064a\u062f \u0627\u0644\u062c\u0632\u0627\u0626\u0631", "operator:fr": "Alg\u00e9rie Poste", "operator:website": "https://www.poste.dz/", "operator:wikidata": "Q2836029", "operator:wikipedia": "fr:Alg\u00e9rie Poste"}}, {"type": "node", "id": 4581968389, "lat": 36.7578745, "lon": 2.9503581, "tags": {"addr:country": "DZ", "amenity": "post_office", "name": "\u0628\u0631\u064a\u062f \u0627\u0644\u062c\u0632\u0627\u0626\u0631", "name:ar": "\u0628\u0631\u064a\u062f \u0627\u0644\u062c\u0632\u0627\u0626\u0631", "name:en": "Poste de Amara", "name:fr": "Alg\u00e9rie Poste", "name:kab": "Lbus\u1e6da n Lezzayer"}}, {"type": "node", "id": 4582524890, "lat": 36.7752169, "lon": 3.3035755, "tags": {"amenity": "post_office", "brand": "Alg\u00e9rie Poste", "brand:ar": "\u0628\u0631\u064a\u062f \u0627\u0644\u062c\u0632\u0627\u0626\u0631", "brand:email": "clientalgerieposte@poste.dz", "brand:fr": "Alg\u00e9rie Poste", "brand:website": "https://www.poste.dz/", "brand:wikidata": "Q2836029", "brand:wikipedia": "fr:Alg\u00e9rie Poste", "currency:DZA": "yes", "fax": "+21323923170", "language:ar": "main", "name": "Bureau de poste Hraoua", "name:ar": "\u0645\u0631\u0643\u0632 \u0627\u0644\u0628\u0631\u064a\u062f \u0644\u0647\u0631\u0627\u0648\u0629", "opening_hours": "08:30-12:30,13:30-16:30", "operator": "Alg\u00e9rie Poste", "operator:ar": "\u0628\u0631\u064a\u062f \u0627\u0644\u062c\u0632\u0627\u0626\u0631", "operator:fr": "Alg\u00e9rie Poste", "operator:website": "https://www.poste.dz/", "operator:wikidata": "Q2836029", "operator:wikipedia": "fr:Alg\u00e9rie Poste"}}, {"type": "node", "id": 4625471158, "lat": 36.8113424, "lon": 2.9553994}, {"type": "node", "id": 4625471159, "lat": 36.8113628, "lon": 2.9554906}, {"type": "node", "id": 4625471160, "lat": 36.8114219, "lon": 2.9554691}, {"type": "node", "id": 4625471161, "lat": 36.8114004, "lon": 2.9553739}, {"type": "node", "id": 4670805889, "lat": 36.762719, "lon": 3.043726}, {"type": "node", "id": 4681990796, "lat": 36.7172839, "lon": 2.9451129, "tags": {"amenity": "post_office", "brand": "Alg\u00e9rie Poste", "brand:ar": "\u0628\u0631\u064a\u062f \u0627\u0644\u062c\u0632\u0627\u0626\u0631", "brand:email": "clientalgerieposte@poste.dz", "brand:fr": "Alg\u00e9rie Poste", "brand:website": "https://www.poste.dz/", "brand:wikidata": "Q2836029", "brand:wikipedia": "fr:Alg\u00e9rie Poste", "currency:DZA": "yes", "fax": "+21323923170", "language:ar": "main", "name": "Bureau de poste", "name:ar": "\u0645\u0643\u062a\u0628 \u0627\u0644\u0628\u0631\u064a\u062f", "opening_hours": "08:30-12:30,13:30-16:30", "operator": "Alg\u00e9rie Poste", "operator:ar": "\u0628\u0631\u064a\u062f \u0627\u0644\u062c\u0632\u0627\u0626\u0631", "operator:fr": "Alg\u00e9rie Poste", "operator:website": "https://www.poste.dz/", "operator:wikidata": "Q2836029", "operator:wikipedia": "fr:Alg\u00e9rie Poste"}}, {"type": "node", "id": 4690439305, "lat": 36.6056299, "lon": 3.0901484}, {"type": "node", "id": 4690439306, "lat": 36.6055619, "lon": 3.0900623}, {"type": "node", "id": 4690439307, "lat": 36.6055511, "lon": 3.0900755}, {"type": "node", "id": 4690439308, "lat": 36.6055199, "lon": 3.0900359}, {"type": "node", "id": 4690439309, "lat": 36.6055929, "lon": 3.0899464}, {"type": "node", "id": 4722043189, "lat": 36.7237468, "lon": 3.3020513, "tags": {"amenity": "post_office", "brand": "Alg\u00e9rie Poste", "brand:ar": "\u0628\u0631\u064a\u062f \u0627\u0644\u062c\u0632\u0627\u0626\u0631", "brand:email": "clientalgerieposte@poste.dz", "brand:fr": "Alg\u00e9rie Poste", "brand:website": "https://www.poste.dz/", "brand:wikidata": "Q2836029", "brand:wikipedia": "fr:Alg\u00e9rie Poste", "currency:DZA": "yes", "fax": "+21323923170", "language:ar": "main", "name": "Bureau de poste Mageco", "opening_hours": "08:30-12:30,13:30-16:30", "operator": "Alg\u00e9rie Poste", "operator:ar": "\u0628\u0631\u064a\u062f \u0627\u0644\u062c\u0632\u0627\u0626\u0631", "operator:fr": "Alg\u00e9rie Poste", "operator:website": "https://www.poste.dz/", "operator:wikidata": "Q2836029", "operator:wikipedia": "fr:Alg\u00e9rie Poste"}}, {"type": "node", "id": 4767801185, "lat": 36.6925628, "lon": 2.9807849, "tags": {"amenity": "post_office", "brand": "Alg\u00e9rie Poste", "brand:ar": "\u0628\u0631\u064a\u062f \u0627\u0644\u062c\u0632\u0627\u0626\u0631", "brand:email": "clientalgerieposte@poste.dz", "brand:fr": "Alg\u00e9rie Poste", "brand:website": "https://www.poste.dz/", "brand:wikidata": "Q2836029", "brand:wikipedia": "fr:Alg\u00e9rie Poste", "currency:DZA": "yes", "fax": "+21323923170", "language:ar": "main", "name": "Algerie Poste Baba Hassen 20 Aout 1956", "opening_hours": "08:30-12:30,13:30-16:30", "operator": "Alg\u00e9rie Poste", "operator:ar": "\u0628\u0631\u064a\u062f \u0627\u0644\u062c\u0632\u0627\u0626\u0631", "operator:fr": "Alg\u00e9rie Poste", "operator:website": "https://www.poste.dz/", "operator:wikidata": "Q2836029", "operator:wikipedia": "fr:Alg\u00e9rie Poste", "ref": "16192"}}, {"type": "node", "id": 4820486528, "lat": 36.7207318, "lon": 3.1897461, "tags": {"amenity": "post_office", "brand": "Alg\u00e9rie Poste", "brand:ar": "\u0628\u0631\u064a\u062f \u0627\u0644\u062c\u0632\u0627\u0626\u0631", "brand:email": "clientalgerieposte@poste.dz", "brand:fr": "Alg\u00e9rie Poste", "brand:website": "https://www.poste.dz/", "brand:wikidata": "Q2836029", "brand:wikipedia": "fr:Alg\u00e9rie Poste", "currency:DZA": "yes", "fax": "+21323923170", "language:ar": "main", "opening_hours": "08:30-12:30,13:30-16:30", "operator": "Alg\u00e9rie Poste", "operator:ar": "\u0628\u0631\u064a\u062f \u0627\u0644\u062c\u0632\u0627\u0626\u0631", "operator:fr": "Alg\u00e9rie Poste", "operator:website": "https://www.poste.dz/", "operator:wikidata": "Q2836029", "operator:wikipedia": "fr:Alg\u00e9rie Poste"}}, {"type": "node", "id": 4845575724, "lat": 36.6626935, "lon": 3.1385246, "tags": {"amenity": "post_office", "brand": "Alg\u00e9rie Poste", "brand:ar": "\u0628\u0631\u064a\u062f \u0627\u0644\u062c\u0632\u0627\u0626\u0631", "brand:email": "clientalgerieposte@poste.dz", "brand:fr": "Alg\u00e9rie Poste", "brand:website": "https://www.poste.dz/", "brand:wikidata": "Q2836029", "brand:wikipedia": "fr:Alg\u00e9rie Poste", "currency:DZA": "yes", "fax": "+21323923170", "language:ar": "main", "name": "Bureau de poste 500 logements", "opening_hours": "08:30-12:30,13:30-16:30", "operator": "Alg\u00e9rie Poste", "operator:ar": "\u0628\u0631\u064a\u062f \u0627\u0644\u062c\u0632\u0627\u0626\u0631", "operator:fr": "Alg\u00e9rie Poste", "operator:website": "https://www.poste.dz/", "operator:wikidata": "Q2836029", "operator:wikipedia": "fr:Alg\u00e9rie Poste"}}, {"type": "node", "id": 4900548821, "lat": 36.7475629, "lon": 3.1896619, "tags": {"amenity": "post_office", "name": "\u0645\u0643\u062a\u0628 \u0627\u0644\u0628\u0631\u064a\u062f \u0644\u0628\u0631\u062c \u0627\u0644\u0643\u064a\u0641\u0627\u0646", "operator": "Alg\u00e9rie Poste", "operator:ar": "\u0628\u0631\u064a\u062f \u0627\u0644\u062c\u0632\u0627\u0626\u0631", "operator:fr": "Alg\u00e9rie Poste", "operator:wikidata": "Q2836029"}}, {"type": "node", "id": 5056267621, "lat": 36.7876541, "lon": 3.0597108, "tags": {"amenity": "post_office", "brand": "Alg\u00e9rie Poste", "brand:ar": "\u0628\u0631\u064a\u062f \u0627\u0644\u062c\u0632\u0627\u0626\u0631", "brand:email": "clientalgerieposte@poste.dz", "brand:fr": "Alg\u00e9rie Poste", "brand:website": "https://www.poste.dz/", "brand:wikidata": "Q2836029", "brand:wikipedia": "fr:Alg\u00e9rie Poste", "currency:DZA": "yes", "fax": "+21323923170", "language:ar": "main", "name": "Bureau de poste de Renvali", "name:ar": "\u0645\u0643\u062a\u0628 \u0627\u0644\u0628\u0631\u064a\u062f \u0631\u0648\u0646\u0641\u0627\u0644\u064a", "name:fr": "Bureau de poste", "opening_hours": "08:30-12:30,13:30-16:30", "operator": "Alg\u00e9rie Poste", "operator:ar": "\u0628\u0631\u064a\u062f \u0627\u0644\u062c\u0632\u0627\u0626\u0631", "operator:fr": "Alg\u00e9rie Poste", "operator:website": "https://www.poste.dz/", "operator:wikidata": "Q2836029", "operator:wikipedia": "fr:Alg\u00e9rie Poste", "phone": "+21323923200"}}, {"type": "node", "id": 5146019025, "lat": 36.7754116, "lon": 3.2604614, "tags": {"amenity": "post_office", "brand": "Alg\u00e9rie Poste", "brand:ar": "\u0628\u0631\u064a\u062f \u0627\u0644\u062c\u0632\u0627\u0626\u0631", "brand:email": "clientalgerieposte@poste.dz", "brand:fr": "Alg\u00e9rie Poste", "brand:website": "https://www.poste.dz/", "brand:wikidata": "Q2836029", "brand:wikipedia": "fr:Alg\u00e9rie Poste", "currency:DZA": "yes", "fax": "+21323923170", "language:ar": "main", "opening_hours": "08:30-12:30,13:30-16:30", "operator": "Alg\u00e9rie Poste", "operator:ar": "\u0628\u0631\u064a\u062f \u0627\u0644\u062c\u0632\u0627\u0626\u0631", "operator:fr": "Alg\u00e9rie Poste", "operator:website": "https://www.poste.dz/", "operator:wikidata": "Q2836029", "operator:wikipedia": "fr:Alg\u00e9rie Poste", "phone": "+21323923200"}}, {"type": "node", "id": 5168694419, "lat": 36.8032896, "lon": 2.9399794}, {"type": "node", "id": 5233173621, "lat": 36.6661316, "lon": 3.1008478, "tags": {"addr:city": "\u0628\u0631\u0627\u0642\u064a", "addr:city:ar": "\u0628\u0631\u0627\u0642\u064a", "amenity": "post_office", "brand": "Alg\u00e9rie Poste", "brand:ar": "\u0628\u0631\u064a\u062f \u0627\u0644\u062c\u0632\u0627\u0626\u0631", "brand:email": "clientalgerieposte@poste.dz", "brand:fr": "Alg\u00e9rie Poste", "brand:website": "https://www.poste.dz/", "brand:wikidata": "Q2836029", "brand:wikipedia": "fr:Alg\u00e9rie Poste", "currency:DZA": "yes", "fax": "+21323923170", "name": "\u0628\u0631\u064a\u062f \u0627\u0644\u062c\u0632\u0627\u0626\u0631", "name:ar": "\u0628\u0631\u064a\u062f \u0627\u0644\u062c\u0632\u0627\u0626\u0631", "name:fr": "Algerie poste", "opening_hours": "08:30-12:30,13:30-16:30", "operator": "Alg\u00e9rie Poste", "operator:ar": "\u0628\u0631\u064a\u062f \u0627\u0644\u062c\u0632\u0627\u0626\u0631", "operator:fr": "Alg\u00e9rie Poste", "operator:website": "https://www.poste.dz/", "operator:wikidata": "Q2836029", "operator:wikipedia": "fr:Alg\u00e9rie Poste"}}, {"type": "node", "id": 5258164993, "lat": 36.595104, "lon": 2.9939652}, {"type": "node", "id": 5320504652, "lat": 36.7859242, "lon": 3.063607, "tags": {"addr:city": "ALGER", "addr:place": "ALGER", "addr:postcode": "16000", "addr:street": "IMPASSE CLERMONT TONERRE", "amenity": "post_office", "brand": "Alg\u00e9rie Poste", "brand:ar": "\u0628\u0631\u064a\u062f \u0627\u0644\u062c\u0632\u0627\u0626\u0631", "brand:email": "clientalgerieposte@poste.dz", "brand:fr": "Alg\u00e9rie Poste", "brand:website": "https://www.poste.dz/", "brand:wikidata": "Q2836029", "brand:wikipedia": "fr:Alg\u00e9rie Poste", "currency:DZA": "yes", "fax": "+21323923170", "language:ar": "main", "name": "ALGER RP", "name:ar": "\u0628\u0631\u064a\u062f \u0627\u0644\u062c\u0632\u0627\u0626\u0631", "opening_hours": "08:30-12:30,13:30-16:30", "operator": "Alg\u00e9rie Poste", "operator:ar": "\u0628\u0631\u064a\u062f \u0627\u0644\u062c\u0632\u0627\u0626\u0631", "operator:fr": "Alg\u00e9rie Poste", "operator:website": "https://www.poste.dz/", "operator:wikidata": "Q2836029", "operator:wikipedia": "fr:Alg\u00e9rie Poste", "ref": "RHS", "wheelchair": "yes"}}, {"type": "node", "id": 5329433526, "lat": 36.7426224, "lon": 3.1075784, "tags": {"addr:city": "Hussein Dey", "addr:housenumber": "1", "addr:postcode": "16161", "addr:street": "LA GARE ROUTIERE, KHEROUBA", "addr:unit": "R4", "amenity": "post_office", "brand": "Alg\u00e9rie Poste", "brand:ar": "\u0628\u0631\u064a\u062f \u0627\u0644\u062c\u0632\u0627\u0626\u0631", "brand:email": "clientalgerieposte@poste.dz", "brand:fr": "Alg\u00e9rie Poste", "brand:website": "https://www.poste.dz", "brand:wikidata": "Q2836029", "brand:wikipedia": "fr:Alg\u00e9rie Poste", "currency:DZA": "yes", "fax": "+21323923170", "language:ar": "main", "name": "KHARROUBA-GARE-ROUTIERE", "operator": "Alg\u00e9rie Poste", "operator:ar": "\u0628\u0631\u064a\u062f \u0627\u0644\u062c\u0632\u0627\u0626\u0631", "operator:email": "clientalgerieposte@poste.dz", "operator:fr": "Alg\u00e9rie Poste", "operator:website": "https://www.poste.dz/", "operator:wikidata": "Q2836029", "operator:wikipedia": "fr:Alg\u00e9rie Poste", "website": "https://www.poste.dz"}}, {"type": "node", "id": 5375599423, "lat": 36.6490896, "lon": 2.97527}, {"type": "node", "id": 5448486491, "lat": 36.7161074, "lon": 3.012059, "tags": {"amenity": "post_office", "brand": "Alg\u00e9rie Poste", "brand:ar": "\u0628\u0631\u064a\u062f \u0627\u0644\u062c\u0632\u0627\u0626\u0631", "brand:email": "clientalgerieposte@poste.dz", "brand:fr": "Alg\u00e9rie Poste", "brand:website": "https://www.poste.dz", "brand:wikidata": "Q2836029", "brand:wikipedia": "fr:Alg\u00e9rie Poste", "currency:DZA": "yes", "fax": "+21323923170", "language:ar": "main", "name": "Algerie Poste Sebala", "operator": "Alg\u00e9rie Poste", "operator:ar": "\u0628\u0631\u064a\u062f \u0627\u0644\u062c\u0632\u0627\u0626\u0631", "operator:email": "clientalgerieposte@poste.dz", "operator:fr": "Alg\u00e9rie Poste", "operator:website": "https://www.poste.dz/", "operator:wikidata": "Q2836029", "operator:wikipedia": "fr:Alg\u00e9rie Poste", "ref": "16148", "website": "https://www.poste.dz"}}, {"type": "node", "id": 5503466421, "lat": 36.7440079, "lon": 3.0526334}, {"type": "node", "id": 5538257576, "lat": 36.7923065, "lon": 3.0519623, "tags": {"addr:city": "\u0628\u0627\u0628 \u0627\u0644\u0648\u0627\u062f\u064a", "amenity": "post_office", "brand": "Alg\u00e9rie Poste", "brand:ar": "\u0628\u0631\u064a\u062f \u0627\u0644\u062c\u0632\u0627\u0626\u0631", "brand:email": "clientalgerieposte@poste.dz", "brand:fr": "Alg\u00e9rie Poste", "brand:website": "https://www.poste.dz", "brand:wikidata": "Q2836029", "brand:wikipedia": "fr:Alg\u00e9rie Poste", "currency:DZA": "yes", "fax": "+21323923170", "language:ar": "main", "operator": "Alg\u00e9rie Poste", "operator:ar": "\u0628\u0631\u064a\u062f \u0627\u0644\u062c\u0632\u0627\u0626\u0631", "operator:email": "clientalgerieposte@poste.dz", "operator:fr": "Alg\u00e9rie Poste", "operator:website": "https://www.poste.dz/", "operator:wikidata": "Q2836029", "operator:wikipedia": "fr:Alg\u00e9rie Poste", "website": "https://www.poste.dz"}}, {"type": "node", "id": 5777079604, "lat": 36.7000463, "lon": 3.0933265, "tags": {"amenity": "post_office", "brand": "Alg\u00e9rie Poste", "brand:ar": "\u0628\u0631\u064a\u062f \u0627\u0644\u062c\u0632\u0627\u0626\u0631", "brand:email": "clientalgerieposte@poste.dz", "brand:fr": "Alg\u00e9rie Poste", "brand:website": "https://www.poste.dz/", "brand:wikidata": "Q2836029", "brand:wikipedia": "fr:Alg\u00e9rie Poste", "currency:DZA": "yes", "fax": "+21323923170", "language:ar": "main", "name": "Chez Tips", "opening_hours": "08:30-12:30,13:30-16:30", "operator": "Alg\u00e9rie Poste", "operator:ar": "\u0628\u0631\u064a\u062f \u0627\u0644\u062c\u0632\u0627\u0626\u0631", "operator:fr": "Alg\u00e9rie Poste", "operator:website": "https://www.poste.dz/", "operator:wikidata": "Q2836029", "operator:wikipedia": "fr:Alg\u00e9rie Poste", "phone": "+21323923200"}}, {"type": "node", "id": 5853890280, "lat": 36.7742652, "lon": 3.0519671}, {"type": "node", "id": 5960960345, "lat": 36.7395284, "lon": 3.1431363, "tags": {"amenity": "post_office", "brand": "Alg\u00e9rie Poste", "brand:ar": "\u0628\u0631\u064a\u062f \u0627\u0644\u062c\u0632\u0627\u0626\u0631", "brand:email": "clientalgerieposte@poste.dz", "brand:fr": "Alg\u00e9rie Poste", "brand:website": "https://www.poste.dz", "brand:wikidata": "Q2836029", "brand:wikipedia": "fr:Alg\u00e9rie Poste", "currency:DZA": "yes", "fax": "+21323923170", "language:ar": "main", "name": "DHL", "operator": "Alg\u00e9rie Poste", "operator:ar": "\u0628\u0631\u064a\u062f \u0627\u0644\u062c\u0632\u0627\u0626\u0631", "operator:email": "clientalgerieposte@poste.dz", "operator:fr": "Alg\u00e9rie Poste", "operator:website": "https://www.poste.dz/", "operator:wikidata": "Q2836029", "operator:wikipedia": "fr:Alg\u00e9rie Poste", "website": "https://www.poste.dz"}}, {"type": "node", "id": 5988884549, "lat": 36.7059555, "lon": 3.1692082}, {"type": "node", "id": 6408294085, "lat": 36.7139173, "lon": 3.3370026, "tags": {"amenity": "post_office", "brand": "Alg\u00e9rie Poste", "brand:ar": "\u0628\u0631\u064a\u062f \u0627\u0644\u062c\u0632\u0627\u0626\u0631", "brand:email": "clientalgerieposte@poste.dz", "brand:fr": "Alg\u00e9rie Poste", "brand:website": "https://www.poste.dz", "brand:wikidata": "Q2836029", "brand:wikipedia": "fr:Alg\u00e9rie Poste", "currency:DZA": "yes", "fax": "+21323923170", "language:ar": "main", "name": "\u0645\u0643\u062a\u0628 \u0627\u0644\u0628\u0631\u064a\u062f \u0627\u0648\u0644\u0627\u062f \u0647\u062f\u0627\u062c", "name:ar": "\u0645\u0643\u062a\u0628 \u0627\u0644\u0628\u0631\u064a\u062f \u0627\u0648\u0644\u0627\u062f \u0647\u062f\u0627\u062c", "name:fr": "Bureau de poste", "operator": "Alg\u00e9rie Poste", "operator:ar": "\u0628\u0631\u064a\u062f \u0627\u0644\u062c\u0632\u0627\u0626\u0631", "operator:email": "clientalgerieposte@poste.dz", "operator:fr": "Alg\u00e9rie Poste", "operator:website": "https://www.poste.dz/", "operator:wikidata": "Q2836029", "operator:wikipedia": "fr:Alg\u00e9rie Poste", "website": "https://www.poste.dz"}}, {"type": "node", "id": 6461632388, "lat": 36.8038993, "lon": 3.0427129}, {"type": "node", "id": 6461632389, "lat": 36.8040232, "lon": 3.0426764}, {"type": "node", "id": 6461632390, "lat": 36.8040211, "lon": 3.0425905}, {"type": "node", "id": 6461632391, "lat": 36.8039438, "lon": 3.0427756}, {"type": "node", "id": 6461632392, "lat": 36.8040855, "lon": 3.0426791}, {"type": "node", "id": 6461632393, "lat": 36.8040533, "lon": 3.0427086}, {"type": "node", "id": 6461632394, "lat": 36.8039739, "lon": 3.0425905}, {"type": "node", "id": 6612759913, "lat": 36.7732149, "lon": 3.059258}, {"type": "node", "id": 6612759914, "lat": 36.7732276, "lon": 3.0592573}, {"type": "node", "id": 6612759915, "lat": 36.773241, "lon": 3.0592626}, {"type": "node", "id": 6612759916, "lat": 36.7732504, "lon": 3.0592705}, {"type": "node", "id": 6612759939, "lat": 36.7728845, "lon": 3.0593841}, {"type": "node", "id": 6612759946, "lat": 36.772887, "lon": 3.0593695}, {"type": "node", "id": 6612759947, "lat": 36.7728929, "lon": 3.0593565}, {"type": "node", "id": 7069362313, "lat": 36.780058, "lon": 3.0547455, "tags": {"amenity": "post_office", "brand": "Alg\u00e9rie Poste", "brand:ar": "\u0628\u0631\u064a\u062f \u0627\u0644\u062c\u0632\u0627\u0626\u0631", "brand:email": "clientalgerieposte@poste.dz", "brand:fr": "Alg\u00e9rie Poste", "brand:website": "https://www.poste.dz", "brand:wikidata": "Q2836029", "brand:wikipedia": "fr:Alg\u00e9rie Poste", "currency:DZA": "yes", "fax": "+21323923170", "language:ar": "main", "name": "Algerie Poste - Freres Bellili", "operator": "Alg\u00e9rie Poste", "operator:ar": "\u0628\u0631\u064a\u062f \u0627\u0644\u062c\u0632\u0627\u0626\u0631", "operator:email": "clientalgerieposte@poste.dz", "operator:fr": "Alg\u00e9rie Poste", "operator:website": "https://www.poste.dz/", "operator:wikidata": "Q2836029", "operator:wikipedia": "fr:Alg\u00e9rie Poste", "ref": "16066", "website": "https://www.poste.dz"}}, {"type": "node", "id": 7104255285, "lat": 36.6905766, "lon": 2.8510665, "tags": {"amenity": "post_office", "brand": "Alg\u00e9rie Poste", "brand:ar": "\u0628\u0631\u064a\u062f \u0627\u0644\u062c\u0632\u0627\u0626\u0631", "brand:email": "clientalgerieposte@poste.dz", "brand:fr": "Alg\u00e9rie Poste", "brand:website": "https://www.poste.dz", "brand:wikidata": "Q2836029", "brand:wikipedia": "fr:Alg\u00e9rie Poste", "currency:DZA": "yes", "fax": "+21323923170", "language:ar": "main", "name": "\u0645\u0643\u062a\u0628 \u0628\u0631\u064a\u062f \u0633\u064a\u062f\u064a \u0639\u0628\u062f \u0627\u0644\u0644\u0647", "name:ar": "\u0645\u0643\u062a\u0628 \u0628\u0631\u064a\u062f \u0633\u064a\u062f\u064a \u0639\u0628\u062f \u0627\u0644\u0644\u0647", "name:fr": "Bureau de Poste", "operator": "Alg\u00e9rie Poste", "operator:ar": "\u0628\u0631\u064a\u062f \u0627\u0644\u062c\u0632\u0627\u0626\u0631", "operator:email": "clientalgerieposte@poste.dz", "operator:fr": "Alg\u00e9rie Poste", "operator:website": "https://www.poste.dz/", "operator:wikidata": "Q2836029", "operator:wikipedia": "fr:Alg\u00e9rie Poste", "website": "https://www.poste.dz"}}, {"type": "node", "id": 7111929285, "lat": 36.7571744, "lon": 3.2478728, "tags": {"amenity": "post_office", "brand:email": "clientalgerieposte@poste.dz", "currency:DZA": "yes", "description": "bureau de poste", "email": "clientalgerieposte@poste.dz", "name": "Poste benzian", "operator": "Algerie Poste", "operator:ar": "\u0628\u0631\u064a\u062f \u0627\u0644\u062c\u0632\u0627\u0626\u0631", "operator:fr": "Algerie Poste", "operator:website": "https://www.poste.dz/", "operator:wikipedia": "ar:\u0628\u0631\u064a\u062f \u0627\u0644\u062c\u0632\u0627\u0626\u0631", "operator:wikipedia:ar": "\u0628\u0631\u064a\u062f \u0627\u0644\u062c\u0632\u0627\u0626\u0631", "source": "FB: Algerie Mapper Team : (Superadlen)", "website": "https://www.poste.dz", "wikipedia": "fr:Alg\u00e9rie Poste"}}, {"type": "node", "id": 7203171708, "lat": 36.7387801, "lon": 3.2045791, "tags": {"amenity": "post_office", "brand:email": "clientalgerieposte@poste.dz", "currency:DZA": "yes", "description": "bureau de poste", "email": "clientalgerieposte@poste.dz", "name": "Poste", "operator": "Algerie Poste", "operator:ar": "\u0628\u0631\u064a\u062f \u0627\u0644\u062c\u0632\u0627\u0626\u0631", "operator:fr": "Algerie Poste", "operator:website": "https://www.poste.dz/", "operator:wikipedia": "ar:\u0628\u0631\u064a\u062f \u0627\u0644\u062c\u0632\u0627\u0626\u0631", "operator:wikipedia:ar": "\u0628\u0631\u064a\u062f \u0627\u0644\u062c\u0632\u0627\u0626\u0631", "source": "FB: Algerie Mapper Team : (Superadlen)", "website": "https://www.poste.dz", "wikipedia": "fr:Alg\u00e9rie Poste"}}, {"type": "node", "id": 7641875386, "lat": 36.6672783, "lon": 3.1454923, "tags": {"amenity": "post_office", "brand:email": "clientalgerieposte@poste.dz", "currency:DZA": "yes", "description": "bureau de poste", "email": "clientalgerieposte@poste.dz", "name": "\u0645\u0643\u062a\u0628 \u0628\u0631\u064a\u062f \u0627\u0644\u0643\u0627\u0644\u064a\u062a\u0648\u0633", "name:ar": "\u0645\u0643\u062a\u0628 \u0628\u0631\u064a\u062f \u0627\u0644\u0643\u0627\u0644\u064a\u062a\u0648\u0633", "name:fr": "Bureau de poste Les Eucalyptus", "opening_hours": "Sa-Th 09:00-17:00", "operator": "Algerie Poste", "operator:ar": "\u0628\u0631\u064a\u062f \u0627\u0644\u062c\u0632\u0627\u0626\u0631", "operator:fr": "Algerie Poste", "operator:website": "https://www.poste.dz/", "operator:wikipedia": "ar:\u0628\u0631\u064a\u062f \u0627\u0644\u062c\u0632\u0627\u0626\u0631", "operator:wikipedia:ar": "\u0628\u0631\u064a\u062f \u0627\u0644\u062c\u0632\u0627\u0626\u0631", "source": "FB: Algerie Mapper Team : (Superadlen)", "website": "https://www.poste.dz", "wikipedia": "fr:Alg\u00e9rie Poste"}}, {"type": "node", "id": 7999553653, "lat": 36.6903486, "lon": 2.8505662, "tags": {"amenity": "post_office", "brand:email": "clientalgerieposte@poste.dz", "currency:DZA": "yes", "description": "bureau de poste", "email": "clientalgerieposte@poste.dz", "name": "Sidi abde elleh", "operator": "Algerie Poste", "operator:ar": "\u0628\u0631\u064a\u062f \u0627\u0644\u062c\u0632\u0627\u0626\u0631", "operator:fr": "Algerie Poste", "operator:website": "https://www.poste.dz/", "operator:wikipedia": "ar:\u0628\u0631\u064a\u062f \u0627\u0644\u062c\u0632\u0627\u0626\u0631", "operator:wikipedia:ar": "\u0628\u0631\u064a\u062f \u0627\u0644\u062c\u0632\u0627\u0626\u0631", "source": "FB: Algerie Mapper Team : (Superadlen)", "website": "https://www.poste.dz", "wikipedia": "fr:Alg\u00e9rie Poste"}}, {"type": "node", "id": 7999553654, "lat": 36.6910711, "lon": 2.8507749, "tags": {"amenity": "post_office", "brand:email": "clientalgerieposte@poste.dz", "currency:DZA": "yes", "description": "bureau de poste", "email": "clientalgerieposte@poste.dz", "name": "EMS", "operator": "Algerie Poste", "operator:ar": "\u0628\u0631\u064a\u062f \u0627\u0644\u062c\u0632\u0627\u0626\u0631", "operator:fr": "Algerie Poste", "operator:website": "https://www.poste.dz/", "operator:wikipedia": "ar:\u0628\u0631\u064a\u062f \u0627\u0644\u062c\u0632\u0627\u0626\u0631", "operator:wikipedia:ar": "\u0628\u0631\u064a\u062f \u0627\u0644\u062c\u0632\u0627\u0626\u0631", "source": "FB: Algerie Mapper Team : (Superadlen)", "website": "https://www.poste.dz", "wikipedia": "fr:Alg\u00e9rie Poste"}}, {"type": "node", "id": 8128524413, "lat": 36.7200235, "lon": 3.1756941, "tags": {"amenity": "post_office", "brand:email": "clientalgerieposte@poste.dz", "currency:DZA": "yes", "description": "bureau de poste", "email": "clientalgerieposte@poste.dz", "name": "Ccp", "operator": "Alg\u00e9rie Poste", "operator:ar": "\u0628\u0631\u064a\u062f \u0627\u0644\u062c\u0632\u0627\u0626\u0631", "operator:fr": "Alg\u00e9rie Poste", "operator:website": "https://www.poste.dz/", "operator:wikidata": "Q2836029", "operator:wikipedia": "ar:\u0628\u0631\u064a\u062f \u0627\u0644\u062c\u0632\u0627\u0626\u0631", "operator:wikipedia:ar": "\u0628\u0631\u064a\u062f \u0627\u0644\u062c\u0632\u0627\u0626\u0631", "source": "FB: Algerie Mapper Team : (Superadlen)", "website": "https://www.poste.dz", "wikipedia": "fr:Alg\u00e9rie Poste"}}, {"type": "node", "id": 8179802421, "lat": 36.6532566, "lon": 3.0919135, "tags": {"amenity": "post_office", "brand": "\u0628\u0631\u064a\u062f \u0627\u0644\u062c\u0632\u0627\u0626\u0631", "brand:ar": "\u0628\u0631\u064a\u062f \u0627\u0644\u062c\u0632\u0627\u0626\u0631", "brand:email": "clientalgerieposte@poste.dz", "brand:website": "https://www.poste.dz/lang/ar", "brand:wikidata": "Q2836029", "brand:wikipedia": "ar:\u0628\u0631\u064a\u062f \u0627\u0644\u062c\u0632\u0627\u0626\u0631", "brand:wikipedia:ar": "\u0628\u0631\u064a\u062f \u0627\u0644\u062c\u0632\u0627\u0626\u0631", "currency:DZA": "yes", "description": "bureau de poste", "email": "clientalgerieposte@poste.dz", "name": "bureau de poste hoyche mihoub \u0645\u0643\u062a\u0628 \u0627\u0644\u0628\u0631\u064a\u062f \u062d\u0648\u0634 \u0645\u064a\u0647\u0648\u0628", "name:ar": "\u0645\u0643\u062a\u0628 \u0627\u0644\u0628\u0631\u064a\u062f \u062d\u0648\u0634 \u0645\u064a\u0647\u0648\u0628", "name:fr": "Bureau de poste hoyche mihoub", "operator": "Algerie Poste", "operator:ar": "\u0628\u0631\u064a\u062f \u0627\u0644\u062c\u0632\u0627\u0626\u0631", "operator:fr": "Algerie Poste", "operator:website": "https://www.poste.dz/", "operator:wikidata": "Q2836029", "operator:wikipedia": "ar:\u0628\u0631\u064a\u062f \u0627\u0644\u062c\u0632\u0627\u0626\u0631", "operator:wikipedia:ar": "\u0628\u0631\u064a\u062f \u0627\u0644\u062c\u0632\u0627\u0626\u0631", "website": "https://www.poste.dz", "wikipedia": "fr:Alg\u00e9rie Poste"}}, {"type": "node", "id": 9084319944, "lat": 36.6804612, "lon": 2.906411, "tags": {"entrance": "main"}}, {"type": "node", "id": 9084319945, "lat": 36.680489, "lon": 2.9064477, "tags": {"amenity": "atm"}}, {"type": "node", "id": 9084319946, "lat": 36.6804152, "lon": 2.9063504}, {"type": "node", "id": 9084319947, "lat": 36.6805041, "lon": 2.9064676}, {"type": "node", "id": 9084319948, "lat": 36.6803303, "lon": 2.9064506}, {"type": "node", "id": 9084319949, "lat": 36.6804192, "lon": 2.9065677}, {"type": "node", "id": 9117861577, "lat": 36.6869619, "lon": 2.9056706, "tags": {"amenity": "post_office", "brand:email": "clientalgerieposte@poste.dz", "currency:DZA": "yes", "description": "bureau de poste", "email": "clientalgerieposte@poste.dz", "name": "Rahmania 300 logements", "operator": "Algerie Poste", "operator:ar": "\u0628\u0631\u064a\u062f \u0627\u0644\u062c\u0632\u0627\u0626\u0631", "operator:fr": "Algerie Poste", "operator:website": "https://www.poste.dz/", "operator:wikipedia": "ar:\u0628\u0631\u064a\u062f \u0627\u0644\u062c\u0632\u0627\u0626\u0631", "operator:wikipedia:ar": "\u0628\u0631\u064a\u062f \u0627\u0644\u062c\u0632\u0627\u0626\u0631", "ref": "16233", "source": "FB: Algerie Mapper Team : (Superadlen)", "website": "https://www.poste.dz", "wikipedia": "fr:Alg\u00e9rie Poste"}}, {"type": "node", "id": 10610860015, "lat": 36.7577028, "lon": 3.3478644, "tags": {"amenity": "post_office", "brand:email": "clientalgerieposte@poste.dz", "currency:DZA": "yes", "description": "bureau de poste", "email": "clientalgerieposte@poste.dz", "name": "Ccp", "operator": "Alg\u00e9rie Poste", "operator:ar": "\u0628\u0631\u064a\u062f \u0627\u0644\u062c\u0632\u0627\u0626\u0631", "operator:fr": "Alg\u00e9rie Poste", "operator:website": "https://www.poste.dz/", "operator:wikidata": "Q2836029", "operator:wikipedia": "ar:\u0628\u0631\u064a\u062f \u0627\u0644\u062c\u0632\u0627\u0626\u0631", "operator:wikipedia:ar": "\u0628\u0631\u064a\u062f \u0627\u0644\u062c\u0632\u0627\u0626\u0631", "source": "FB: Algerie Mapper Team : (Superadlen)", "website": "https://www.poste.dz", "wikipedia": "fr:Alg\u00e9rie Poste"}}, {"type": "node", "id": 10718567309, "lat": 36.8101723, "lon": 3.2500513, "tags": {"amenity": "post_office", "brand:email": "clientalgerieposte@poste.dz", "currency:DZA": "yes", "description": "bureau de poste", "email": "clientalgerieposte@poste.dz", "name": "El Marssa", "operator": "Algerie Poste", "operator:ar": "\u0628\u0631\u064a\u062f \u0627\u0644\u062c\u0632\u0627\u0626\u0631", "operator:fr": "Algerie Poste", "operator:website": "https://www.poste.dz/", "operator:wikipedia": "ar:\u0628\u0631\u064a\u062f \u0627\u0644\u062c\u0632\u0627\u0626\u0631", "operator:wikipedia:ar": "\u0628\u0631\u064a\u062f \u0627\u0644\u062c\u0632\u0627\u0626\u0631", "source": "FB: Algerie Mapper Team : (Superadlen)", "website": "https://www.poste.dz", "wikipedia": "fr:Alg\u00e9rie Poste"}}, {"type": "node", "id": 10718582311, "lat": 36.8112865, "lon": 3.2502213, "tags": {"amenity": "post_office", "brand:email": "clientalgerieposte@poste.dz", "currency:DZA": "yes", "description": "bureau de poste", "email": "clientalgerieposte@poste.dz", "name": "El Marssa", "operator": "Algerie Poste", "operator:ar": "\u0628\u0631\u064a\u062f \u0627\u0644\u062c\u0632\u0627\u0626\u0631", "operator:fr": "Algerie Poste", "operator:website": "https://www.poste.dz/", "operator:wikipedia": "ar:\u0628\u0631\u064a\u062f \u0627\u0644\u062c\u0632\u0627\u0626\u0631", "operator:wikipedia:ar": "\u0628\u0631\u064a\u062f \u0627\u0644\u062c\u0632\u0627\u0626\u0631", "source": "FB: Algerie Mapper Team : (Superadlen)", "website": "https://www.poste.dz", "wikipedia": "fr:Alg\u00e9rie Poste"}}, {"type": "node", "id": 10886631491, "lat": 36.7122572, "lon": 3.1578154}, {"type": "node", "id": 10886661059, "lat": 36.7120046, "lon": 3.1576949}, {"type": "node", "id": 10886664756, "lat": 36.7120046, "lon": 3.1577995}, {"type": "node", "id": 10886667160, "lat": 36.7120433, "lon": 3.1578155}, {"type": "node", "id": 10886667495, "lat": 36.7122572, "lon": 3.1576947}, {"type": "node", "id": 10887300997, "lat": 36.6942739, "lon": 2.8268023}, {"type": "node", "id": 10887309773, "lat": 36.6943578, "lon": 2.8267479}, {"type": "node", "id": 10887310754, "lat": 36.6944238, "lon": 2.8269063}, {"type": "node", "id": 10887337604, "lat": 36.7153168, "lon": 2.8434998}, {"type": "node", "id": 10887337690, "lat": 36.7152615, "lon": 2.8435837}, {"type": "node", "id": 10887338282, "lat": 36.7151409, "lon": 2.84346}, {"type": "node", "id": 10887967450, "lat": 36.8032099, "lon": 2.9401265}, {"type": "node", "id": 10887967746, "lat": 36.8032857, "lon": 2.9401907}, {"type": "node", "id": 10887968225, "lat": 36.8033655, "lon": 2.9400436}, {"type": "node", "id": 10888129739, "lat": 36.7438788, "lon": 3.052336}, {"type": "node", "id": 10888129849, "lat": 36.7438194, "lon": 3.0523884}, {"type": "node", "id": 10888131527, "lat": 36.7437703, "lon": 3.0525504}, {"type": "node", "id": 10888131730, "lat": 36.743877, "lon": 3.052218}, {"type": "node", "id": 10888132607, "lat": 36.7440403, "lon": 3.0522142}, {"type": "node", "id": 10888133899, "lat": 36.7438187, "lon": 3.0523374}, {"type": "node", "id": 10888134392, "lat": 36.7437679, "lon": 3.0523896}, {"type": "node", "id": 10888135616, "lat": 36.7440037, "lon": 3.0523546}, {"type": "node", "id": 10888135778, "lat": 36.7438017, "lon": 3.0526382}, {"type": "node", "id": 10888136031, "lat": 36.7440424, "lon": 3.0523537}, {"type": "node", "id": 10888136320, "lat": 36.7438003, "lon": 3.0525497}, {"type": "node", "id": 10888510013, "lat": 36.5952172, "lon": 2.9938519}, {"type": "node", "id": 10888512798, "lat": 36.5952486, "lon": 2.9939906}, {"type": "node", "id": 10888515234, "lat": 36.5952607, "lon": 2.9940095}, {"type": "node", "id": 10888515419, "lat": 36.5951828, "lon": 2.9940874}, {"type": "node", "id": 10888520366, "lat": 36.5952839, "lon": 2.9939553}, {"type": "node", "id": 10889140344, "lat": 36.6115082, "lon": 3.1265241}, {"type": "node", "id": 10889142694, "lat": 36.6114138, "lon": 3.1265302}, {"type": "node", "id": 10889144474, "lat": 36.6114095, "lon": 3.1264272}, {"type": "node", "id": 10889445242, "lat": 36.7006264, "lon": 3.3010683}, {"type": "node", "id": 10889452887, "lat": 36.7005661, "lon": 3.3009498}, {"type": "node", "id": 10889457032, "lat": 36.7006688, "lon": 3.3008685}, {"type": "node", "id": 10889551899, "lat": 36.7227709, "lon": 3.1198932}, {"type": "node", "id": 10889567250, "lat": 36.7225065, "lon": 3.1199553}, {"type": "node", "id": 10889569016, "lat": 36.7225953, "lon": 3.1200391}, {"type": "node", "id": 10889569072, "lat": 36.722598, "lon": 3.1196882}, {"type": "node", "id": 10889569148, "lat": 36.7225867, "lon": 3.1200504}, {"type": "node", "id": 10889569748, "lat": 36.7225552, "lon": 3.1198913}, {"type": "node", "id": 10889569919, "lat": 36.7226292, "lon": 3.1200793}, {"type": "node", "id": 10889629489, "lat": 36.7192767, "lon": 3.0318025}, {"type": "node", "id": 10889629740, "lat": 36.7193909, "lon": 3.0318716}, {"type": "node", "id": 10889629995, "lat": 36.7192201, "lon": 3.031948}, {"type": "node", "id": 10889631889, "lat": 36.7193344, "lon": 3.0320171}, {"type": "node", "id": 10889642978, "lat": 36.7148882, "lon": 3.0480257}, {"type": "node", "id": 10889644337, "lat": 36.7147948, "lon": 3.0481004}, {"type": "node", "id": 10889644483, "lat": 36.7147937, "lon": 3.048028}, {"type": "node", "id": 10896918195, "lat": 36.6488377, "lon": 2.9754275}, {"type": "node", "id": 10896944971, "lat": 36.6490552, "lon": 2.975603}, {"type": "node", "id": 10896945318, "lat": 36.6491644, "lon": 2.9755592}, {"type": "node", "id": 10896946080, "lat": 36.648906, "lon": 2.9754672}, {"type": "node", "id": 10896947757, "lat": 36.6488534, "lon": 2.9754883}, {"type": "node", "id": 10896949257, "lat": 36.6488728, "lon": 2.9754135}, {"type": "node", "id": 10896950153, "lat": 36.6490207, "lon": 2.9754694}, {"type": "node", "id": 10896950338, "lat": 36.6489173, "lon": 2.9755109}, {"type": "node", "id": 10896950613, "lat": 36.6488596, "lon": 2.9753624}, {"type": "node", "id": 10907591465, "lat": 36.762559, "lon": 3.0438667}, {"type": "node", "id": 10907592020, "lat": 36.7626078, "lon": 3.0435824}, {"type": "node", "id": 10907592515, "lat": 36.7626279, "lon": 3.0435647}, {"type": "node", "id": 10907593160, "lat": 36.7624447, "lon": 3.0436641}, {"type": "node", "id": 10907594160, "lat": 36.7625846, "lon": 3.0435412}, {"type": "node", "id": 10907602196, "lat": 36.7205975, "lon": 3.0966302}, {"type": "node", "id": 10907666932, "lat": 36.7204078, "lon": 3.0965176}, {"type": "node", "id": 10907666981, "lat": 36.7203718, "lon": 3.0966305}, {"type": "node", "id": 10907668138, "lat": 36.720534, "lon": 3.0966401}, {"type": "node", "id": 10907668692, "lat": 36.7203768, "lon": 3.0966807}, {"type": "node", "id": 10907668725, "lat": 36.7205356, "lon": 3.096656}, {"type": "node", "id": 10907668879, "lat": 36.7204184, "lon": 3.0966232}, {"type": "node", "id": 10909473875, "lat": 36.7507971, "lon": 2.9817277}, {"type": "node", "id": 10909473893, "lat": 36.7507478, "lon": 2.9816015}, {"type": "node", "id": 10909475497, "lat": 36.750752, "lon": 2.98173}, {"type": "node", "id": 10964373705, "lat": 36.797743, "lon": 2.9875222, "tags": {"amenity": "post_office", "name:fr": "bureau de poste Sidi youcef"}}, {"type": "node", "id": 11034376176, "lat": 36.7799281, "lon": 2.9810551, "tags": {"amenity": "post_office", "name": "Ccp"}}, {"type": "node", "id": 11364631482, "lat": 36.7328093, "lon": 3.1869943}, {"type": "node", "id": 11364631483, "lat": 36.7327769, "lon": 3.1870025}, {"type": "node", "id": 11364631484, "lat": 36.7327885, "lon": 3.1869751}, {"type": "node", "id": 11364631485, "lat": 36.7328077, "lon": 3.1869819}, {"type": "node", "id": 11364631486, "lat": 36.7327751, "lon": 3.1869891}, {"type": "node", "id": 11382776971, "lat": 36.7326464, "lon": 3.1870454}, {"type": "node", "id": 11382776972, "lat": 36.7326443, "lon": 3.1870296}, {"type": "node", "id": 11382776973, "lat": 36.7328611, "lon": 3.1869965}, {"type": "node", "id": 11382776974, "lat": 36.7328594, "lon": 3.1869841}, {"type": "node", "id": 11382776975, "lat": 36.7328366, "lon": 3.1871718}, {"type": "node", "id": 11382776976, "lat": 36.7328188, "lon": 3.1872225}, {"type": "node", "id": 11382776979, "lat": 36.7327707, "lon": 3.1872324}, {"type": "node", "id": 12451072170, "lat": 36.7728921, "lon": 3.0597638}, {"type": "node", "id": 12451072174, "lat": 36.7728103, "lon": 3.0597152}, {"type": "node", "id": 12451072176, "lat": 36.773064, "lon": 3.0596149}, {"type": "node", "id": 12451072181, "lat": 36.7734386, "lon": 3.0597233}, {"type": "node", "id": 12451072182, "lat": 36.7734526, "lon": 3.0596616}, {"type": "node", "id": 12451072183, "lat": 36.7729262, "lon": 3.059593}, {"type": "node", "id": 12451072184, "lat": 36.7729579, "lon": 3.0596138}, {"type": "node", "id": 12451072185, "lat": 36.772995, "lon": 3.0596788}, {"type": "node", "id": 12451072187, "lat": 36.7733381, "lon": 3.0597459}, {"type": "node", "id": 12451072189, "lat": 36.7733903, "lon": 3.0596415}, {"type": "node", "id": 12451072190, "lat": 36.7733817, "lon": 3.059671}, {"type": "node", "id": 12451072191, "lat": 36.7733571, "lon": 3.0596646}, {"type": "node", "id": 12451072194, "lat": 36.7728669, "lon": 3.0597538}, {"type": "node", "id": 12451072197, "lat": 36.7728951, "lon": 3.0598105}, {"type": "node", "id": 12451093107, "lat": 36.7728537, "lon": 3.0597448}, {"type": "node", "id": 12451093117, "lat": 36.7732106, "lon": 3.0594882}, {"type": "node", "id": 12451093127, "lat": 36.772898, "lon": 3.0598551}, {"type": "node", "id": 12451093130, "lat": 36.7729911, "lon": 3.0593189, "tags": {"entrance": "main"}}, {"type": "node", "id": 12451093131, "lat": 36.7730688, "lon": 3.0592977, "tags": {"entrance": "main"}}, {"type": "node", "id": 12451093132, "lat": 36.773142, "lon": 3.0592779, "tags": {"entrance": "main"}}, {"type": "node", "id": 12451096796, "lat": 36.7729572, "lon": 3.0593281}, {"type": "node", "id": 12451096800, "lat": 36.7731457, "lon": 3.0598458}, {"type": "node", "id": 12451108524, "lat": 36.7733696, "lon": 3.0596679}, {"type": "node", "id": 12477029744, "lat": 36.7474614, "lon": 3.1898266, "tags": {"amenity": "post_office", "name": "EMS \u0628\u0631\u062c \u0627\u0644\u0643\u064a\u0641\u0627\u0646"}}, {"type": "node", "id": 12559285749, "lat": 36.7787178, "lon": 3.2488138, "tags": {"amenity": "post_office", "name:ar": "EMS \u0628\u0631\u062c \u0627\u0644\u0628\u062d\u0631\u064a"}}, {"type": "node", "id": 12778890774, "lat": 36.7583417, "lon": 3.002436, "tags": {"amenity": "post_office"}}, {"type": "node", "id": 12778890775, "lat": 36.7584019, "lon": 3.0032943, "tags": {"amenity": "post_office"}}, {"type": "node", "id": 12783733158, "lat": 36.7597972, "lon": 3.0067294, "tags": {"amenity": "post_office"}}, {"type": "node", "id": 12798376127, "lat": 36.7638716, "lon": 2.9238913, "tags": {"amenity": "post_office", "operator": "Alg\u00e9rie Poste", "operator:ar": "\u0628\u0631\u064a\u062f \u0627\u0644\u062c\u0632\u0627\u0626\u0631", "operator:fr": "Alg\u00e9rie Poste", "operator:wikidata": "Q2836029"}}, {"type": "way", "id": 51039121, "nodes": [650814098, 2964284360, 12451096796, 12451093130, 12451093131, 12451093132, 6612759913, 6612759914, 6612759915, 6612759916, 650814116, 650814121, 650814126, 12451072191, 12451108524, 12451072190, 12451072189, 12451072182, 12451072181, 12451072187, 2964318150, 2964318151, 650814139, 12451096800, 650814147, 12451093127, 12451072197, 12451072170, 650814151, 12451072194, 12451093107, 12451072174, 650814154, 6612759939, 6612759946, 6612759947, 650814098], "tags": {"source": "Algerie Mapper Team (Superadlen)"}}, {"type": "way", "id": 51039531, "nodes": [650816456, 650816461, 650816471, 12451093117, 650816477, 650816483, 12451072176, 650816494, 650816496, 12451072183, 12451072184, 12451072185, 650816501, 650816456], "tags": {"source": "Algerie Mapper Team (Superadlen)"}}, {"type": "way", "id": 108285315, "nodes": [1242689688, 1242689689, 1242689690, 1242689691, 1242689688], "tags": {"addr:city": "\u062c\u0633\u0631 \u0642\u0633\u0646\u0637\u064a\u0646\u0629", "addr:city:ar": "\u062c\u0633\u0631 \u0642\u0633\u0646\u0637\u064a\u0646\u0629", "amenity": "post_office", "brand": "Alg\u00e9rie Poste", "brand:ar": "\u0628\u0631\u064a\u062f \u0627\u0644\u062c\u0632\u0627\u0626\u0631", "brand:email": "clientalgerieposte@poste.dz", "brand:fr": "Alg\u00e9rie Poste", "brand:website": "https://www.poste.dz/", "brand:wikidata": "Q2836029", "brand:wikipedia": "fr:Alg\u00e9rie Poste", "building": "yes", "currency:DZA": "yes", "fax": "+21323923170", "name": "\u0645\u0643\u062a\u0628 \u0627\u0644\u0628\u0631\u064a\u062f \u0648\u0627\u0644\u0645\u0648\u0627\u0635\u0644\u0627\u062a", "name:ar": "\u0645\u0643\u062a\u0628 \u0627\u0644\u0628\u0631\u064a\u062f \u0648\u0627\u0644\u0645\u0648\u0627\u0635\u0644\u0627\u062a", "name:fr": "Bureau de poste et transport", "opening_hours": "08:30-12:30,13:30-16:30", "operator": "Alg\u00e9rie Poste", "operator:ar": "\u0628\u0631\u064a\u062f \u0627\u0644\u062c\u0632\u0627\u0626\u0631", "operator:fr": "Alg\u00e9rie Poste", "operator:website": "https://www.poste.dz/", "operator:wikidata": "Q2836029", "operator:wikipedia": "fr:Alg\u00e9rie Poste", "phone": "+21323923200"}}, {"type": "way", "id": 123049233, "nodes": [1373377575, 1373377567, 2657800385, 2657800311, 1373377572, 1373377578, 3004215053, 1373377575], "tags": {"addr:city": "\u062d\u0633\u064a\u0646 \u062f\u0627\u064a", "addr:city:ar": "\u062d\u0633\u064a\u0646 \u062f\u0627\u064a", "amenity": "post_office", "brand": "Alg\u00e9rie Poste", "brand:ar": "\u0628\u0631\u064a\u062f \u0627\u0644\u062c\u0632\u0627\u0626\u0631", "brand:email": "clientalgerieposte@poste.dz", "brand:fr": "Alg\u00e9rie Poste", "brand:website": "https://www.poste.dz/", "brand:wikidata": "Q2836029", "brand:wikipedia": "fr:Alg\u00e9rie Poste", "building": "yes", "currency:DZA": "yes", "fax": "+21323923170", "name": "\u0645\u0631\u0643\u0632 \u0627\u0644\u0628\u0631\u064a\u062f \u062d\u0633\u064a\u0646 \u062f\u0627\u064a", "name:ar": "\u0645\u0631\u0643\u0632 \u0627\u0644\u0628\u0631\u064a\u062f \u062d\u0633\u064a\u0646 \u062f\u0627\u064a", "name:fr": "Bureau de Poste Hussein Dey", "opening_hours": "08:30-12:30,13:30-16:30", "operator": "Alg\u00e9rie Poste", "operator:ar": "\u0628\u0631\u064a\u062f \u0627\u0644\u062c\u0632\u0627\u0626\u0631", "operator:fr": "Alg\u00e9rie Poste", "operator:website": "https://www.poste.dz/", "operator:wikidata": "Q2836029", "operator:wikipedia": "fr:Alg\u00e9rie Poste", "phone": "+21323923200"}}, {"type": "way", "id": 251247170, "nodes": [2574949087, 2574949119, 2574949114, 2574948775, 2574948849, 2574949118, 2574949031, 2574948998, 2574948836, 2574948917, 2574948904, 2574948764, 2574949087], "tags": {"amenity": "post_office", "brand": "Alg\u00e9rie Poste", "brand:ar": "\u0628\u0631\u064a\u062f \u0627\u0644\u062c\u0632\u0627\u0626\u0631", "brand:email": "clientalgerieposte@poste.dz", "brand:fr": "Alg\u00e9rie Poste", "brand:website": "https://www.poste.dz/", "brand:wikidata": "Q2836029", "brand:wikipedia": "fr:Alg\u00e9rie Poste", "building": "yes", "currency:DZA": "yes", "fax": "+21323923170", "language:ar": "main", "name": "Bureau de poste La Montagne", "opening_hours": "08:30-12:30,13:30-16:30", "operator": "Alg\u00e9rie Poste", "operator:ar": "\u0628\u0631\u064a\u062f \u0627\u0644\u062c\u0632\u0627\u0626\u0631", "operator:fr": "Alg\u00e9rie Poste", "operator:website": "https://www.poste.dz/", "operator:wikidata": "Q2836029", "operator:wikipedia": "fr:Alg\u00e9rie Poste"}}, {"type": "way", "id": 253692185, "nodes": [2595847131, 2595847132, 2595847133, 2595847134, 2595847131], "tags": {"amenity": "post_office", "brand": "Alg\u00e9rie Poste", "brand:ar": "\u0628\u0631\u064a\u062f \u0627\u0644\u062c\u0632\u0627\u0626\u0631", "brand:email": "clientalgerieposte@poste.dz", "brand:fr": "Alg\u00e9rie Poste", "brand:website": "https://www.poste.dz/", "brand:wikidata": "Q2836029", "brand:wikipedia": "fr:Alg\u00e9rie Poste", "building": "yes", "currency:DZA": "yes", "fax": "+21323923170", "language:ar": "main", "name": "Bureau de poste de Reghaia", "name:ar": "\u0645\u0643\u062a\u0628 \u0627\u0644\u0628\u0631\u064a\u062f \u0648\u0627\u0644\u0645\u0648\u0627\u0635\u0644\u0627\u062a", "opening_hours": "08:30-12:30,13:30-16:30", "operator": "Alg\u00e9rie Poste", "operator:ar": "\u0628\u0631\u064a\u062f \u0627\u0644\u062c\u0632\u0627\u0626\u0631", "operator:fr": "Alg\u00e9rie Poste", "operator:website": "https://www.poste.dz/", "operator:wikidata": "Q2836029", "operator:wikipedia": "fr:Alg\u00e9rie Poste"}}, {"type": "way", "id": 261517688, "nodes": [2671232714, 2671232715, 2671232716, 2671232717, 2676982650, 2671232719, 2671232714], "tags": {"addr:city": "Bouzareah", "addr:housenumber": "1", "addr:postcode": "16032", "addr:street": "Rue Lamameri Ali", "addr:unit": "R1", "amenity": "post_office", "brand": "Alg\u00e9rie Poste", "brand:ar": "\u0628\u0631\u064a\u062f \u0627\u0644\u062c\u0632\u0627\u0626\u0631", "brand:email": "clientalgerieposte@poste.dz", "brand:fr": "Alg\u00e9rie Poste", "brand:website": "https://www.poste.dz/", "brand:wikidata": "Q2836029", "brand:wikipedia": "fr:Alg\u00e9rie Poste", "building": "yes", "currency:DZA": "yes", "fax": "+21323923170", "language:ar": "main", "name": "Bureau de poste Bouzareah", "opening_hours": "08:30-12:30,13:30-16:30", "operator": "Alg\u00e9rie Poste", "operator:ar": "\u0628\u0631\u064a\u062f \u0627\u0644\u062c\u0632\u0627\u0626\u0631", "operator:fr": "Alg\u00e9rie Poste", "operator:website": "https://www.poste.dz/", "operator:wikidata": "Q2836029", "operator:wikipedia": "fr:Alg\u00e9rie Poste"}}, {"type": "way", "id": 263020808, "nodes": [2686551901, 2686551904, 2686551907, 2686551899, 2686551901], "tags": {"addr:city": "\u0627\u0644\u0623\u0628\u064a\u0627\u0631", "addr:city:ar": "\u0627\u0644\u0623\u0628\u064a\u0627\u0631", "addr:housenumber": "1", "addr:postcode": "16003", "addr:street": "\u0634\u0627\u0631\u0639 \u0645\u0627\u0644\u0643 \u0628\u0646 \u0639\u0631\u0628\u064a\u0629", "addr:street:ar": "\u0634\u0627\u0631\u0639 \u0645\u0627\u0644\u0643 \u0628\u0646 \u0639\u0631\u0628\u064a\u0629", "amenity": "post_office", "brand": "Alg\u00e9rie Poste", "brand:ar": "\u0628\u0631\u064a\u062f \u0627\u0644\u062c\u0632\u0627\u0626\u0631", "brand:email": "clientalgerieposte@poste.dz", "brand:fr": "Alg\u00e9rie Poste", "brand:website": "https://www.poste.dz/", "brand:wikidata": "Q2836029", "brand:wikipedia": "fr:Alg\u00e9rie Poste", "building": "yes", "currency:DZA": "yes", "fax": "+21323923170", "name": "\u0627\u0644\u0623\u0628\u064a\u0627\u0631", "name:ar": "\u0627\u0644\u0623\u0628\u064a\u0627\u0631", "name:fr": "El Biar", "opening_hours": "08:30-12:30,13:30-16:30", "operator": "Alg\u00e9rie Poste", "operator:ar": "\u0628\u0631\u064a\u062f \u0627\u0644\u062c\u0632\u0627\u0626\u0631", "operator:fr": "Alg\u00e9rie Poste", "operator:website": "https://www.poste.dz/", "operator:wikidata": "Q2836029", "operator:wikipedia": "fr:Alg\u00e9rie Poste", "phone": "+21323923200"}}, {"type": "way", "id": 263641770, "nodes": [2692646270, 2671295722, 2692646274, 2692646277, 3085887356, 3085887380, 2692646280, 2692646270], "tags": {"addr:city": "Ben Aknoun", "addr:housenumber": "33", "addr:postcode": "16028", "addr:street": "Avenue Khalef Mustapha", "amenity": "post_office", "brand": "Alg\u00e9rie Poste", "brand:ar": "\u0628\u0631\u064a\u062f \u0627\u0644\u062c\u0632\u0627\u0626\u0631", "brand:email": "clientalgerieposte@poste.dz", "brand:fr": "Alg\u00e9rie Poste", "brand:website": "https://www.poste.dz/", "brand:wikidata": "Q2836029", "brand:wikipedia": "fr:Alg\u00e9rie Poste", "building": "yes", "currency:DZA": "yes", "fax": "+21323923170", "language:ar": "main", "name": "Bureau de poste de Ben Aknoun", "name:ar": "\u0645\u0643\u062a\u0628 \u0628\u0631\u064a\u062f \u0628\u0646 \u0639\u0643\u0646\u0648\u0646", "opening_hours": "08:30-12:30,13:30-16:30", "operator": "Alg\u00e9rie Poste", "operator:ar": "\u0628\u0631\u064a\u062f \u0627\u0644\u062c\u0632\u0627\u0626\u0631", "operator:fr": "Alg\u00e9rie Poste", "operator:website": "https://www.poste.dz/", "operator:wikidata": "Q2836029", "operator:wikipedia": "fr:Alg\u00e9rie Poste", "phone": "+21323923200"}}, {"type": "way", "id": 264945778, "nodes": [2705952279, 2705952329, 2705952280, 2705952281, 2705952282, 2705952279], "tags": {"amenity": "post_office", "brand": "Alg\u00e9rie Poste", "brand:ar": "\u0628\u0631\u064a\u062f \u0627\u0644\u062c\u0632\u0627\u0626\u0631", "brand:email": "clientalgerieposte@poste.dz", "brand:fr": "Alg\u00e9rie Poste", "brand:website": "https://www.poste.dz/", "brand:wikidata": "Q2836029", "brand:wikipedia": "fr:Alg\u00e9rie Poste", "building": "yes", "currency:DZA": "yes", "fax": "+21323923170", "language:ar": "main", "name": "Bureau de poste Souidania", "opening_hours": "08:30-12:30,13:30-16:30", "operator": "Alg\u00e9rie Poste", "operator:ar": "\u0628\u0631\u064a\u062f \u0627\u0644\u062c\u0632\u0627\u0626\u0631", "operator:fr": "Alg\u00e9rie Poste", "operator:website": "https://www.poste.dz/", "operator:wikidata": "Q2836029", "operator:wikipedia": "fr:Alg\u00e9rie Poste", "phone": "+21323923200"}}, {"type": "way", "id": 265399237, "nodes": [2710700982, 2710700996, 2956012834, 5853890280, 2710701006, 2710700982], "tags": {"amenity": "post_office", "brand": "Alg\u00e9rie Poste", "brand:ar": "\u0628\u0631\u064a\u062f \u0627\u0644\u062c\u0632\u0627\u0626\u0631", "brand:email": "clientalgerieposte@poste.dz", "brand:fr": "Alg\u00e9rie Poste", "brand:website": "https://www.poste.dz/", "brand:wikidata": "Q2836029", "brand:wikipedia": "fr:Alg\u00e9rie Poste", "building": "yes", "currency:DZA": "yes", "fax": "+21323923170", "language:ar": "main", "name": "Bureau de poste", "name:ar": "\u0645\u0643\u062a\u0628 \u0628\u0631\u064a\u062f", "opening_hours": "08:30-12:30,13:30-16:30", "operator": "Alg\u00e9rie Poste", "operator:ar": "\u0628\u0631\u064a\u062f \u0627\u0644\u062c\u0632\u0627\u0626\u0631", "operator:fr": "Alg\u00e9rie Poste", "operator:website": "https://www.poste.dz/", "operator:wikidata": "Q2836029", "operator:wikipedia": "fr:Alg\u00e9rie Poste", "phone": "+21323923200"}}, {"type": "way", "id": 266135899, "nodes": [2717157187, 2717157189, 2717157191, 2717157193, 2717157200, 2717157195, 2671295709, 2717157203, 2717157212, 2717157187], "tags": {"amenity": "post_office", "brand": "Alg\u00e9rie Poste", "brand:ar": "\u0628\u0631\u064a\u062f \u0627\u0644\u062c\u0632\u0627\u0626\u0631", "brand:email": "clientalgerieposte@poste.dz", "brand:fr": "Alg\u00e9rie Poste", "brand:website": "https://www.poste.dz/", "brand:wikidata": "Q2836029", "brand:wikipedia": "fr:Alg\u00e9rie Poste", "currency:DZA": "yes", "fax": "+21323923170", "language:ar": "main", "name": "La Poste Chevalley", "name:ar": "\u0645\u0643\u062a\u0628 \u0627\u0644\u0628\u0631\u064a\u062f \u0648\u0627\u0644\u0645\u0648\u0627\u0635\u0644\u0627\u062a", "name:fr": "Bureau de Poste", "opening_hours": "08:30-12:30,13:30-16:30", "operator": "Alg\u00e9rie Poste", "operator:ar": "\u0628\u0631\u064a\u062f \u0627\u0644\u062c\u0632\u0627\u0626\u0631", "operator:fr": "Alg\u00e9rie Poste", "operator:website": "https://www.poste.dz/", "operator:wikidata": "Q2836029", "operator:wikipedia": "fr:Alg\u00e9rie Poste", "phone": "+21323923200"}}, {"type": "way", "id": 291576745, "nodes": [2950400111, 2950400112, 2950400110, 2950400113, 5988884549, 2950400111], "tags": {"addr:city": "\u0648\u0627\u062f\u064a \u0627\u0644\u0633\u0645\u0627\u0631", "amenity": "post_office", "brand": "Alg\u00e9rie Poste", "brand:ar": "\u0628\u0631\u064a\u062f \u0627\u0644\u062c\u0632\u0627\u0626\u0631", "brand:email": "clientalgerieposte@poste.dz", "brand:fr": "Alg\u00e9rie Poste", "brand:website": "https://www.poste.dz", "brand:wikidata": "Q2836029", "brand:wikipedia": "fr:Alg\u00e9rie Poste", "currency:DZA": "yes", "fax": "+21323923170", "language:ar": "main", "name": "Bureau de poste Oued-Smar \u0645\u0643\u062a\u0628 \u0627\u0644\u0628\u0631\u064a\u062f \u0648\u0627\u062f\u064a \u0627\u0644\u0633\u0645\u0627\u0631", "name:ar": "\u0645\u0643\u062a\u0628 \u0627\u0644\u0628\u0631\u064a\u062f \u0648\u0627\u062f\u064a \u0627\u0644\u0633\u0645\u0627\u0631", "name:fr": "Bureau de poste Oued-Smar", "opening_hours": "08:30-12:30,13:30-16:30", "operator": "Alg\u00e9rie Poste", "operator:ar": "\u0628\u0631\u064a\u062f \u0627\u0644\u062c\u0632\u0627\u0626\u0631", "operator:email": "clientalgerieposte@poste.dz", "operator:fr": "Alg\u00e9rie Poste", "operator:website": "https://www.poste.dz/", "operator:wikidata": "Q2836029", "operator:wikipedia": "fr:Alg\u00e9rie Poste", "phone": "+21323923200", "website": "https://www.poste.dz"}}, {"type": "way", "id": 296065558, "nodes": [2998170590, 2998170554, 2998168892, 2998170582, 2998170590], "tags": {"amenity": "post_office", "brand": "Alg\u00e9rie Poste", "brand:ar": "\u0628\u0631\u064a\u062f \u0627\u0644\u062c\u0632\u0627\u0626\u0631", "brand:email": "clientalgerieposte@poste.dz", "brand:fr": "Alg\u00e9rie Poste", "brand:website": "https://www.poste.dz/", "brand:wikidata": "Q2836029", "brand:wikipedia": "fr:Alg\u00e9rie Poste", "building": "yes", "currency:DZA": "yes", "fax": "+21323923170", "language:ar": "main", "name": "Bureau de poste d'Air de France", "opening_hours": "08:30-12:30,13:30-16:30", "operator": "Alg\u00e9rie Poste", "operator:ar": "\u0628\u0631\u064a\u062f \u0627\u0644\u062c\u0632\u0627\u0626\u0631", "operator:fr": "Alg\u00e9rie Poste", "operator:website": "https://www.poste.dz/", "operator:wikidata": "Q2836029", "operator:wikipedia": "fr:Alg\u00e9rie Poste"}}, {"type": "way", "id": 297827293, "nodes": [3017325204, 3017325203, 3017325202, 3017325205, 3017325204], "tags": {"amenity": "post_office", "brand": "Alg\u00e9rie Poste", "brand:ar": "\u0628\u0631\u064a\u062f \u0627\u0644\u062c\u0632\u0627\u0626\u0631", "brand:email": "clientalgerieposte@poste.dz", "brand:fr": "Alg\u00e9rie Poste", "brand:website": "https://www.poste.dz/", "brand:wikidata": "Q2836029", "brand:wikipedia": "fr:Alg\u00e9rie Poste", "building": "yes", "currency:DZA": "yes", "fax": "+21323923170", "language:ar": "main", "name": "Bureau de poste de Ch\u00e9raga", "name:fr": "Bureau de poste de Ch\u00e9raga", "opening_hours": "08:30-12:30,13:30-16:30", "operator": "Alg\u00e9rie Poste", "operator:ar": "\u0628\u0631\u064a\u062f \u0627\u0644\u062c\u0632\u0627\u0626\u0631", "operator:fr": "Alg\u00e9rie Poste", "operator:website": "https://www.poste.dz/", "operator:wikidata": "Q2836029", "operator:wikipedia": "fr:Alg\u00e9rie Poste", "phone": "+21323923200"}}, {"type": "way", "id": 310516520, "nodes": [3159370452, 3159370451, 3159370450, 3159370449, 3159370448, 3159370446, 3159370447, 3159370452], "tags": {"amenity": "post_office", "brand": "Alg\u00e9rie Poste", "brand:ar": "\u0628\u0631\u064a\u062f \u0627\u0644\u062c\u0632\u0627\u0626\u0631", "brand:email": "clientalgerieposte@poste.dz", "brand:fr": "Alg\u00e9rie Poste", "brand:website": "https://www.poste.dz/", "brand:wikidata": "Q2836029", "brand:wikipedia": "fr:Alg\u00e9rie Poste", "building": "yes", "currency:DZA": "yes", "fax": "+21323923170", "language:ar": "main", "name": "Algerie Poste Draria", "opening_hours": "08:30-12:30,13:30-16:30", "operator": "Alg\u00e9rie Poste", "operator:ar": "\u0628\u0631\u064a\u062f \u0627\u0644\u062c\u0632\u0627\u0626\u0631", "operator:fr": "Alg\u00e9rie Poste", "operator:website": "https://www.poste.dz/", "operator:wikidata": "Q2836029", "operator:wikipedia": "fr:Alg\u00e9rie Poste", "phone": "+21323923200", "ref": "16050"}}, {"type": "way", "id": 318858830, "nodes": [3252524725, 3252524726, 3252524727, 3252524728, 3252524725], "tags": {"addr:city": "\u0627\u0644\u0631\u0648\u064a\u0628\u0629", "addr:city:ar": "\u0627\u0644\u0631\u0648\u064a\u0628\u0629", "addr:housenumber": "8", "addr:postcode": "16006", "addr:street": "\u0634\u0627\u0631\u0639 \u0645\u062d\u0645\u062f \u0641\u0644\u0627\u062d", "addr:street:ar": "\u0634\u0627\u0631\u0639 \u0645\u062d\u0645\u062f \u0641\u0644\u0627\u062d", "amenity": "post_office", "brand": "Alg\u00e9rie Poste", "brand:ar": "\u0628\u0631\u064a\u062f \u0627\u0644\u062c\u0632\u0627\u0626\u0631", "brand:email": "clientalgerieposte@poste.dz", "brand:fr": "Alg\u00e9rie Poste", "brand:website": "https://www.poste.dz/", "brand:wikidata": "Q2836029", "brand:wikipedia": "fr:Alg\u00e9rie Poste", "building": "yes", "currency:DZA": "yes", "fax": "+21323923170", "name": "\u0645\u0643\u062a\u0628 \u0627\u0644\u0628\u0631\u064a\u062f \u0627\u0644\u0631\u0648\u064a\u0628\u0629", "name:ar": "\u0645\u0643\u062a\u0628 \u0627\u0644\u0628\u0631\u064a\u062f \u0627\u0644\u0631\u0648\u064a\u0628\u0629", "name:fr": "Bureau de Poste de Rouiba", "opening_hours": "08:30-12:30,13:30-16:30", "operator": "Alg\u00e9rie Poste", "operator:ar": "\u0628\u0631\u064a\u062f \u0627\u0644\u062c\u0632\u0627\u0626\u0631", "operator:fr": "Alg\u00e9rie Poste", "operator:website": "https://www.poste.dz/", "operator:wikidata": "Q2836029", "operator:wikipedia": "fr:Alg\u00e9rie Poste", "phone": "+21323923200"}}, {"type": "way", "id": 318954651, "nodes": [3253561256, 3253562370, 3253562365, 3253561220, 3253561256], "tags": {"addr:city": "Dar El Beida", "addr:housenumber": "101", "addr:postcode": "16033", "addr:street": "Boulevard Mouloud KHEMISTI", "amenity": "post_office", "brand": "Alg\u00e9rie Poste", "brand:ar": "\u0628\u0631\u064a\u062f \u0627\u0644\u062c\u0632\u0627\u0626\u0631", "brand:email": "clientalgerieposte@poste.dz", "brand:fr": "Alg\u00e9rie Poste", "brand:website": "https://www.poste.dz/", "brand:wikidata": "Q2836029", "brand:wikipedia": "fr:Alg\u00e9rie Poste", "building": "public", "currency:DZA": "yes", "fax": "+21323923170", "language:ar": "main", "name": "Bureau de poste Dar El Beida", "opening_hours": "08:30-12:30,13:30-16:30", "operator": "Alg\u00e9rie Poste", "operator:ar": "\u0628\u0631\u064a\u062f \u0627\u0644\u062c\u0632\u0627\u0626\u0631", "operator:fr": "Alg\u00e9rie Poste", "operator:website": "https://www.poste.dz/", "operator:wikidata": "Q2836029", "operator:wikipedia": "fr:Alg\u00e9rie Poste", "phone": "+21323923200"}}, {"type": "way", "id": 345729575, "nodes": [3523754656, 3523754657, 3523754658, 3523754659, 3523754656], "tags": {"amenity": "post_office", "brand": "Alg\u00e9rie Poste", "brand:ar": "\u0628\u0631\u064a\u062f \u0627\u0644\u062c\u0632\u0627\u0626\u0631", "brand:email": "clientalgerieposte@poste.dz", "brand:fr": "Alg\u00e9rie Poste", "brand:website": "https://www.poste.dz/", "brand:wikidata": "Q2836029", "brand:wikipedia": "fr:Alg\u00e9rie Poste", "building": "yes", "currency:DZA": "yes", "fax": "+21323923170", "language:ar": "main", "name": "Bureau de poste de Ain Taya", "opening_hours": "08:30-12:30,13:30-16:30", "operator": "Alg\u00e9rie Poste", "operator:ar": "\u0628\u0631\u064a\u062f \u0627\u0644\u062c\u0632\u0627\u0626\u0631", "operator:fr": "Alg\u00e9rie Poste", "operator:website": "https://www.poste.dz/", "operator:wikidata": "Q2836029", "operator:wikipedia": "fr:Alg\u00e9rie Poste"}}, {"type": "way", "id": 346327217, "nodes": [3528659388, 3528659389, 3528659390, 3528659391, 3528659388], "tags": {"addr:city": "El Madania", "addr:housenumber": "1", "addr:place": "EL MADANIA", "addr:postcode": "16015", "addr:street": "Rue Fr\u00e8res Boukhari", "amenity": "post_office", "brand": "Alg\u00e9rie Poste", "brand:ar": "\u0628\u0631\u064a\u062f \u0627\u0644\u062c\u0632\u0627\u0626\u0631", "brand:email": "clientalgerieposte@poste.dz", "brand:fr": "Alg\u00e9rie Poste", "brand:website": "https://www.poste.dz/", "brand:wikidata": "Q2836029", "brand:wikipedia": "fr:Alg\u00e9rie Poste", "building": "yes", "currency:DZA": "yes", "fax": "+21323923170", "language:ar": "main", "name": "EL MADANIA", "name:ar": "\u0645\u0643\u062a\u0628 \u0627\u0644\u0628\u0631\u064a\u062f", "opening_hours": "08:30-12:30,13:30-16:30", "operator": "Alg\u00e9rie Poste", "operator:ar": "\u0628\u0631\u064a\u062f \u0627\u0644\u062c\u0632\u0627\u0626\u0631", "operator:fr": "Alg\u00e9rie Poste", "operator:website": "https://www.poste.dz/", "operator:wikidata": "Q2836029", "operator:wikipedia": "fr:Alg\u00e9rie Poste", "phone": "+21323923200", "ref": "RHC"}}, {"type": "way", "id": 352099850, "nodes": [3578667123, 3578667119, 11382776971, 11382776972, 11364631483, 11364631486, 11364631484, 11364631485, 11364631482, 11382776974, 11382776973, 3578667181, 3578667124, 11382776975, 3578667171, 11382776976, 11382776979, 3578667123], "tags": {"amenity": "post_office", "brand": "Alg\u00e9rie Poste", "brand:ar": "\u0628\u0631\u064a\u062f \u0627\u0644\u062c\u0632\u0627\u0626\u0631", "brand:email": "clientalgerieposte@poste.dz", "brand:fr": "Alg\u00e9rie Poste", "brand:website": "https://www.poste.dz/", "brand:wikidata": "Q2836029", "brand:wikipedia": "fr:Alg\u00e9rie Poste", "building": "yes", "currency:DZA": "yes", "fax": "+21323923170", "language:ar": "main", "name": "bureau de poste Sorecal", "opening_hours": "08:30-12:30,13:30-16:30", "operator": "Alg\u00e9rie Poste", "operator:ar": "\u0628\u0631\u064a\u062f \u0627\u0644\u062c\u0632\u0627\u0626\u0631", "operator:fr": "Alg\u00e9rie Poste", "operator:website": "https://www.poste.dz/", "operator:wikidata": "Q2836029", "operator:wikipedia": "fr:Alg\u00e9rie Poste", "phone": "+21323923200"}}, {"type": "way", "id": 358554865, "nodes": [3634599022, 3634599023, 3634599024, 3634599025, 3634599022], "tags": {"amenity": "post_office", "brand": "Alg\u00e9rie Poste", "brand:ar": "\u0628\u0631\u064a\u062f \u0627\u0644\u062c\u0632\u0627\u0626\u0631", "brand:email": "clientalgerieposte@poste.dz", "brand:fr": "Alg\u00e9rie Poste", "brand:website": "https://www.poste.dz/", "brand:wikidata": "Q2836029", "brand:wikipedia": "fr:Alg\u00e9rie Poste", "building": "yes", "currency:DZA": "yes", "email": "clientalgerieposte@poste.dz", "fax": "+21323923170", "language:ar": "main", "language:fr": "yes", "name": "Bureau de poste El Harrach", "name:fr": "Bureau de poste El Harrach", "opening_hours": "08:30-12:30,13:30-16:30", "operator": "Alg\u00e9rie Poste", "operator:ar": "\u0628\u0631\u064a\u062f \u0627\u0644\u062c\u0632\u0627\u0626\u0631", "operator:fr": "Alg\u00e9rie Poste", "operator:website": "https://www.poste.dz/", "operator:wikidata": "Q2836029", "operator:wikipedia": "fr:Alg\u00e9rie Poste", "website": "https://www.poste.dz/", "wikipedia": "fr:Alg\u00e9rie Poste"}}, {"type": "way", "id": 362770632, "nodes": [3670292992, 3670292993, 3670292994, 3670292995, 3670292992], "tags": {"amenity": "post_office", "brand": "Alg\u00e9rie Poste", "brand:ar": "\u0628\u0631\u064a\u062f \u0627\u0644\u062c\u0632\u0627\u0626\u0631", "brand:email": "clientalgerieposte@poste.dz", "brand:fr": "Alg\u00e9rie Poste", "brand:website": "https://www.poste.dz/", "brand:wikidata": "Q2836029", "brand:wikipedia": "fr:Alg\u00e9rie Poste", "building": "yes", "currency:DZA": "yes", "fax": "+21323923170", "language:ar": "main", "name": "Bureau de poste", "name:ar": "\u0645\u0643\u062a\u0628 \u0627\u0644\u0628\u0631\u064a\u062f \u0648\u0627\u0644\u0645\u0648\u0627\u0635\u0644\u0627\u062a", "opening_hours": "08:30-12:30,13:30-16:30", "operator": "Alg\u00e9rie Poste", "operator:ar": "\u0628\u0631\u064a\u062f \u0627\u0644\u062c\u0632\u0627\u0626\u0631", "operator:fr": "Alg\u00e9rie Poste", "operator:website": "https://www.poste.dz/", "operator:wikidata": "Q2836029", "operator:wikipedia": "fr:Alg\u00e9rie Poste"}}, {"type": "way", "id": 366098667, "nodes": [3700873921, 3700874128, 3700874132, 3700873924, 3700873921], "tags": {"amenity": "post_office", "brand": "Alg\u00e9rie Poste", "brand:ar": "\u0628\u0631\u064a\u062f \u0627\u0644\u062c\u0632\u0627\u0626\u0631", "brand:email": "clientalgerieposte@poste.dz", "brand:fr": "Alg\u00e9rie Poste", "brand:website": "https://www.poste.dz/", "brand:wikidata": "Q2836029", "brand:wikipedia": "fr:Alg\u00e9rie Poste", "building": "yes", "currency:DZA": "yes", "fax": "+21323923170", "language:ar": "main", "name": "Algerie Poste Draria 2", "opening_hours": "08:30-12:30,13:30-16:30", "operator": "Alg\u00e9rie Poste", "operator:ar": "\u0628\u0631\u064a\u062f \u0627\u0644\u062c\u0632\u0627\u0626\u0631", "operator:fr": "Alg\u00e9rie Poste", "operator:website": "https://www.poste.dz/", "operator:wikidata": "Q2836029", "operator:wikipedia": "fr:Alg\u00e9rie Poste", "phone": "+21323923200", "ref": "16186"}}, {"type": "way", "id": 371925061, "nodes": [3754691217, 3754691218, 3754691219, 3754691220, 3754691217], "tags": {"amenity": "post_office", "brand": "Alg\u00e9rie Poste", "brand:ar": "\u0628\u0631\u064a\u062f \u0627\u0644\u062c\u0632\u0627\u0626\u0631", "brand:email": "clientalgerieposte@poste.dz", "brand:fr": "Alg\u00e9rie Poste", "brand:website": "https://www.poste.dz/", "brand:wikidata": "Q2836029", "brand:wikipedia": "fr:Alg\u00e9rie Poste", "building": "public", "currency:DZA": "yes", "fax": "+21323923170", "language:ar": "main", "name": "Alg\u00e9rie Poste Bir Mourad Ra\u00efs", "opening_hours": "08:30-12:30,13:30-16:30", "operator": "Alg\u00e9rie Poste", "operator:ar": "\u0628\u0631\u064a\u062f \u0627\u0644\u062c\u0632\u0627\u0626\u0631", "operator:fr": "Alg\u00e9rie Poste", "operator:website": "https://www.poste.dz/", "operator:wikidata": "Q2836029", "operator:wikipedia": "fr:Alg\u00e9rie Poste", "phone": "+21323923200"}}, {"type": "way", "id": 378014536, "nodes": [3814276526, 3814276527, 3814276528, 3814276529, 3814276530, 3814276531, 3814276532, 3814276533, 3814276526], "tags": {"amenity": "post_office", "brand": "Alg\u00e9rie Poste", "brand:ar": "\u0628\u0631\u064a\u062f \u0627\u0644\u062c\u0632\u0627\u0626\u0631", "brand:email": "clientalgerieposte@poste.dz", "brand:fr": "Alg\u00e9rie Poste", "brand:website": "https://www.poste.dz/", "brand:wikidata": "Q2836029", "brand:wikipedia": "fr:Alg\u00e9rie Poste", "building": "public", "currency:DZA": "yes", "fax": "+21323923170", "language:ar": "main", "name": "Bureau de Poste les Anassers", "opening_hours": "08:30-12:30,13:30-16:30", "operator": "Alg\u00e9rie Poste", "operator:ar": "\u0628\u0631\u064a\u062f \u0627\u0644\u062c\u0632\u0627\u0626\u0631", "operator:fr": "Alg\u00e9rie Poste", "operator:website": "https://www.poste.dz/", "operator:wikidata": "Q2836029", "operator:wikipedia": "fr:Alg\u00e9rie Poste", "phone": "+21323923200"}}, {"type": "way", "id": 395745601, "nodes": [3985752592, 3985752596, 3985752646, 3985752678, 3985752691, 3985752700, 3985752701, 3985752703, 3985752702, 3985752698, 3985752699, 3985752696, 3985752693, 3985752673, 3985752660, 3985752653, 3985752621, 3985752609, 3985752594, 3985752589, 3985752592], "tags": {"addr:city": "\u0627\u0644\u0633\u062d\u0627\u0648\u0644\u0629", "addr:city:ar": "\u0627\u0644\u0633\u062d\u0627\u0648\u0644\u0629", "amenity": "post_office", "brand": "Alg\u00e9rie Poste", "brand:ar": "\u0628\u0631\u064a\u062f \u0627\u0644\u062c\u0632\u0627\u0626\u0631", "brand:email": "clientalgerieposte@poste.dz", "brand:fr": "Alg\u00e9rie Poste", "brand:website": "https://www.poste.dz/", "brand:wikidata": "Q2836029", "brand:wikipedia": "fr:Alg\u00e9rie Poste", "currency:DZA": "yes", "fax": "+21323923170", "name": "\u0645\u0631\u0643\u0632 \u0627\u0644\u0628\u0631\u064a\u062f \u0627\u0644\u0633\u062d\u0627\u0648\u0644\u0629", "name:ar": "\u0645\u0631\u0643\u0632 \u0627\u0644\u0628\u0631\u064a\u062f \u0627\u0644\u0633\u062d\u0627\u0648\u0644\u0629", "opening_hours": "08:30-12:30,13:30-16:30", "operator": "Alg\u00e9rie Poste", "operator:ar": "\u0628\u0631\u064a\u062f \u0627\u0644\u062c\u0632\u0627\u0626\u0631", "operator:fr": "Alg\u00e9rie Poste", "operator:website": "https://www.poste.dz/", "operator:wikidata": "Q2836029", "operator:wikipedia": "fr:Alg\u00e9rie Poste", "phone": "+21323923200"}}, {"type": "way", "id": 397530477, "nodes": [4003196070, 4003196071, 4003196072, 4003196073, 4003196070], "tags": {"addr:city": "ALGER", "addr:housenumber": "01", "addr:place": "BIR MOURAD RAIS", "addr:postcode": "16013", "addr:street": "PLACE DE LA REPUBLIQUE", "amenity": "post_office", "brand": "Alg\u00e9rie Poste", "brand:ar": "\u0628\u0631\u064a\u062f \u0627\u0644\u062c\u0632\u0627\u0626\u0631", "brand:email": "clientalgerieposte@poste.dz", "brand:fr": "Alg\u00e9rie Poste", "brand:website": "https://www.poste.dz/", "brand:wikidata": "Q2836029", "brand:wikipedia": "fr:Alg\u00e9rie Poste", "building": "yes", "currency:DZA": "yes", "fax": "+21323923170", "language:ar": "main", "name": "BIR MOURAD RAIS", "opening_hours": "08:30-12:30,13:30-16:30", "operator": "Alg\u00e9rie Poste", "operator:ar": "\u0628\u0631\u064a\u062f \u0627\u0644\u062c\u0632\u0627\u0626\u0631", "operator:fr": "Alg\u00e9rie Poste", "operator:website": "https://www.poste.dz/", "operator:wikidata": "Q2836029", "operator:wikipedia": "fr:Alg\u00e9rie Poste", "phone": "+21323923200", "ref": "RHC"}}, {"type": "way", "id": 427832284, "nodes": [4270071439, 4270071450, 4270071424, 4270071414, 4270071439], "tags": {"amenity": "post_office", "brand": "Alg\u00e9rie Poste", "brand:ar": "\u0628\u0631\u064a\u062f \u0627\u0644\u062c\u0632\u0627\u0626\u0631", "brand:email": "clientalgerieposte@poste.dz", "brand:fr": "Alg\u00e9rie Poste", "brand:website": "https://www.poste.dz/", "brand:wikidata": "Q2836029", "brand:wikipedia": "fr:Alg\u00e9rie Poste", "building": "yes", "currency:DZA": "yes", "fax": "+21323923170", "language:ar": "main", "name": "Bureau de poste", "opening_hours": "08:30-12:30,13:30-16:30", "operator": "Alg\u00e9rie Poste", "operator:ar": "\u0628\u0631\u064a\u062f \u0627\u0644\u062c\u0632\u0627\u0626\u0631", "operator:fr": "Alg\u00e9rie Poste", "operator:website": "https://www.poste.dz/", "operator:wikidata": "Q2836029", "operator:wikipedia": "fr:Alg\u00e9rie Poste"}}, {"type": "way", "id": 435407584, "nodes": [4333194369, 4333194370, 4333194371, 4333194372, 4333194373, 4333194374, 4333194375, 4333194376, 4333194377, 4333194378, 4333194369], "tags": {"addr:city": "Bachdjarah", "addr:housenumber": "bloc3", "addr:postcode": "16022", "addr:street": "Rue de la cit\u00e9 diar el djemaa", "amenity": "post_office", "atm": "yes", "brand": "Alg\u00e9rie Poste", "brand:ar": "\u0628\u0631\u064a\u062f \u0627\u0644\u062c\u0632\u0627\u0626\u0631", "brand:email": "clientalgerieposte@poste.dz", "brand:fr": "Alg\u00e9rie Poste", "brand:website": "https://www.poste.dz/", "brand:wikidata": "Q2836029", "brand:wikipedia": "fr:Alg\u00e9rie Poste", "currency:DZA": "yes", "fax": "+21323923170", "language:ar": "main", "name": "Bureau de poste de Diar el Djemaa", "opening_hours": "08:30-12:30,13:30-16:30", "operator": "Alg\u00e9rie Poste", "operator:ar": "\u0628\u0631\u064a\u062f \u0627\u0644\u062c\u0632\u0627\u0626\u0631", "operator:fr": "Alg\u00e9rie Poste", "operator:website": "https://www.poste.dz/", "operator:wikidata": "Q2836029", "operator:wikipedia": "fr:Alg\u00e9rie Poste", "phone": "+21323923200"}}, {"type": "way", "id": 441922009, "nodes": [4396138528, 4396138529, 4396138530, 4396138531, 4396138528], "tags": {"amenity": "post_office", "brand": "Alg\u00e9rie Poste", "brand:ar": "\u0628\u0631\u064a\u062f \u0627\u0644\u062c\u0632\u0627\u0626\u0631", "brand:email": "clientalgerieposte@poste.dz", "brand:fr": "Alg\u00e9rie Poste", "brand:website": "https://www.poste.dz/", "brand:wikidata": "Q2836029", "brand:wikipedia": "fr:Alg\u00e9rie Poste", "building": "yes", "currency:DZA": "yes", "fax": "+21323923170", "language:ar": "main", "name": "Bureau de poste de Sidi Boukhris", "opening_hours": "08:30-12:30,13:30-16:30", "operator": "Alg\u00e9rie Poste", "operator:ar": "\u0628\u0631\u064a\u062f \u0627\u0644\u062c\u0632\u0627\u0626\u0631", "operator:fr": "Alg\u00e9rie Poste", "operator:website": "https://www.poste.dz/", "operator:wikidata": "Q2836029", "operator:wikipedia": "fr:Alg\u00e9rie Poste"}}, {"type": "way", "id": 441923754, "nodes": [4396153058, 4396153059, 4396153062, 4396153063, 4396153058], "tags": {"amenity": "post_office", "brand": "Alg\u00e9rie Poste", "brand:ar": "\u0628\u0631\u064a\u062f \u0627\u0644\u062c\u0632\u0627\u0626\u0631", "brand:email": "clientalgerieposte@poste.dz", "brand:fr": "Alg\u00e9rie Poste", "brand:website": "https://www.poste.dz/", "brand:wikidata": "Q2836029", "brand:wikipedia": "fr:Alg\u00e9rie Poste", "building": "yes", "currency:DZA": "yes", "fax": "+21323923170", "language:ar": "main", "name": "Bureau de poste", "name:ar": "\u0628\u0631\u064a\u062f \u062e\u0631\u064a\u0633\u064a\u0629", "name:fr": "Bureau de poste de kharicia", "opening_hours": "08:30-12:30,13:30-16:30", "operator": "Alg\u00e9rie Poste", "operator:ar": "\u0628\u0631\u064a\u062f \u0627\u0644\u062c\u0632\u0627\u0626\u0631", "operator:fr": "Alg\u00e9rie Poste", "operator:website": "https://www.poste.dz/", "operator:wikidata": "Q2836029", "operator:wikipedia": "fr:Alg\u00e9rie Poste"}}, {"type": "way", "id": 467989386, "nodes": [4625471161, 4625471160, 4625471159, 4625471158, 4625471161], "tags": {"amenity": "post_office", "brand": "Alg\u00e9rie Poste", "brand:ar": "\u0628\u0631\u064a\u062f \u0627\u0644\u062c\u0632\u0627\u0626\u0631", "brand:email": "clientalgerieposte@poste.dz", "brand:fr": "Alg\u00e9rie Poste", "brand:website": "https://www.poste.dz/", "brand:wikidata": "Q2836029", "brand:wikipedia": "fr:Alg\u00e9rie Poste", "currency:DZA": "yes", "fax": "+21323923170", "language:ar": "main", "name": "Bureau de poste CAP-CAXINE", "opening_hours": "08:30-12:30,13:30-16:30", "operator": "Alg\u00e9rie Poste", "operator:ar": "\u0628\u0631\u064a\u062f \u0627\u0644\u062c\u0632\u0627\u0626\u0631", "operator:fr": "Alg\u00e9rie Poste", "operator:website": "https://www.poste.dz/", "operator:wikidata": "Q2836029", "operator:wikipedia": "fr:Alg\u00e9rie Poste"}}, {"type": "way", "id": 475277229, "nodes": [2535738266, 4690439305, 4690439306, 4690439307, 4690439308, 4690439309, 2535738266], "tags": {"addr:city": "Sidi Moussa", "amenity": "post_office", "brand": "Alg\u00e9rie Poste", "brand:ar": "\u0628\u0631\u064a\u062f \u0627\u0644\u062c\u0632\u0627\u0626\u0631", "brand:email": "clientalgerieposte@poste.dz", "brand:fr": "Alg\u00e9rie Poste", "brand:website": "https://www.poste.dz/", "brand:wikidata": "Q2836029", "brand:wikipedia": "fr:Alg\u00e9rie Poste", "building": "public", "currency:DZA": "yes", "fax": "+21323923170", "language:ar": "main", "name": "Bureau de poste de Sidi Moussa", "opening_hours": "08:30-12:30,13:30-16:30", "operator": "Alg\u00e9rie Poste", "operator:ar": "\u0628\u0631\u064a\u062f \u0627\u0644\u062c\u0632\u0627\u0626\u0631", "operator:fr": "Alg\u00e9rie Poste", "operator:website": "https://www.poste.dz/", "operator:wikidata": "Q2836029", "operator:wikipedia": "fr:Alg\u00e9rie Poste", "phone": "+21323923200"}}, {"type": "way", "id": 688884803, "nodes": [6461632392, 6461632390, 6461632394, 6461632388, 6461632391, 6461632389, 6461632393, 6461632392], "tags": {"addr:city": "Bologhine", "addr:city:ar": "\u0628\u0648\u0644\u0648\u063a\u064a\u0646", "addr:city:fr": "Bologhine", "amenity": "post_office", "brand": "Alg\u00e9rie Poste", "brand:ar": "\u0628\u0631\u064a\u062f \u0627\u0644\u062c\u0632\u0627\u0626\u0631", "brand:email": "clientalgerieposte@poste.dz", "brand:fr": "Alg\u00e9rie Poste", "brand:website": "https://www.poste.dz/", "brand:wikidata": "Q2836029", "brand:wikipedia": "fr:Alg\u00e9rie Poste", "currency:DZA": "yes", "fax": "+21323923170", "language:ar": "main", "name": "Poste de Bologhine", "name:ar": "\u0628\u0631\u064a\u062f \u0628\u0648\u0644\u0648\u063a\u064a\u0646", "name:fr": "Poste de Bologhine", "operator": "Alg\u00e9rie Poste", "operator:ar": "\u0628\u0631\u064a\u062f \u0627\u0644\u062c\u0632\u0627\u0626\u0631", "operator:email": "clientalgerieposte@poste.dz", "operator:fr": "Alg\u00e9rie Poste", "operator:website": "https://www.poste.dz/", "operator:wikidata": "Q2836029", "operator:wikipedia": "fr:Alg\u00e9rie Poste"}}, {"type": "way", "id": 982263319, "nodes": [9084319949, 9084319947, 9084319945, 9084319944, 9084319946, 9084319948, 9084319949], "tags": {"amenity": "post_office", "brand:email": "clientalgerieposte@poste.dz", "building": "yes", "currency:DZA": "yes", "description": "bureau de poste", "email": "clientalgerieposte@poste.dz", "name": "Algerie Poste Rahmania", "operator": "Algerie Poste", "operator:ar": "\u0628\u0631\u064a\u062f \u0627\u0644\u062c\u0632\u0627\u0626\u0631", "operator:fr": "Algerie Poste", "operator:website": "https://www.poste.dz/", "operator:wikipedia": "ar:\u0628\u0631\u064a\u062f \u0627\u0644\u062c\u0632\u0627\u0626\u0631", "operator:wikipedia:ar": "\u0628\u0631\u064a\u062f \u0627\u0644\u062c\u0632\u0627\u0626\u0631", "ref": "16121", "source": "FB: Algerie Mapper Team : (Superadlen)", "website": "https://www.poste.dz", "wikipedia": "fr:Alg\u00e9rie Poste"}}, {"type": "way", "id": 1171612301, "nodes": [10886667495, 10886661059, 10886664756, 2950321434, 10886667160, 10886631491, 10886667495], "tags": {"addr:city": "\u0648\u0627\u062f\u064a \u0627\u0644\u0633\u0645\u0627\u0631", "amenity": "post_office", "brand": "Alg\u00e9rie Poste", "brand:ar": "\u0628\u0631\u064a\u062f \u0627\u0644\u062c\u0632\u0627\u0626\u0631", "brand:email": "clientalgerieposte@poste.dz", "brand:fr": "Alg\u00e9rie Poste", "brand:website": "https://www.poste.dz", "brand:wikidata": "Q2836029", "brand:wikipedia": "fr:Alg\u00e9rie Poste", "building": "yes", "currency:DZA": "yes", "fax": "+21323923170", "language:ar": "main", "name": "Poste de Beaulieu \u0645\u0643\u062a\u0628 \u0627\u0644\u0628\u0631\u064a\u062f \u0627\u0644\u0645\u0643\u0627\u0646 \u0627\u0644\u062c\u0645\u064a\u0644", "name:ar": "\u0645\u0643\u062a\u0628 \u0627\u0644\u0628\u0631\u064a\u062f \u0627\u0644\u0645\u0643\u0627\u0646 \u0627\u0644\u062c\u0645\u064a\u0644", "name:fr": "Poste de Beaulieu", "opening_hours": "08:30-12:30,13:30-16:30", "operator": "Alg\u00e9rie Poste", "operator:ar": "\u0628\u0631\u064a\u062f \u0627\u0644\u062c\u0632\u0627\u0626\u0631", "operator:email": "clientalgerieposte@poste.dz", "operator:fr": "Alg\u00e9rie Poste", "operator:website": "https://www.poste.dz/", "operator:wikidata": "Q2836029", "operator:wikipedia": "fr:Alg\u00e9rie Poste", "phone": "+21323923200", "website": "https://www.poste.dz"}}, {"type": "way", "id": 1171706475, "nodes": [10887300997, 3452502394, 10887310754, 10887309773, 10887300997], "tags": {"amenity": "post_office", "brand": "Alg\u00e9rie Poste", "brand:ar": "\u0628\u0631\u064a\u062f \u0627\u0644\u062c\u0632\u0627\u0626\u0631", "brand:email": "clientalgerieposte@poste.dz", "brand:fr": "Alg\u00e9rie Poste", "brand:website": "https://www.poste.dz/", "brand:wikidata": "Q2836029", "brand:wikipedia": "fr:Alg\u00e9rie Poste", "building": "yes", "currency:DZA": "yes", "fax": "+21323923170", "language:ar": "main", "name": "Bureau de poste de Sidi Menif", "opening_hours": "08:30-12:30,13:30-16:30", "operator": "Alg\u00e9rie Poste", "operator:ar": "\u0628\u0631\u064a\u062f \u0627\u0644\u062c\u0632\u0627\u0626\u0631", "operator:fr": "Alg\u00e9rie Poste", "operator:website": "https://www.poste.dz/", "operator:wikidata": "Q2836029", "operator:wikipedia": "fr:Alg\u00e9rie Poste"}}, {"type": "way", "id": 1171711340, "nodes": [10887337690, 10887337604, 3020958860, 10887338282, 10887337690], "tags": {"amenity": "post_office", "brand": "Alg\u00e9rie Poste", "brand:ar": "\u0628\u0631\u064a\u062f \u0627\u0644\u062c\u0632\u0627\u0626\u0631", "brand:email": "clientalgerieposte@poste.dz", "brand:fr": "Alg\u00e9rie Poste", "brand:website": "https://www.poste.dz/", "brand:wikidata": "Q2836029", "brand:wikipedia": "fr:Alg\u00e9rie Poste", "building": "yes", "currency:DZA": "yes", "fax": "+21323923170", "language:ar": "main", "name": "Bureau de poste", "opening_hours": "08:30-12:30,13:30-16:30", "operator": "Alg\u00e9rie Poste", "operator:ar": "\u0628\u0631\u064a\u062f \u0627\u0644\u062c\u0632\u0627\u0626\u0631", "operator:fr": "Alg\u00e9rie Poste", "operator:website": "https://www.poste.dz/", "operator:wikidata": "Q2836029", "operator:wikipedia": "fr:Alg\u00e9rie Poste", "phone": "+21323923200"}}, {"type": "way", "id": 1171800523, "nodes": [5168694419, 10887967450, 10887967746, 10887968225, 5168694419], "tags": {"amenity": "post_office", "brand": "Alg\u00e9rie Poste", "brand:ar": "\u0628\u0631\u064a\u062f \u0627\u0644\u062c\u0632\u0627\u0626\u0631", "brand:email": "clientalgerieposte@poste.dz", "brand:fr": "Alg\u00e9rie Poste", "brand:website": "https://www.poste.dz/", "brand:wikidata": "Q2836029", "brand:wikipedia": "fr:Alg\u00e9rie Poste", "building": "yes", "currency:DZA": "yes", "fax": "+21323923170", "language:ar": "main", "name": "Ain Benian", "opening_hours": "08:30-12:30,13:30-16:30", "operator": "Alg\u00e9rie Poste", "operator:ar": "\u0628\u0631\u064a\u062f \u0627\u0644\u062c\u0632\u0627\u0626\u0631", "operator:fr": "Alg\u00e9rie Poste", "operator:website": "https://www.poste.dz/", "operator:wikidata": "Q2836029", "operator:wikipedia": "fr:Alg\u00e9rie Poste", "phone": "+21323923200"}}, {"type": "way", "id": 1171829646, "nodes": [5503466421, 10888135616, 10888136031, 10888132607, 10888131730, 10888129739, 10888133899, 10888129849, 10888134392, 10888131527, 10888136320, 10888135778, 5503466421], "tags": {"amenity": "post_office", "brand": "Alg\u00e9rie Poste", "brand:ar": "\u0628\u0631\u064a\u062f \u0627\u0644\u062c\u0632\u0627\u0626\u0631", "brand:email": "clientalgerieposte@poste.dz", "brand:fr": "Alg\u00e9rie Poste", "brand:website": "https://www.poste.dz", "brand:wikidata": "Q2836029", "brand:wikipedia": "fr:Alg\u00e9rie Poste", "building": "yes", "currency:DZA": "yes", "fax": "+21323923170", "language:ar": "main", "name:fr": "Poste el mouradia", "operator": "Alg\u00e9rie Poste", "operator:ar": "\u0628\u0631\u064a\u062f \u0627\u0644\u062c\u0632\u0627\u0626\u0631", "operator:email": "clientalgerieposte@poste.dz", "operator:fr": "Alg\u00e9rie Poste", "operator:website": "https://www.poste.dz/", "operator:wikidata": "Q2836029", "operator:wikipedia": "fr:Alg\u00e9rie Poste", "website": "https://www.poste.dz"}}, {"type": "way", "id": 1171871799, "nodes": [10888512798, 10888520366, 10888510013, 5258164993, 10888515419, 10888515234, 10888512798], "tags": {"addr:city": "Ouled Chebel", "amenity": "post_office", "brand": "Alg\u00e9rie Poste", "brand:ar": "\u0628\u0631\u064a\u062f \u0627\u0644\u062c\u0632\u0627\u0626\u0631", "brand:email": "clientalgerieposte@poste.dz", "brand:fr": "Alg\u00e9rie Poste", "brand:website": "https://www.poste.dz/", "brand:wikidata": "Q2836029", "brand:wikipedia": "fr:Alg\u00e9rie Poste", "building": "yes", "currency:DZA": "yes", "fax": "+21323923170", "language:ar": "main", "opening_hours": "08:30-12:30,13:30-16:30", "operator": "Alg\u00e9rie Poste", "operator:ar": "\u0628\u0631\u064a\u062f \u0627\u0644\u062c\u0632\u0627\u0626\u0631", "operator:fr": "Alg\u00e9rie Poste", "operator:website": "https://www.poste.dz/", "operator:wikidata": "Q2836029", "operator:wikipedia": "fr:Alg\u00e9rie Poste", "phone": "+21323923200"}}, {"type": "way", "id": 1171933383, "nodes": [4317722195, 10889144474, 10889142694, 10889140344, 4317722195], "tags": {"addr:postcode": "16189", "amenity": "post_office", "brand": "Alg\u00e9rie Poste", "brand:ar": "\u0628\u0631\u064a\u062f \u0627\u0644\u062c\u0632\u0627\u0626\u0631", "brand:email": "clientalgerieposte@poste.dz", "brand:fr": "Alg\u00e9rie Poste", "brand:website": "https://www.poste.dz/", "brand:wikidata": "Q2836029", "brand:wikipedia": "fr:Alg\u00e9rie Poste", "building": "yes", "currency:DZA": "yes", "fax": "+21323923170", "language:ar": "main", "name": "\u0645\u0643\u062a\u0628 \u0628\u0631\u064a\u062f \u062d\u064a \u0627\u0644\u0631\u0627\u064a\u0633", "name:ar": "\u0645\u0643\u062a\u0628 \u0628\u0631\u064a\u062f \u062d\u064a \u0627\u0644\u0631\u0627\u064a\u0633", "name:fr": "Bureau de Poste", "opening_hours": "08:30-12:30,13:30-16:30", "operator": "Alg\u00e9rie Poste", "operator:ar": "\u0628\u0631\u064a\u062f \u0627\u0644\u062c\u0632\u0627\u0626\u0631", "operator:fr": "Alg\u00e9rie Poste", "operator:website": "https://www.poste.dz/", "operator:wikidata": "Q2836029", "operator:wikipedia": "fr:Alg\u00e9rie Poste", "phone": "+21323923200"}}, {"type": "way", "id": 1171983993, "nodes": [10889452887, 10889445242, 2616514808, 10889457032, 10889452887], "tags": {"amenity": "post_office", "brand": "Alg\u00e9rie Poste", "brand:ar": "\u0628\u0631\u064a\u062f \u0627\u0644\u062c\u0632\u0627\u0626\u0631", "brand:email": "clientalgerieposte@poste.dz", "brand:fr": "Alg\u00e9rie Poste", "brand:website": "https://www.poste.dz/", "brand:wikidata": "Q2836029", "brand:wikipedia": "fr:Alg\u00e9rie Poste", "building": "yes", "currency:DZA": "yes", "fax": "+21323923170", "language:ar": "main", "name": "Bureau de poste de Ouled Chebacheb", "opening_hours": "08:30-12:30,13:30-16:30", "operator": "Alg\u00e9rie Poste", "operator:ar": "\u0628\u0631\u064a\u062f \u0627\u0644\u062c\u0632\u0627\u0626\u0631", "operator:fr": "Alg\u00e9rie Poste", "operator:website": "https://www.poste.dz/", "operator:wikidata": "Q2836029", "operator:wikipedia": "fr:Alg\u00e9rie Poste", "phone": "+21323923200"}}, {"type": "way", "id": 1172001300, "nodes": [10889569919, 10889551899, 10889569072, 3076748824, 10889569748, 10889567250, 10889569148, 10889569016, 10889569919], "tags": {"amenity": "post_office", "brand": "Alg\u00e9rie Poste", "brand:ar": "\u0628\u0631\u064a\u062f \u0627\u0644\u062c\u0632\u0627\u0626\u0631", "brand:email": "clientalgerieposte@poste.dz", "brand:fr": "Alg\u00e9rie Poste", "brand:website": "https://www.poste.dz/", "brand:wikidata": "Q2836029", "brand:wikipedia": "fr:Alg\u00e9rie Poste", "building": "yes", "currency:DZA": "yes", "fax": "+21323923170", "language:ar": "main", "name": "Bachdjrah", "opening_hours": "08:30-12:30,13:30-16:30", "operator": "Alg\u00e9rie Poste", "operator:ar": "\u0628\u0631\u064a\u062f \u0627\u0644\u062c\u0632\u0627\u0626\u0631", "operator:fr": "Alg\u00e9rie Poste", "operator:website": "https://www.poste.dz/", "operator:wikidata": "Q2836029", "operator:wikipedia": "fr:Alg\u00e9rie Poste", "phone": "+21323923200"}}, {"type": "way", "id": 1172009353, "nodes": [10889629489, 10889629995, 10889631889, 10889629740, 10889629489], "tags": {"amenity": "post_office", "building": "yes", "operator": "Alg\u00e9rie Poste", "operator:ar": "\u0628\u0631\u064a\u062f \u0627\u0644\u062c\u0632\u0627\u0626\u0631", "operator:fr": "Alg\u00e9rie Poste", "operator:wikidata": "Q2836029"}}, {"type": "way", "id": 1172012193, "nodes": [10889644483, 10889644337, 4003038228, 10889642978, 10889644483], "tags": {"addr:city": "ALGER", "addr:housenumber": "01", "addr:place": "BIRKHADEM", "addr:postcode": "16029", "addr:street": "RUE AZEM MAHDI", "amenity": "post_office", "brand": "Alg\u00e9rie Poste", "brand:ar": "\u0628\u0631\u064a\u062f \u0627\u0644\u062c\u0632\u0627\u0626\u0631", "brand:email": "clientalgerieposte@poste.dz", "brand:fr": "Alg\u00e9rie Poste", "brand:website": "https://www.poste.dz/", "brand:wikidata": "Q2836029", "brand:wikipedia": "fr:Alg\u00e9rie Poste", "building": "yes", "currency:DZA": "yes", "fax": "+21323923170", "language:ar": "main", "name": "la poste", "opening_hours": "08:30-12:30,13:30-16:30", "operator": "Alg\u00e9rie Poste", "operator:ar": "\u0628\u0631\u064a\u062f \u0627\u0644\u062c\u0632\u0627\u0626\u0631", "operator:fr": "Alg\u00e9rie Poste", "operator:website": "https://www.poste.dz/", "operator:wikidata": "Q2836029", "operator:wikipedia": "fr:Alg\u00e9rie Poste", "phone": "+21323923200", "ref": "R1"}}, {"type": "way", "id": 1172812794, "nodes": [5375599423, 10896950613, 10896949257, 10896918195, 10896947757, 10896946080, 10896950338, 10896950153, 10896944971, 10896945318, 5375599423], "tags": {"addr:city": "\u0623\u0648\u0644\u0627\u062f \u0645\u0646\u062f\u064a\u0644", "amenity": "post_office", "brand": "Alg\u00e9rie Poste", "brand:ar": "\u0628\u0631\u064a\u062f \u0627\u0644\u062c\u0632\u0627\u0626\u0631", "brand:email": "clientalgerieposte@poste.dz", "brand:fr": "Alg\u00e9rie Poste", "brand:website": "https://www.poste.dz", "brand:wikidata": "Q2836029", "brand:wikipedia": "fr:Alg\u00e9rie Poste", "building": "yes", "currency:DZA": "yes", "fax": "+21323923170", "language:ar": "main", "name": "\u0627\u0644\u0645\u0643\u062a\u0628 \u0627\u0644\u0628\u0631\u064a\u062f \u0623\u0648\u0644\u0627\u062f \u0645\u0646\u062f\u064a\u0644", "name:ar": "\u0627\u0644\u0645\u0643\u062a\u0628 \u0627\u0644\u0628\u0631\u064a\u062f \u0623\u0648\u0644\u0627\u062f \u0645\u0646\u062f\u064a\u0644", "name:fr": "Bureau de Poste Ouled Mendil", "operator": "Alg\u00e9rie Poste", "operator:ar": "\u0628\u0631\u064a\u062f \u0627\u0644\u062c\u0632\u0627\u0626\u0631", "operator:email": "clientalgerieposte@poste.dz", "operator:fr": "Alg\u00e9rie Poste", "operator:website": "https://www.poste.dz/", "operator:wikidata": "Q2836029", "operator:wikipedia": "fr:Alg\u00e9rie Poste", "website": "https://www.poste.dz"}}, {"type": "way", "id": 1173894804, "nodes": [4670805889, 10907592515, 10907592020, 10907594160, 10907593160, 10907591465, 4670805889], "tags": {"addr:housenumber": "7", "addr:postcode": "16000", "addr:street": "Avenue du Colonel Lotfi", "amenity": "post_office", "brand": "Alg\u00e9rie Poste", "brand:ar": "\u0628\u0631\u064a\u062f \u0627\u0644\u062c\u0632\u0627\u0626\u0631", "brand:email": "clientalgerieposte@poste.dz", "brand:fr": "Alg\u00e9rie Poste", "brand:website": "https://www.poste.dz/", "brand:wikidata": "Q2836029", "brand:wikipedia": "fr:Alg\u00e9rie Poste", "building": "yes", "currency:DZA": "yes", "fax": "+21323923170", "language:ar": "main", "name": "DHL International Algeria", "name:ar": "\u062f\u064a \u0625\u062a\u0634 \u0625\u0644 \u0627\u0644\u062f\u0648\u0644\u064a\u0629 \u0627\u0644\u062c\u0632\u0627\u0626\u0631\u064a\u0629", "name:fr": "DHL International Algerie", "opening_hours": "08:30-12:30,13:30-16:30", "operator": "Alg\u00e9rie Poste", "operator:ar": "\u0628\u0631\u064a\u062f \u0627\u0644\u062c\u0632\u0627\u0626\u0631", "operator:fr": "Alg\u00e9rie Poste", "operator:website": "https://www.poste.dz/", "operator:wikidata": "Q2836029", "operator:wikipedia": "fr:Alg\u00e9rie Poste", "phone": "+21323923200"}}, {"type": "way", "id": 1173905229, "nodes": [10907666932, 10907668879, 10907666981, 10907668692, 10907668725, 10907668138, 10907602196, 1080807694, 10907666932], "tags": {"amenity": "post_office", "brand": "Alg\u00e9rie Poste", "brand:ar": "\u0628\u0631\u064a\u062f \u0627\u0644\u062c\u0632\u0627\u0626\u0631", "brand:email": "clientalgerieposte@poste.dz", "brand:fr": "Alg\u00e9rie Poste", "brand:website": "https://www.poste.dz/", "brand:wikidata": "Q2836029", "brand:wikipedia": "fr:Alg\u00e9rie Poste", "building": "yes", "currency:DZA": "yes", "fax": "+21323923170", "language:ar": "main", "name": "Poste Hai El-Badr", "opening_hours": "08:30-12:30,13:30-16:30", "operator": "Alg\u00e9rie Poste", "operator:ar": "\u0628\u0631\u064a\u062f \u0627\u0644\u062c\u0632\u0627\u0626\u0631", "operator:fr": "Alg\u00e9rie Poste", "operator:website": "https://www.poste.dz/", "operator:wikidata": "Q2836029", "operator:wikipedia": "fr:Alg\u00e9rie Poste", "phone": "+21323923200"}}, {"type": "way", "id": 1174094204, "nodes": [10909473893, 10909475497, 10909473875, 1606492495, 10909473893], "tags": {"amenity": "post_office", "brand": "Alg\u00e9rie Poste", "brand:ar": "\u0628\u0631\u064a\u062f \u0627\u0644\u062c\u0632\u0627\u0626\u0631", "brand:email": "clientalgerieposte@poste.dz", "brand:fr": "Alg\u00e9rie Poste", "brand:website": "https://www.poste.dz/", "brand:wikidata": "Q2836029", "brand:wikipedia": "fr:Alg\u00e9rie Poste", "building": "yes", "currency:DZA": "yes", "fax": "+21323923170", "language:ar": "main", "name": "Bureau de Poste", "name:ar": "\u0645\u0643\u062a\u0628 \u0627\u0644\u0628\u0631\u064a\u062f \u0648\u0627\u0644\u0645\u0648\u0627\u0635\u0644\u0627\u062a", "name:fr": "Bureau de Poste", "opening_hours": "08:30-12:30,13:30-16:30", "operator": "Alg\u00e9rie Poste", "operator:ar": "\u0628\u0631\u064a\u062f \u0627\u0644\u062c\u0632\u0627\u0626\u0631", "operator:fr": "Alg\u00e9rie Poste", "operator:website": "https://www.poste.dz/", "operator:wikidata": "Q2836029", "operator:wikipedia": "fr:Alg\u00e9rie Poste"}}, {"type": "relation", "id": 415866, "members": [{"type": "way", "ref": 51039121, "role": "outer"}, {"type": "way", "ref": 51039531, "role": "inner"}], "tags": {"addr:city": "Alger", "addr:postcode": "16000", "addr:street": "Boulevard Mustapha Benboulaid", "amenity": "post_office", "brand": "\u0628\u0631\u064a\u062f \u0627\u0644\u062c\u0632\u0627\u0626\u0631", "brand:ar": "\u0628\u0631\u064a\u062f \u0627\u0644\u062c\u0632\u0627\u0626\u0631", "brand:email": "clientalgerieposte@poste.dz", "brand:website": "https://www.poste.dz/lang/ar", "brand:wikidata": "Q2836029", "brand:wikipedia": "ar:\u0628\u0631\u064a\u062f \u0627\u0644\u062c\u0632\u0627\u0626\u0631", "brand:wikipedia:ar": "\u0628\u0631\u064a\u062f \u0627\u0644\u062c\u0632\u0627\u0626\u0631", "building": "public", "currency:DZA": "yes", "email": "clientalgerieposte@poste.dz", "language:ar": "main", "name": "La Grande Poste d'Alger", "name:ar": "\u0627\u0644\u0628\u0631\u064a\u062f \u0627\u0644\u0645\u0631\u0643\u0632\u064a \u0627\u0644\u062c\u0632\u0627\u0626\u0631", "name:en": "Post office", "name:fr": "La Grande Poste d'Alger", "opening_hours": "08:30-12:30,13:30-16:30", "operator": "Alg\u00e9rie Poste", "operator:ar": "\u0628\u0631\u064a\u062f \u0627\u0644\u062c\u0632\u0627\u0626\u0631", "operator:fr": "Alg\u00e9rie Poste", "operator:website": "https://www.poste.dz/", "operator:wikidata": "Q2836029", "operator:wikipedia": "ar:\u0628\u0631\u064a\u062f \u0627\u0644\u062c\u0632\u0627\u0626\u0631", "operator:wikipedia:ar": "\u0628\u0631\u064a\u062f \u0627\u0644\u062c\u0632\u0627\u0626\u0631", "phone": "+21323923200", "source": "FB: Algerie Mapper Team : (Superadlen)", "tourism": "attraction", "type": "multipolygon", "website": "https://www.poste.dz", "wikidata": "Q3115007", "wikipedia": "fr:Alg\u00e9rie Poste"}}]}