{"version": 0.6, "generator": "Overpass API 0.7.62.5 1bd436f1", "osm3s": {"timestamp_osm_base": "2025-05-02T10:01:16Z", "copyright": "The data included in this document is from www.openstreetmap.org. The data is made available under ODbL."}, "elements": [{"type": "node", "id": 2232554814, "lat": 36.7599309, "lon": 3.0566702, "tags": {"railway": "subway_entrance", "wheelchair": "no"}}, {"type": "node", "id": 2232554849, "lat": 36.7603236, "lon": 3.057131, "tags": {"railway": "subway_entrance"}}, {"type": "node", "id": 2232554854, "lat": 36.7602552, "lon": 3.0559801, "tags": {"railway": "subway_entrance"}}, {"type": "node", "id": 2233283471, "lat": 36.7715421, "lon": 3.0573398, "tags": {"railway": "subway_entrance"}}, {"type": "node", "id": 2233283475, "lat": 36.7713702, "lon": 3.0574874, "tags": {"railway": "subway_entrance"}}, {"type": "node", "id": 2233283479, "lat": 36.7724483, "lon": 3.0584397, "tags": {"name": "Tafourah - Grande Poste", "name:ar": "\u062a\u0627\u0641\u0648\u0631\u0629 - \u0627\u0644\u0628\u0631\u064a\u062f \u0627\u0644\u0645\u0631\u0643\u0632\u064a", "name:fr": "Tafourah - Grande Poste", "operator": "RATP El Djaza\u00efr", "operator:fr": "RATP El Djaza\u00efr", "railway": "subway_entrance"}}, {"type": "node", "id": 2233283503, "lat": 36.7723176, "lon": 3.0585792, "tags": {"name": "Tafourah - Grande Poste", "name:ar": "\u062a\u0627\u0641\u0648\u0631\u0629 - \u0627\u0644\u0628\u0631\u064a\u062f \u0627\u0644\u0645\u0631\u0643\u0632\u064a", "name:fr": "Tafourah - Grande Poste", "operator": "RATP El Djaza\u00efr", "railway": "subway_entrance"}}, {"type": "node", "id": 2270466611, "lat": 36.725344, "lon": 3.1019063, "tags": {"name": "Cit\u00e9 El-Badr", "railway": "subway_entrance"}}, {"type": "node", "id": 2767250802, "lat": 36.7425783, "lon": 3.0834736, "tags": {"name": "Ruisseau", "name:ar": "\u0631\u0648\u064a\u0633\u0648", "name:en": "Ruisseau", "name:fr": "Ruisseau", "name:kab": "Rwiso", "railway": "subway_entrance"}}, {"type": "node", "id": 2775285482, "lat": 36.7567609, "lon": 3.0614973, "tags": {"railway": "subway_entrance"}}, {"type": "node", "id": 2775285490, "lat": 36.7570037, "lon": 3.0618782, "tags": {"railway": "subway_entrance"}}, {"type": "node", "id": 2775285506, "lat": 36.7529102, "lon": 3.0662556, "tags": {"railway": "subway_entrance"}}, {"type": "node", "id": 2775285507, "lat": 36.7569672, "lon": 3.0612559, "tags": {"railway": "subway_entrance"}}, {"type": "node", "id": 2775285518, "lat": 36.7531702, "lon": 3.0665211, "tags": {"railway": "subway_entrance"}}, {"type": "node", "id": 2775285520, "lat": 36.7529081, "lon": 3.0668376, "tags": {"railway": "subway_entrance"}}, {"type": "node", "id": 2775285521, "lat": 36.7572702, "lon": 3.0615563, "tags": {"railway": "subway_entrance"}}, {"type": "node", "id": 2775285524, "lat": 36.7526932, "lon": 3.0665104, "tags": {"railway": "subway_entrance"}}, {"type": "node", "id": 2781328458, "lat": 36.7467325, "lon": 3.0727065, "tags": {"name": "Jardin d'essai", "name:ar": "\u062d\u062f\u064a\u0642\u0629 \u0627\u0644\u062a\u062c\u0627\u0631\u0628", "name:en": "Jardin d'essai", "name:fr": "Jardin d'essai", "operator": "RATP El Djaza\u00efr", "railway": "subway_entrance"}}, {"type": "node", "id": 2781434447, "lat": 36.7465874, "lon": 3.0725963, "tags": {"name": "Jardin d'essai", "name:ar": "\u062d\u062f\u064a\u0642\u0629 \u0627\u0644\u062a\u062c\u0627\u0631\u0628", "name:en": "Jardin d'essai", "name:fr": "Jardin d'essai", "operator": "RATP El Djaza\u00efr", "railway": "subway_entrance"}}, {"type": "node", "id": 3506137162, "lat": 36.7179802, "lon": 3.1111853, "tags": {"railway": "subway_entrance"}}, {"type": "node", "id": 3506137175, "lat": 36.7180586, "lon": 3.1095161, "tags": {"name": "Bachdjerah - Tennis", "railway": "subway_entrance"}}, {"type": "node", "id": 3506137187, "lat": 36.7179203, "lon": 3.1095531, "tags": {"name": "Bachdjerah - Tennis", "railway": "subway_entrance"}}, {"type": "node", "id": 3506154217, "lat": 36.7183651, "lon": 3.1109948, "tags": {"railway": "subway_entrance"}}, {"type": "node", "id": 3589512608, "lat": 36.709428, "lon": 3.0899294, "tags": {"railway": "subway_entrance"}}, {"type": "node", "id": 3589532712, "lat": 36.7335477, "lon": 3.1009643, "tags": {"name": "\u062d\u064a \u0627\u0644\u0628\u062d\u0631 \u0648\u0627\u0644\u0634\u0645\u0633", "name:ar": "\u062d\u064a \u0627\u0644\u0628\u062d\u0631 \u0648\u0627\u0644\u0634\u0645\u0633", "name:fr": "Quartier mer et soleil", "railway": "subway_entrance"}}, {"type": "node", "id": 3589541170, "lat": 36.7378984, "lon": 3.0947317, "tags": {"railway": "subway_entrance"}}, {"type": "node", "id": 3589543662, "lat": 36.7420797, "lon": 3.0829449, "tags": {"railway": "subway_entrance"}}, {"type": "node", "id": 3589553828, "lat": 36.7661806, "lon": 3.0534073, "tags": {"name": "Khelifa Boukhalfa", "name:ar": "\u062e\u0644\u064a\u0641\u0629 \u0628\u0648\u062e\u0627\u0644\u0641\u0629", "name:en": "Khelifa Boukhalfa", "name:fr": "Khelifa Boukhalfa", "name:kab": "Xlifa Buxalfa", "railway": "subway_entrance"}}, {"type": "node", "id": 3600451480, "lat": 36.7221876, "lon": 3.1316292, "tags": {"railway": "subway_entrance"}}, {"type": "node", "id": 3602333453, "lat": 36.7377272, "lon": 3.0942699, "tags": {"railway": "subway_entrance"}}, {"type": "node", "id": 3634588776, "lat": 36.7218562, "lon": 3.1376772, "tags": {"railway": "subway_entrance"}}, {"type": "node", "id": 3643150596, "lat": 36.7218773, "lon": 3.1182752, "tags": {"railway": "subway_entrance"}}, {"type": "node", "id": 3785998996, "lat": 36.7220107, "lon": 3.1315952, "tags": {"railway": "subway_entrance"}}, {"type": "node", "id": 3785999021, "lat": 36.7213943, "lon": 3.1371785, "tags": {"railway": "subway_entrance"}}, {"type": "node", "id": 3785999025, "lat": 36.7224478, "lon": 3.1370685, "tags": {"railway": "subway_entrance"}}, {"type": "node", "id": 3785999035, "lat": 36.7223568, "lon": 3.132683, "tags": {"railway": "subway_entrance"}}, {"type": "node", "id": 3786000502, "lat": 36.721547, "lon": 3.1178643, "tags": {"railway": "subway_entrance"}}, {"type": "node", "id": 3786000504, "lat": 36.7217764, "lon": 3.1177738, "tags": {"railway": "subway_entrance"}}, {"type": "node", "id": 3786000506, "lat": 36.7216503, "lon": 3.1183578, "tags": {"railway": "subway_entrance"}}, {"type": "node", "id": 4092193544, "lat": 36.7600197, "lon": 3.0561869, "tags": {"railway": "subway_entrance"}}, {"type": "node", "id": 4172019650, "lat": 36.765958, "lon": 3.0537244, "tags": {"name": "Khelifa Boukhalfa", "name:ar": "\u062e\u0644\u064a\u0641\u0629 \u0628\u0648\u062e\u0627\u0644\u0641\u0629", "name:fr": "Khelifa Boukhalfa", "railway": "subway_entrance"}}, {"type": "node", "id": 4322754927, "lat": 36.7667186, "lon": 3.0536729, "tags": {"description": "Sortie Didouche Mourad", "name": "Khelifa Boukhalfa", "railway": "subway_entrance"}}, {"type": "node", "id": 5540968676, "lat": 36.7060473, "lon": 3.0825467, "tags": {"railway": "subway_entrance"}}, {"type": "node", "id": 5540968677, "lat": 36.7056921, "lon": 3.0817783, "tags": {"railway": "subway_entrance"}}, {"type": "node", "id": 5540968678, "lat": 36.7053955, "lon": 3.0819897, "tags": {"railway": "subway_entrance"}}, {"type": "node", "id": 5540968679, "lat": 36.7057801, "lon": 3.0827581, "tags": {"railway": "subway_entrance"}}, {"type": "node", "id": 5543020410, "lat": 36.7854251, "lon": 3.062289, "tags": {"name": "\u0645\u062f\u062e\u0644 \u0633\u0627\u062d\u0629 \u0627\u0644\u0634\u0647\u062f\u0627\u0621", "railway": "subway_entrance", "wheelchair": "yes"}}, {"type": "node", "id": 5543020411, "lat": 36.7855359, "lon": 3.0622809, "tags": {"name": "\u0645\u062f\u062e\u0644 \u0633\u0627\u062d\u0629 \u0627\u0644\u0634\u0647\u062f\u0627\u0621", "railway": "subway_entrance", "wheelchair": "yes"}}, {"type": "node", "id": 5564870644, "lat": 36.7337227, "lon": 3.101244, "tags": {"name": "\u062d\u064a \u0627\u0644\u0628\u062d\u0631 \u0648\u0627\u0644\u0634\u0645\u0633", "name:ar": "\u062d\u064a \u0627\u0644\u0628\u062d\u0631 \u0648\u0627\u0644\u0634\u0645\u0633", "name:fr": "Quartier mer et soleil", "railway": "subway_entrance"}}, {"type": "node", "id": 5564870645, "lat": 36.7335256, "lon": 3.1014683, "tags": {"name": "\u062d\u064a \u0627\u0644\u0628\u062d\u0631 \u0648\u0627\u0644\u0634\u0645\u0633", "name:ar": "\u062d\u064a \u0627\u0644\u0628\u062d\u0631 \u0648\u0627\u0644\u0634\u0645\u0633", "name:fr": "Quartier mer et soleil", "railway": "subway_entrance"}}, {"type": "node", "id": 6030779402, "lat": 36.779124, "lon": 3.0578494, "tags": {"name": "\u0639\u0644\u064a \u0628\u0648\u0645\u0646\u062c\u0644 - \u0645\u062f\u062e\u0644 2", "name:ar": "\u0639\u0644\u064a \u0628\u0648\u0645\u0646\u062c\u0644 - \u0645\u062f\u062e\u0644 2", "name:fr": "Ali Boumendjel - Sortie n\u00b02", "railway": "subway_entrance"}}, {"type": "node", "id": 6030790361, "lat": 36.7866518, "lon": 3.0623875, "tags": {"name": "\u0645\u062f\u062e\u0644 \u0627\u0644\u0642\u0635\u0628\u0629 \u0627\u0644\u0633\u0641\u0644\u0649", "railway": "subway_entrance"}}, {"type": "node", "id": 6030794419, "lat": 36.7811304, "lon": 3.0592147, "tags": {"name": "\u0639\u0644\u064a \u0628\u0648\u0645\u0646\u062c\u0644 - \u0645\u062f\u062e\u0644 4", "name:ar": "\u0639\u0644\u064a \u0628\u0648\u0645\u0646\u062c\u0644 - \u0645\u062f\u062e\u0644 4", "name:fr": "Ali Boumendjel - Sortie n\u00b04", "railway": "subway_entrance"}}, {"type": "node", "id": 6398645687, "lat": 36.7815105, "lon": 3.0597189, "tags": {"name": "\u0639\u0644\u064a \u0628\u0648\u0645\u0646\u062c\u0644 - \u0645\u062f\u062e\u0644 3", "name:ar": "\u0639\u0644\u064a \u0628\u0648\u0645\u0646\u062c\u0644 - \u0645\u062f\u062e\u0644 3", "name:fr": "Ali Boumendjel - Sortie n\u00b03", "railway": "subway_entrance"}}]}