{"version": 0.6, "generator": "Overpass API 0.7.62.5 1bd436f1", "osm3s": {"timestamp_osm_base": "2025-05-02T10:01:16Z", "copyright": "The data included in this document is from www.openstreetmap.org. The data is made available under ODbL."}, "elements": [{"type": "node", "id": 452418787, "lat": 36.7294782, "lon": 3.1743236, "tags": {"name": "Cit\u00e9 Mokhtar Zerhouni", "name:ar": "\u062d\u064a \u0645\u062e\u062a\u0627\u0631 \u0632\u0631\u0647\u0648\u0646\u064a", "network": "\u062a\u0631\u0627\u0645\u0648\u0627\u064a \u0627\u0644\u062c\u0632\u0627\u0626\u0631", "network:wikidata": "Q1688502", "operator": "SETRAM", "operator:wikidata": "Q22688489", "public_transport": "stop_position", "railway": "tram_stop", "tram": "yes"}}, {"type": "node", "id": 472084248, "lat": 36.7322506, "lon": 3.1840653, "tags": {"alt_name:ft": "RUBE 1", "name": "Cit\u00e9 Universitaire - CUB 1", "name:ar": "\u0627\u0644\u0625\u0642\u0627\u0645\u0629 \u0627\u0644\u062c\u0627\u0645\u0639\u064a\u0629 - \u062d \u062c \u0628 1", "network": "\u062a\u0631\u0627\u0645\u0648\u0627\u064a \u0627\u0644\u062c\u0632\u0627\u0626\u0631", "network:wikidata": "Q1688502", "operator": "SETRAM", "operator:wikidata": "Q22688489", "public_transport": "stop_position", "railway": "tram_stop", "tram": "yes"}}, {"type": "node", "id": 472084262, "lat": 36.7243461, "lon": 3.184784, "tags": {"name": "Bab Ezzouar - Le Pont \u0628\u0627\u0628 \u0627\u0644\u0632\u0648\u0627\u0631 - \u0627\u0644\u062c\u0633\u0631", "name:ar": "\u0628\u0627\u0628 \u0627\u0644\u0632\u0648\u0627\u0631 - \u0627\u0644\u062c\u0633\u0631", "network": "\u062a\u0631\u0627\u0645\u0648\u0627\u064a \u0627\u0644\u062c\u0632\u0627\u0626\u0631", "network:wikidata": "Q1688502", "operator": "SETRAM", "operator:wikidata": "Q22688489", "public_transport": "stop_position", "railway": "tram_stop", "tram": "yes"}}, {"type": "node", "id": 472084274, "lat": 36.7208103, "lon": 3.1795751, "tags": {"alt_name:ar": "\u062c\u0627\u0645\u0639\u0629 \u0627\u0644\u0639\u0644\u0648\u0645 \u0648 \u0627\u0644\u062a\u0643\u0646\u0648\u0644\u0648\u062c\u064a\u0627 \u0647\u0648\u0627\u0631\u064a \u0628\u0648\u0645\u062f\u064a\u0646", "alt_name:fr": "Universit\u00e9 USTHB", "name": "Universit\u00e9 de Bab Ezzouar", "name:ar": "\u062c\u0627\u0645\u0639\u0629 \u0628\u0627\u0628 \u0627\u0644\u0632\u0648\u0627\u0631", "network": "\u062a\u0631\u0627\u0645\u0648\u0627\u064a \u0627\u0644\u062c\u0632\u0627\u0626\u0631", "network:wikidata": "Q1688502", "operator": "SETRAM", "operator:wikidata": "Q22688489", "public_transport": "stop_position", "railway": "tram_stop", "tram": "yes"}}, {"type": "node", "id": 472084279, "lat": 36.7244806, "lon": 3.1769703, "tags": {"name": "Cit\u00e9 Rabia", "name:ar": "\u062d\u064a \u0631\u0627\u0628\u064a\u0629", "network": "\u062a\u0631\u0627\u0645\u0648\u0627\u064a \u0627\u0644\u062c\u0632\u0627\u0626\u0631", "network:wikidata": "Q1688502", "operator": "SETRAM", "operator:wikidata": "Q22688489", "public_transport": "stop_position", "railway": "tram_stop", "tram": "yes"}}, {"type": "node", "id": 472084291, "lat": 36.7325544, "lon": 3.1732935, "tags": {"name": "Tamaris", "name:ar": "\u062d\u064a \u0627\u0644\u0645\u0646\u062f\u0631\u064a\u0646", "network": "\u062a\u0631\u0627\u0645\u0648\u0627\u064a \u0627\u0644\u062c\u0632\u0627\u0626\u0631", "network:wikidata": "Q1688502", "operator": "SETRAM", "operator:wikidata": "Q22688489", "public_transport": "stop_position", "railway": "tram_stop", "tram": "yes"}}, {"type": "node", "id": 472084293, "lat": 36.7321994, "lon": 3.1670294, "tags": {"name": "Les Pins", "name:ar": "\u0627\u0644\u0635\u0646\u0648\u0628\u0631", "network": "\u062a\u0631\u0627\u0645\u0648\u0627\u064a \u0627\u0644\u062c\u0632\u0627\u0626\u0631", "network:wikidata": "Q1688502", "operator": "SETRAM", "operator:wikidata": "Q22688489", "public_transport": "stop_position", "railway": "tram_stop", "tram": "yes"}}, {"type": "node", "id": 472084301, "lat": 36.7312694, "lon": 3.1613689, "tags": {"name": "Foire d'Alger", "name:ar": "\u0642\u0635\u0631 \u0627\u0644\u0645\u0639\u0627\u0631\u0636", "network": "\u062a\u0631\u0627\u0645\u0648\u0627\u064a \u0627\u0644\u062c\u0632\u0627\u0626\u0631", "network:wikidata": "Q1688502", "operator": "SETRAM", "operator:wikidata": "Q22688489", "public_transport": "stop_position", "railway": "tram_stop", "tram": "yes"}}, {"type": "node", "id": 472089383, "lat": 36.7258806, "lon": 3.1508033, "tags": {"alt_name:ar": "\u0633\u0627\u0646 \u0645\u064a\u0632\u0648\u0646", "name": "Cinq Maisons", "name:ar": "\u0627\u0644\u062f\u064a\u0627\u0631 \u0627\u0644\u062e\u0645\u0633", "name:fr": "Cinq Maisons", "network": "\u062a\u0631\u0627\u0645\u0648\u0627\u064a \u0627\u0644\u062c\u0632\u0627\u0626\u0631", "network:wikidata": "Q1688502", "operator": "SETRAM", "operator:wikidata": "Q22688489", "railway": "tram_stop"}}, {"type": "node", "id": 472089389, "lat": 36.7278111, "lon": 3.1434353, "tags": {"name": "Bekri Bouguerra", "name:ar": "\u0628\u0643\u0631\u064a \u0628\u0648\u0642\u0631\u0629", "network": "\u062a\u0631\u0627\u0645\u0648\u0627\u064a \u0627\u0644\u062c\u0632\u0627\u0626\u0631", "network:wikidata": "Q1688502", "operator": "SETRAM", "operator:wikidata": "Q22688489", "public_transport": "stop_position", "railway": "tram_stop", "tram": "yes"}}, {"type": "node", "id": 472089401, "lat": 36.7302783, "lon": 3.1301597, "tags": {"name": "Pont El Harrach", "name:ar": "\u062c\u0633\u0631 \u0627\u0644\u062d\u0631\u0627\u0634", "name:fr": "Pont El Harrach", "network": "\u062a\u0631\u0627\u0645\u0648\u0627\u064a \u0627\u0644\u062c\u0632\u0627\u0626\u0631", "network:wikidata": "Q1688502", "operator": "SETRAM", "operator:wikidata": "Q22688489", "public_transport": "stop_position", "railway": "tram_stop", "tram": "yes"}}, {"type": "node", "id": 472089412, "lat": 36.7370321, "lon": 3.1136772, "tags": {"name": "Tripoli-Magharia", "name:ar": "\u0637\u0631\u0627\u0628\u0644\u0633 - \u0627\u0644\u0645\u0642\u0631\u064a\u0629", "name:fr": "Tripoli - Makaria", "network": "\u062a\u0631\u0627\u0645\u0648\u0627\u064a \u0627\u0644\u062c\u0632\u0627\u0626\u0631", "network:wikidata": "Q1688502", "operator": "SETRAM", "operator:wikidata": "Q22688489", "public_transport": "stop_position", "railway": "tram_stop", "tram": "yes"}}, {"type": "node", "id": 472089415, "lat": 36.7407195, "lon": 3.1040904, "tags": {"name": "Tripoli - Hamadeche", "name:ar": "\u0637\u0631\u0627\u0628\u0644\u0633 - \u062d\u0645\u062f\u0627\u0634", "operator": "SETRAM", "public_transport": "stop_position", "railway": "tram_stop", "tram": "yes"}}, {"type": "node", "id": 472089416, "lat": 36.7432626, "lon": 3.0974131, "tags": {"name": "Tripoli - Mosqu\u00e9e", "name:ar": "\u0637\u0631\u0627\u0628\u0644\u0633 - \u0627\u0644\u0645\u0633\u062c\u062f", "network": "\u062a\u0631\u0627\u0645\u0648\u0627\u064a \u0627\u0644\u062c\u0632\u0627\u0626\u0631", "network:wikidata": "Q1688502", "operator": "SETRAM", "operator:wikidata": "Q22688489", "public_transport": "stop_position", "railway": "tram_stop", "tram": "yes"}}, {"type": "node", "id": 472089428, "lat": 36.7459931, "lon": 3.086813, "tags": {"name": "Les Fusill\u00e9s", "name:ar": "\u0627\u0644\u0645\u0639\u062f\u0648\u0645\u064a\u0646", "name:fr": "Les Fusill\u00e9s", "network": "\u062a\u0631\u0627\u0645\u0648\u0627\u064a \u0627\u0644\u062c\u0632\u0627\u0626\u0631", "network:wikidata": "Q1688502", "operator": "SETRAM", "operator:wikidata": "Q22688489", "public_transport": "stop_position", "railway": "tram_stop", "tram": "yes"}}, {"type": "node", "id": 689997704, "lat": 36.7481604, "lon": 3.1970759, "tags": {"name": "Bordj El Kiffan - Polyclinique", "name:ar": "\u0628\u0631\u062c \u0627\u0644\u0643\u064a\u0641\u0627\u0646 - \u0627\u0644\u0639\u064a\u0627\u062f\u0629", "network": "\u062a\u0631\u0627\u0645\u0648\u0627\u064a \u0627\u0644\u062c\u0632\u0627\u0626\u0631", "network:wikidata": "Q1688502", "operator": "SETRAM", "operator:wikidata": "Q22688489", "public_transport": "stop_position", "railway": "tram_stop", "tram": "yes"}}, {"type": "node", "id": 689997724, "lat": 36.7470254, "lon": 3.1910023, "tags": {"name": "Bordj El Kiffan - Centre", "name:ar": "\u0628\u0631\u062c \u0627\u0644\u0643\u064a\u0641\u0627\u0646 - \u0648\u0633\u0637", "network": "\u062a\u0631\u0627\u0645\u0648\u0627\u064a \u0627\u0644\u062c\u0632\u0627\u0626\u0631", "network:wikidata": "Q1688502", "operator": "SETRAM", "operator:wikidata": "Q22688489", "public_transport": "stop_position", "railway": "tram_stop", "tram": "yes"}}, {"type": "node", "id": 689997745, "lat": 36.7453267, "lon": 3.1876677, "tags": {"alt_name:fr": "Lyc\u00e9e", "name": "Bordj El Kifane - Lyc\u00e9e", "name:fr": "\u0628\u0631\u062c \u0627\u0644\u0643\u064a\u0641\u0627\u0646 - \u0627\u0644\u062b\u0627\u0646\u0648\u064a\u0629", "network": "\u062a\u0631\u0627\u0645\u0648\u0627\u064a \u0627\u0644\u062c\u0632\u0627\u0626\u0631", "operator": "SETRAM", "public_transport": "stop_position", "railway": "tram_stop", "tram": "yes"}}, {"type": "node", "id": 689997751, "lat": 36.7409744, "lon": 3.1860904, "tags": {"name": "Cit\u00e9 Claire Matin", "name:fr": "\u062d\u064a \u0627\u0644\u0635\u0628\u0627\u062d", "network": "\u062a\u0631\u0627\u0645\u0648\u0627\u064a \u0627\u0644\u062c\u0632\u0627\u0626\u0631", "network:wikidata": "Q1688502", "operator": "SETRAM", "operator:wikidata": "Q22688489", "public_transport": "stop_position", "railway": "tram_stop", "tram": "yes"}}, {"type": "node", "id": 689997781, "lat": 36.7373281, "lon": 3.1849088, "tags": {"name": "Cit\u00e9 8 Mai 1945", "name:ar": "\u062d\u064a 8 \u0645\u0627\u064a 1945", "network": "\u062a\u0631\u0627\u0645\u0648\u0627\u064a \u0627\u0644\u062c\u0632\u0627\u0626\u0631", "network:wikidata": "Q1688502", "operator": "SETRAM", "operator:wikidata": "Q22688489", "public_transport": "stop_position", "railway": "tram_stop", "tram": "yes"}}, {"type": "node", "id": 956392789, "lat": 36.742878, "lon": 3.0834886, "tags": {"alt_name:ar": "\u0631\u0648\u064a\u0633\u0648", "name": "Ruisseau", "name:ar": "\u0627\u0644\u0631\u0648\u064a\u0633\u0648", "network": "\u062a\u0631\u0627\u0645\u0648\u0627\u064a \u0627\u0644\u062c\u0632\u0627\u0626\u0631", "network:wikidata": "Q1688502", "operator": "SETRAM", "operator:wikidata": "Q22688489", "public_transport": "stop_position", "railway": "tram_stop", "tram": "yes"}}, {"type": "node", "id": 1626899500, "lat": 36.7215273, "lon": 3.1828188, "tags": {"name": "Cit\u00e9 5 juillet", "name:ar": "\u062d\u064a 5 \u062c\u0648\u064a\u0644\u064a\u0629", "network": "\u062a\u0631\u0627\u0645\u0648\u0627\u064a \u0627\u0644\u062c\u0632\u0627\u0626\u0631", "network:wikidata": "Q1688502", "operator": "SETRAM", "operator:wikidata": "Q22688489", "public_transport": "stop_position", "railway": "tram_stop", "tram": "yes"}}, {"type": "node", "id": 1929028675, "lat": 36.7493038, "lon": 3.206485, "tags": {"name": "\u0645\u0648\u062d\u0648\u0633", "name:fr": "Mouhous", "network": "\u062a\u0631\u0627\u0645\u0648\u0627\u064a \u0627\u0644\u062c\u0632\u0627\u0626\u0631", "network:wikidata": "Q1688502", "operator": "SETRAM", "operator:wikidata": "Q22688489", "railway": "tram_stop"}}, {"type": "node", "id": 2253518514, "lat": 36.7328166, "lon": 3.1246314, "tags": {"name": "La Glaci\u00e8re", "name:ar": "\u0627\u0644\u0647\u0648\u0627\u0621 \u0627\u0644\u062c\u0645\u064a\u0644", "network": "\u062a\u0631\u0627\u0645\u0648\u0627\u064a \u0627\u0644\u062c\u0632\u0627\u0626\u0631", "network:wikidata": "Q1688502", "operator": "SETRAM", "operator:wikidata": "Q22688489", "public_transport": "stop_position", "railway": "tram_stop", "tram": "yes"}}, {"type": "node", "id": 2253518671, "lat": 36.7357136, "lon": 3.1181771, "tags": {"name": "Caroubier", "name:ar": "\u0627\u0644\u062e\u0631\u0648\u0628\u0629", "name:de": "Caroubier", "name:en": "Caroubier", "name:fr": "Caroubier", "network": "\u062a\u0631\u0627\u0645\u0648\u0627\u064a \u0627\u0644\u062c\u0632\u0627\u0626\u0631", "network:wikidata": "Q1688502", "operator": "SETRAM", "operator:wikidata": "Q22688489", "railway": "tram_stop"}}, {"type": "node", "id": 2253518723, "lat": 36.7294979, "lon": 3.1360516, "tags": {"name": "Bellevue", "name:ar": "\u0627\u0644\u0645\u0646\u0638\u0631 \u0627\u0644\u062c\u0645\u064a\u0644", "name:fr": "Bellevue", "network": "\u062a\u0631\u0627\u0645\u0648\u0627\u064a \u0627\u0644\u062c\u0632\u0627\u0626\u0631", "network:wikidata": "Q1688502", "operator": "SETRAM", "operator:wikidata": "Q22688489", "public_transport": "stop_position", "railway": "tram_stop", "tram": "yes"}}, {"type": "node", "id": 2402077544, "lat": 36.7452182, "lon": 3.0922946, "tags": {"name": "Tripoli - Th\u00e2alibia", "operator": "SETRAM", "public_transport": "stop_position", "railway": "tram_stop", "tram": "yes"}}, {"type": "node", "id": 2951946502, "lat": 36.7730406, "lon": 3.2451557, "tags": {"name": "Benzerga", "name:en": "Benzerga", "name:fr": "Benzerga", "network": "\u062a\u0631\u0627\u0645\u0648\u0627\u064a \u0627\u0644\u062c\u0632\u0627\u0626\u0631", "network:wikidata": "Q1688502", "operator": "SETRAM", "operator:wikidata": "Q22688489", "railway": "tram_stop"}}, {"type": "node", "id": 3009232878, "lat": 36.7503142, "lon": 3.2119921, "tags": {"name": "Mimouni Hamoudi", "name:ar": "\u0645\u064a\u0645\u0648\u0646\u064a \u0645\u062d\u0645\u0648\u062f", "name:en": "Mimouni Hamoudi", "name:fr": "Mimouni Hamoudi", "network": "\u062a\u0631\u0627\u0645\u0648\u0627\u064a \u0627\u0644\u062c\u0632\u0627\u0626\u0631", "network:wikidata": "Q1688502", "operator": "Setram", "operator:wikidata": "Q22688489", "railway": "tram_stop"}}, {"type": "node", "id": 3010708035, "lat": 36.7326363, "lon": 3.1245275, "tags": {"name": "La Glaci\u00e8re", "network": "\u062a\u0631\u0627\u0645\u0648\u0627\u064a \u0627\u0644\u062c\u0632\u0627\u0626\u0631", "network:wikidata": "Q1688502", "operator": "SETRAM", "operator:wikidata": "Q22688489", "railway": "tram_stop"}}, {"type": "node", "id": 3102187300, "lat": 36.7535674, "lon": 3.2200951, "tags": {"name": "Ben Mrabet", "name:ar": "\u0628\u0646 \u0645\u0631\u0627\u0628\u0637", "name:en": "Ben Mrabet", "name:fr": "Ben Mrabet", "network": "\u062a\u0631\u0627\u0645\u0648\u0627\u064a \u0627\u0644\u062c\u0632\u0627\u0626\u0631", "network:wikidata": "Q1688502", "operator": "SETRAM", "operator:wikidata": "Q22688489", "railway": "tram_stop"}}, {"type": "node", "id": 3220011165, "lat": 36.7660323, "lon": 3.2384262, "tags": {"name": "Sidi Dris", "name:ar": "\u0633\u064a\u062f\u064a \u0627\u062f\u0631\u064a\u0633", "name:en": "Sidi Dris", "name:fr": "Sidi Dris", "network": "\u062a\u0631\u0627\u0645\u0648\u0627\u064a \u0627\u0644\u062c\u0632\u0627\u0626\u0631", "network:wikidata": "Q1688502", "operator": "SETRAM", "operator:wikidata": "Q22688489", "railway": "tram_stop"}}, {"type": "node", "id": 3220011760, "lat": 36.7774533, "lon": 3.2501635, "tags": {"name": "Caf\u00e9 Chergui", "name:ar": "\u0642\u0647\u0648\u0629 \u0634\u0631\u0642\u064a", "network": "\u062a\u0631\u0627\u0645\u0648\u0627\u064a \u0627\u0644\u062c\u0632\u0627\u0626\u0631", "network:wikidata": "Q1688502", "operator": "SETRAM", "operator:wikidata": "Q22688489", "public_transport": "stop_position", "railway": "tram_stop", "source": "local knowledge", "tram": "yes"}}, {"type": "node", "id": 3376367448, "lat": 36.7589908, "lon": 3.2294045, "tags": {"name": "Ben Mered", "name:ar": "\u0628\u0646 \u0645\u0631\u0627\u062f", "name:en": "Ben Mered", "name:fr": "Ben Mered", "network": "\u062a\u0631\u0627\u0645\u0648\u0627\u064a \u0627\u0644\u062c\u0632\u0627\u0626\u0631", "network:wikidata": "Q1688502", "operator": "SETRAM", "operator:wikidata": "Q22688489", "railway": "tram_stop"}}, {"type": "node", "id": 3512265690, "lat": 36.7460096, "lon": 3.0867914, "tags": {"name": "Les Fusill\u00e9s", "name:ar": "\u0627\u0644\u0645\u0639\u062f\u0648\u0645\u064a\u0646", "name:fr": "Les Fusill\u00e9s", "network": "\u062a\u0631\u0627\u0645\u0648\u0627\u064a \u0627\u0644\u062c\u0632\u0627\u0626\u0631", "network:wikidata": "Q1688502", "operator": "SETRAM", "operator:wikidata": "Q22688489", "public_transport": "stop_position", "railway": "tram_stop", "tram": "yes"}}, {"type": "node", "id": 3513492377, "lat": 36.7590229, "lon": 3.2293823, "tags": {"name": "Ben Mered", "name:ar": "\u0628\u0646 \u0645\u0631\u0627\u062f", "network": "\u062a\u0631\u0627\u0645\u0648\u0627\u064a \u0627\u0644\u062c\u0632\u0627\u0626\u0631", "network:wikidata": "Q1688502", "operator": "SETRAM", "operator:wikidata": "Q22688489", "railway": "tram_stop"}}, {"type": "node", "id": 3513515526, "lat": 36.7774912, "lon": 3.2501708, "tags": {"name": "Caf\u00e9 Chergui", "name:ar": "\u0642\u0647\u0648\u0629 \u0634\u0631\u0642\u064a", "public_transport": "stop_position", "railway": "tram_stop", "tram": "yes"}}, {"type": "node", "id": 3513529208, "lat": 36.7503702, "lon": 3.2119574, "tags": {"name": "Mimouni Mahmoud", "name:ar": "\u0645\u064a\u0645\u0648\u0646\u064a \u0645\u062d\u0645\u0648\u062f", "name:de": "Mimouni Mahmoud", "name:en": "Mimouni Mahmoud", "name:fr": "Mimouni Mahmoud", "name:it": "Mimouni Mahmoud", "network": "\u062a\u0631\u0627\u0645\u0648\u0627\u064a \u0627\u0644\u062c\u0632\u0627\u0626\u0631", "network:wikidata": "Q1688502", "operator": "SETRAM", "operator:wikidata": "Q22688489", "railway": "tram_stop"}}, {"type": "node", "id": 3513532150, "lat": 36.7730613, "lon": 3.2451316, "tags": {"name": "Benzerga", "network": "\u062a\u0631\u0627\u0645\u0648\u0627\u064a \u0627\u0644\u062c\u0632\u0627\u0626\u0631", "network:wikidata": "Q1688502", "operator": "SETRAM", "operator:wikidata": "Q22688489", "railway": "tram_stop"}}, {"type": "node", "id": 3513534789, "lat": 36.7660513, "lon": 3.2384001, "tags": {"name": "Sidi Dris", "name:ar": "\u0633\u064a\u062f\u064a \u062f\u0631\u064a\u0633", "network": "\u062a\u0631\u0627\u0645\u0648\u0627\u064a \u0627\u0644\u062c\u0632\u0627\u0626\u0631", "network:wikidata": "Q1688502", "operator": "SETRAM", "operator:wikidata": "Q22688489", "railway": "tram_stop"}}, {"type": "node", "id": 3513537666, "lat": 36.7493554, "lon": 3.2064851, "tags": {"name": "\u0645\u0648\u062d\u0648\u0633", "network": "\u062a\u0631\u0627\u0645\u0648\u0627\u064a \u0627\u0644\u062c\u0632\u0627\u0626\u0631", "network:wikidata": "Q1688502", "operator": "SETRAM", "operator:wikidata": "Q22688489", "railway": "tram_stop"}}, {"type": "node", "id": 3513540400, "lat": 36.753599, "lon": 3.2200865, "tags": {"name": "Ben Mrabet", "name:ar": "\u0628\u0646 \u0645\u0631\u0627\u0628\u0637", "network": "\u062a\u0631\u0627\u0645\u0648\u0627\u064a \u0627\u0644\u062c\u0632\u0627\u0626\u0631", "network:wikidata": "Q1688502", "operator": "SETRAM", "operator:wikidata": "Q22688489", "railway": "tram_stop"}}, {"type": "node", "id": 3513552241, "lat": 36.7482018, "lon": 3.1971485, "tags": {"name": "Bordj El Kiffan - Polyclinique", "name:ar": "\u0628\u0631\u062c \u0627\u0644\u0643\u064a\u0641\u0627\u0646 - \u0627\u0644\u0639\u064a\u0627\u062f\u0629", "network": "\u062a\u0631\u0627\u0645\u0648\u0627\u064a \u0627\u0644\u062c\u0632\u0627\u0626\u0631", "network:wikidata": "Q1688502", "operator": "SETRAM", "operator:wikidata": "Q22688489", "public_transport": "stop_position", "railway": "tram_stop", "tram": "yes"}}, {"type": "node", "id": 3513552242, "lat": 36.747044, "lon": 3.1909913, "tags": {"name": "Bordj El Kiffan - Centre", "name:ar": "\u0628\u0631\u062c \u0627\u0644\u0643\u064a\u0641\u0627\u0646 - \u0648\u0633\u0637", "network": "\u062a\u0631\u0627\u0645\u0648\u0627\u064a \u0627\u0644\u062c\u0632\u0627\u0626\u0631", "network:wikidata": "Q1688502", "operator": "SETRAM", "operator:wikidata": "Q22688489", "public_transport": "stop_position", "railway": "tram_stop", "tram": "yes"}}, {"type": "node", "id": 3513552990, "lat": 36.7453314, "lon": 3.1876436, "tags": {"name": "Bordj El Kiffan - Lyc\u00e9e", "name:ar": "\u0628\u0631\u062c \u0627\u0644\u0643\u064a\u0641\u0627\u0646 - \u0627\u0644\u062b\u0627\u0646\u0648\u064a\u0629", "network": "\u062a\u0631\u0627\u0645\u0648\u0627\u064a \u0627\u0644\u062c\u0632\u0627\u0626\u0631", "network:wikidata": "Q1688502", "operator": "SETRAM", "operator:wikidata": "Q22688489", "public_transport": "stop_position", "railway": "tram_stop", "tram": "yes"}}, {"type": "node", "id": 3513571593, "lat": 36.7409816, "lon": 3.1860611, "tags": {"name": "Cit\u00e9 Clair Matin", "name:ar": "\u062d\u064a \u0627\u0644\u0635\u0628\u0627\u062d", "network": "\u062a\u0631\u0627\u0645\u0648\u0627\u064a \u0627\u0644\u062c\u0632\u0627\u0626\u0631", "network:wikidata": "Q1688502", "operator": "SETRAM", "operator:wikidata": "Q22688489", "public_transport": "stop_position", "railway": "tram_stop", "tram": "yes"}}, {"type": "node", "id": 3513573388, "lat": 36.737329, "lon": 3.1848779, "tags": {"name": "Cit\u00e9 8 mai 1945", "name:ar": "\u062d\u064a 8 \u0645\u0627\u064a 1945", "network": "\u062a\u0631\u0627\u0645\u0648\u0627\u064a \u0627\u0644\u062c\u0632\u0627\u0626\u0631", "network:wikidata": "Q1688502", "operator": "SETRAM", "operator:wikidata": "Q22688489", "public_transport": "stop_position", "railway": "tram_stop", "tram": "yes"}}, {"type": "node", "id": 3513574204, "lat": 36.7243368, "lon": 3.1847488, "tags": {"name": "Bab Ezzouar - Le Pont", "name:ar": "\u0628\u0627\u0628 \u0627\u0644\u0632\u0648\u0627\u0631 - \u0627\u0644\u062c\u0633\u0631", "network": "\u062a\u0631\u0627\u0645\u0648\u0627\u064a \u0627\u0644\u062c\u0632\u0627\u0626\u0631", "network:wikidata": "Q1688502", "operator": "SETRAM", "operator:wikidata": "Q22688489", "public_transport": "stop_position", "railway": "tram_stop", "tram": "yes"}}, {"type": "node", "id": 3513575500, "lat": 36.7322534, "lon": 3.1840388, "tags": {"name": "Cit\u00e9 Universitaire - CUB 1", "name:ar": "\u0627\u0644\u0625\u0642\u0627\u0645\u0629 \u0627\u0644\u062c\u0627\u0645\u0639\u064a\u0629 - \u062d \u062c \u0628 1", "network": "\u062a\u0631\u0627\u0645\u0648\u0627\u064a \u0627\u0644\u062c\u0632\u0627\u0626\u0631", "network:wikidata": "Q1688502", "operator": "SETRAM", "operator:wikidata": "Q22688489", "public_transport": "stop_position", "railway": "tram_stop", "tram": "yes"}}, {"type": "node", "id": 3513576390, "lat": 36.721547, "lon": 3.1827917, "tags": {"name": "Cit\u00e9 5 juillet", "name:ar": "\u062d\u064a 5 \u062c\u0648\u064a\u0644\u064a\u0629", "network": "\u062a\u0631\u0627\u0645\u0648\u0627\u064a \u0627\u0644\u062c\u0632\u0627\u0626\u0631", "network:wikidata": "Q1688502", "operator": "SETRAM", "operator:wikidata": "Q22688489", "public_transport": "stop_position", "railway": "tram_stop", "tram": "yes"}}, {"type": "node", "id": 3513576791, "lat": 36.7244919, "lon": 3.1770059, "tags": {"name": "Cit\u00e9 Rabia", "name:ar": "\u062d\u064a \u0631\u0627\u0628\u064a\u0629", "network": "\u062a\u0631\u0627\u0645\u0648\u0627\u064a \u0627\u0644\u062c\u0632\u0627\u0626\u0631", "network:wikidata": "Q1688502", "operator": "SETRAM", "operator:wikidata": "Q22688489", "public_transport": "stop_position", "railway": "tram_stop", "tram": "yes"}}, {"type": "node", "id": 3513604611, "lat": 36.7208223, "lon": 3.1795987, "tags": {"name": "Universit\u00e9 de Bab Ezzouar", "name:ar": "\u062c\u0627\u0645\u0639\u0629 \u0628\u0627\u0628 \u0627\u0644\u0632\u0648\u0627\u0631", "network": "\u062a\u0631\u0627\u0645\u0648\u0627\u064a \u0627\u0644\u062c\u0632\u0627\u0626\u0631", "network:wikidata": "Q1688502", "operator": "SETRAM", "operator:wikidata": "Q22688489", "public_transport": "stop_position", "railway": "tram_stop", "tram": "yes"}}, {"type": "node", "id": 3513613686, "lat": 36.7294778, "lon": 3.1743557, "tags": {"name": "Cit\u00e9 Mokhtar Zerhouni", "name:ar": "\u062d\u064a \u0645\u062e\u062a\u0627\u0631 \u0632\u0631\u0647\u0648\u0646\u064a", "network": "\u062a\u0631\u0627\u0645\u0648\u0627\u064a \u0627\u0644\u062c\u0632\u0627\u0626\u0631", "network:wikidata": "Q1688502", "operator": "SETRAM", "operator:wikidata": "Q22688489", "public_transport": "stop_position", "railway": "tram_stop", "tram": "yes"}}, {"type": "node", "id": 3513613882, "lat": 36.7322233, "lon": 3.1670089, "tags": {"name": "Les Pins", "name:ar": "\u0627\u0644\u0635\u0646\u0648\u0628\u0631", "network": "\u062a\u0631\u0627\u0645\u0648\u0627\u064a \u0627\u0644\u062c\u0632\u0627\u0626\u0631", "network:wikidata": "Q1688502", "operator": "SETRAM", "operator:wikidata": "Q22688489", "public_transport": "stop_position", "railway": "tram_stop", "tram": "yes"}}, {"type": "node", "id": 3513616950, "lat": 36.7326314, "lon": 3.1732918, "tags": {"name": "Tamaris", "name:ar": "\u062d\u064a \u0627\u0644\u0645\u0646\u062f\u0631\u064a\u0646", "network": "\u062a\u0631\u0627\u0645\u0648\u0627\u064a \u0627\u0644\u062c\u0632\u0627\u0626\u0631", "network:wikidata": "Q1688502", "operator:wikidata": "Q22688489", "public_transport": "stop_position", "railway": "tram_stop", "tram": "yes"}}, {"type": "node", "id": 3513651506, "lat": 36.7312998, "lon": 3.1613624, "tags": {"name": "Foire d'Alger", "name:ar": "\u0642\u0635\u0631 \u0627\u0644\u0645\u0639\u0627\u0631\u0636", "network": "\u062a\u0631\u0627\u0645\u0648\u0627\u064a \u0627\u0644\u062c\u0632\u0627\u0626\u0631", "network:wikidata": "Q1688502", "operator": "SETRAM", "operator:wikidata": "Q22688489", "public_transport": "stop_position", "railway": "tram_stop", "tram": "yes"}}, {"type": "node", "id": 3513668361, "lat": 36.7259033, "lon": 3.1507849, "tags": {"name": "Cinq Maisons", "name:ar": "\u0627\u0644\u062f\u064a\u0627\u0631 \u0627\u0644\u062e\u0645\u0633", "network": "\u062a\u0631\u0627\u0645\u0648\u0627\u064a \u0627\u0644\u062c\u0632\u0627\u0626\u0631", "network:wikidata": "Q1688502", "operator:wikidata": "Q22688489", "railway": "tram_stop"}}, {"type": "node", "id": 3513689110, "lat": 36.7278378, "lon": 3.1434485, "tags": {"name": "Bekri Bouguerra", "name:ar": "\u0628\u0643\u0631\u064a \u0628\u0648\u0642\u0631\u0629", "name:fr": "Bekri Bouguerra", "network": "\u062a\u0631\u0627\u0645\u0648\u0627\u064a \u0627\u0644\u062c\u0632\u0627\u0626\u0631", "network:wikidata": "Q1688502", "operator": "SETRAM", "operator:wikidata": "Q22688489", "public_transport": "stop_position", "railway": "tram_stop", "tram": "yes"}}, {"type": "node", "id": 3513693753, "lat": 36.7295175, "lon": 3.1360464, "tags": {"name": "Bellevue", "name:ar": "\u0627\u0644\u0645\u0646\u0638\u0631 \u0627\u0644\u062c\u0645\u064a\u0644", "network": "\u062a\u0631\u0627\u0645\u0648\u0627\u064a \u0627\u0644\u062c\u0632\u0627\u0626\u0631", "network:wikidata": "Q1688502", "operator": "SETRAM", "operator:wikidata": "Q22688489", "public_transport": "stop_position", "railway": "tram_stop", "tram": "yes"}}, {"type": "node", "id": 3513698842, "lat": 36.7303138, "lon": 3.1301771, "tags": {"name": "Pont El-Harrach", "name:ar": "\u062c\u0633\u0631 \u0627\u0644\u062d\u0631\u0627\u0634", "network": "\u062a\u0631\u0627\u0645\u0648\u0627\u064a \u0627\u0644\u062c\u0632\u0627\u0626\u0631", "network:wikidata": "Q1688502", "operator": "SETRAM", "operator:wikidata": "Q22688489", "public_transport": "stop_position", "railway": "tram_stop", "tram": "yes"}}, {"type": "node", "id": 3513712819, "lat": 36.732837, "lon": 3.1246565, "tags": {"name": "La Glaci\u00e8re", "name:ar": "\u0627\u0644\u0647\u0648\u0627\u0621 \u0627\u0644\u062c\u0645\u064a\u0644", "network": "\u062a\u0631\u0627\u0645\u0648\u0627\u064a \u0627\u0644\u062c\u0632\u0627\u0626\u0631", "network:wikidata": "Q1688502", "operator": "SETRAM", "operator:wikidata": "Q22688489", "public_transport": "stop_position", "railway": "tram_stop", "tram": "yes"}}, {"type": "node", "id": 3513715693, "lat": 36.7357507, "lon": 3.1181711, "tags": {"name": "Caroubier", "name:ar": "\u0627\u0644\u062e\u0631\u0648\u0628\u0629", "name:de": "Caroubier", "name:en": "Caroubier", "name:fr": "Caroubier", "network": "\u062a\u0631\u0627\u0645\u0648\u0627\u064a \u0627\u0644\u062c\u0632\u0627\u0626\u0631", "network:wikidata": "Q1688502", "operator:wikidata": "Q22688489", "railway": "tram_stop"}}, {"type": "node", "id": 3513726622, "lat": 36.7370641, "lon": 3.113698, "tags": {"name": "Tripoli-Magharia", "name:ar": "\u0637\u0631\u0627\u0628\u0644\u0633 - \u0627\u0644\u0645\u0642\u0631\u064a\u0629", "network": "\u062a\u0631\u0627\u0645\u0648\u0627\u064a \u0627\u0644\u062c\u0632\u0627\u0626\u0631", "network:wikidata": "Q1688502", "operator:wikidata": "Q22688489", "public_transport": "stop_position", "railway": "tram_stop", "tram": "yes"}}, {"type": "node", "id": 3513727274, "lat": 36.7407402, "lon": 3.1041049, "tags": {"name": "Tripoli-Hamadeche", "name:ar": "\u0637\u0631\u0627\u0628\u0644\u0633-\u062d\u0645\u062f\u0627\u0634", "network": "\u062a\u0631\u0627\u0645\u0648\u0627\u064a \u0627\u0644\u062c\u0632\u0627\u0626\u0631", "network:wikidata": "Q1688502", "operator": "SETRAM", "operator:wikidata": "Q22688489", "public_transport": "stop_position", "railway": "tram_stop", "tram": "yes"}}, {"type": "node", "id": 3513729589, "lat": 36.7452426, "lon": 3.0923089, "tags": {"name": "Tripoli - Th\u00e2alibia", "network": "\u062a\u0631\u0627\u0645\u0648\u0627\u064a \u0627\u0644\u062c\u0632\u0627\u0626\u0631", "network:wikidata": "Q1688502", "operator": "SETRAM", "operator:wikidata": "Q22688489", "public_transport": "stop_position", "railway": "tram_stop", "tram": "yes"}}, {"type": "node", "id": 3513729802, "lat": 36.7432855, "lon": 3.0974281, "tags": {"name": "Tripoli - Mosqu\u00e9e", "name:ar": "\u0637\u0631\u0627\u0628\u0644\u0633 - \u0627\u0644\u0645\u0633\u062c\u062f", "network": "\u062a\u0631\u0627\u0645\u0648\u0627\u064a \u0627\u0644\u062c\u0632\u0627\u0626\u0631", "network:wikidata": "Q1688502", "operator": "SETRAM", "operator:wikidata": "Q22688489", "public_transport": "stop_position", "railway": "tram_stop", "tram": "yes"}}, {"type": "node", "id": 3516056360, "lat": 36.7326143, "lon": 3.1245081, "tags": {"name": "La Glaci\u00e8re", "name:fr": "La Glaci\u00e8re", "network": "\u062a\u0631\u0627\u0645\u0648\u0627\u064a \u0627\u0644\u062c\u0632\u0627\u0626\u0631", "network:wikidata": "Q1688502", "operator:wikidata": "Q22688489", "railway": "tram_stop"}}, {"type": "node", "id": 3694495396, "lat": 36.7739566, "lon": 3.2593565, "tags": {"name": "Cit\u00e9 Diplomatique", "name:ar": "\u0627\u0644\u062d\u064a \u0627\u0644\u062f\u0628\u0644\u0648\u0645\u0627\u0633\u064a", "name:fr": "Cit\u00e9 Diplomatique", "network": "\u062a\u0631\u0627\u0645\u0648\u0627\u064a \u0627\u0644\u062c\u0632\u0627\u0626\u0631", "network:wikidata": "Q1688502", "operator": "SETRAM", "operator:wikidata": "Q22688489", "public_transport": "stop_position", "railway": "tram_stop", "source": "local knowledge", "tram": "yes"}}, {"type": "node", "id": 3694495400, "lat": 36.7719729, "lon": 3.2603056, "tags": {"name": "Dergana Centre", "name:ar": "\u062f\u0631\u06a8\u0627\u0646\u0629 \u0648\u0633\u0637", "name:en": "Dergana Center", "name:fr": "Dergana Centre", "network": "\u062a\u0631\u0627\u0645\u0648\u0627\u064a \u0627\u0644\u062c\u0632\u0627\u0626\u0631", "network:wikidata": "Q1688502", "operator": "SETRAM", "operator:wikidata": "Q22688489", "public_transport": "stop_position", "railway": "tram_stop", "shelter": "yes", "source": "local knowledge", "tram": "yes"}}, {"type": "node", "id": 3694495413, "lat": 36.7777007, "lon": 3.2588623, "tags": {"name": "Facult\u00e9 Biom\u00e9dicale", "operator": "SETRAM", "public_transport": "stop_position", "railway": "tram_stop", "source": "local knowledge", "tram": "yes"}}, {"type": "node", "id": 4377305014, "lat": 36.7739474, "lon": 3.2593988, "tags": {"name": "Cit\u00e9 Diplomatique", "name:fr": "Cit\u00e9 Diplomatique", "operator": "SETRAM", "public_transport": "stop_position", "railway": "tram_stop", "tram": "yes"}}, {"type": "node", "id": 4377305015, "lat": 36.772017, "lon": 3.2603157, "tags": {"name": "Dergana Centre", "name:ar": "\u062f\u0631\u06a8\u0627\u0646\u0629 \u0648\u0633\u0637", "name:en": "Dergana Center", "name:fr": "Dergana Centre", "network": "\u062a\u0631\u0627\u0645\u0648\u0627\u064a \u0627\u0644\u062c\u0632\u0627\u0626\u0631", "network:wikidata": "Q1688502", "operator": "SETRAM", "operator:wikidata": "Q22688489", "public_transport": "stop_position", "railway": "tram_stop", "shelter": "yes", "source": "local knowledge", "tram": "yes"}}, {"type": "node", "id": 4377305016, "lat": 36.7777363, "lon": 3.2588343, "tags": {"name": "Facult\u00e9 Biom\u00e9dicale", "network": "\u062a\u0631\u0627\u0645\u0648\u0627\u064a \u0627\u0644\u062c\u0632\u0627\u0626\u0631", "network:wikidata": "Q1688502", "operator": "SETRAM", "operator:wikidata": "Q22688489", "public_transport": "stop_position", "railway": "tram_stop", "source": "local knowledge", "tram": "yes"}}, {"type": "node", "id": 7301592854, "lat": 36.7429185, "lon": 3.0834355, "tags": {"alt_name:ar": "\u0631\u0648\u064a\u0633\u0648", "name": "Ruisseau", "name:ar": "\u0627\u0644\u0631\u0648\u064a\u0633\u0648", "network": "\u062a\u0631\u0627\u0645\u0648\u0627\u064a \u0627\u0644\u062c\u0632\u0627\u0626\u0631", "network:wikidata": "Q1688502", "operator": "SETRAM", "operator:wikidata": "Q22688489", "public_transport": "stop_position", "railway": "tram_stop", "tram": "yes"}}, {"type": "node", "id": 8292893940, "lat": 36.7554384, "lon": 3.2242157, "tags": {"name": "Ben Redouan", "name:ar": "\u0628\u0646 \u0631\u0636\u0648\u0627\u0646", "name:en": "Ben Redouan", "name:fr": "Ben Redouan", "network": "\u062a\u0631\u0627\u0645\u0648\u0627\u064a \u0627\u0644\u062c\u0632\u0627\u0626\u0631", "network:wikidata": "Q1688502", "operator": "SETRAM", "operator:wikidata": "Q22688489", "public_transport": "stop_position", "railway": "tram_stop", "tram": "yes"}}, {"type": "node", "id": 8292893942, "lat": 36.7554099, "lon": 3.2242171, "tags": {"name": "Ben Redouan", "name:ar": "\u0628\u0646 \u0631\u0636\u0648\u0627\u0646", "name:en": "Ben Redouan", "name:fr": "Ben Redouan", "network": "\u062a\u0631\u0627\u0645\u0648\u0627\u064a \u0627\u0644\u062c\u0632\u0627\u0626\u0631", "network:wikidata": "Q1688502", "operator": "SETRAM", "operator:wikidata": "Q22688489", "public_transport": "stop_position", "railway": "tram_stop", "tram": "yes"}}]}